{
	"CodeName": "welldone",
	"NameEN": "Welldone",
	"DescEN": "",
	"ImageEN": "N/A",
	"DemourlEN": "N/A",
	"NameAR": "ويل دن",
	"DescAR": "",
	"ImageAR": "N/A",
	"DemourlAR": "N/A",
	"Pages": [
	{
		"CodeName": "templatesettings",
		"Route": "",
		"NameEN": "Settings",
		"DescEN": "",
		"NameAR": "الاعدادات",
		"DescAR": "",
		"Special": 1,
		"Regions": [
			{
				"CodeName": "styling",
				"RowOrder": "-1",
				"ColOrder": "-1",
				"ColWidth": "-1",
				"Sections": [
					{
						"CodeName": "colors",
						"Name": "Colors",
						"Type": "live",
						"State": "enabled",
						"IsCollection": 1,
						"NameEN": "Colors",
						"DescEN": "",
						"ImageEN": "N/A",
						"ThumbnailEN": "N/A",
						"NameAR": "الألوان",
						"DescAR": "",
						"ImageAR": "N/A",
						"ThumbnailAR": "N/A",
						"Collections": [
							{
								"Name": "Colorset 1",
								"Thumbnail": "N/A",
								"IsDefault": "0",
								"Fields": [
									{
										"CodeName": "MainColor",
										"Type": "colorpicker",
										"LookUpKey": "",
										"IsMultiLang": "0",
										"NameEN": "Main Color",
										"DescEN": "",
										"NameAR": "اللون الاساسى",
										"DescAR": "",
										"ValueEN": "#536dfe",
										"ValueAR": "#536dfe"
									},
									{
										"CodeName": "SecondaryColor",
										"Type": "colorpicker",
										"LookUpKey": "",
										"IsMultiLang": "0",
										"NameEN": "Secondary Color",
										"DescEN": "",
										"NameAR": "اللون الثانوي",
										"DescAR": "",
										"ValueEN": "#f55582",
										"ValueAR": "#f55582"
									},
									{
										"CodeName": "footerBG",
										"Type": "colorpicker",
										"LookUpKey": "",
										"IsMultiLang": "0",
										"NameEN": "Footer Background Color",
										"DescEN": "",
										"NameAR": "لون خلفية تذييل الموقع",
										"DescAR": "",
										"ValueEN": "#374850",
										"ValueAR": "#374850"
									},
									{
										"CodeName": "fixedHeaderBG",
										"Type": "colorpicker",
										"LookUpKey": "",
										"IsMultiLang": "0",
										"NameEN": "Fixed Header Background Color",
										"DescEN": "",
										"NameAR": "لون خلفية رأس الموقع",
										"DescAR": "",
										"ValueEN": "#2b383e",
										"ValueAR": "#2b383e"
									}
								]
							}
						]
					},
					{
						"CodeName": "fonts",
						"Name": "Fonts",
						"Type": "live",
						"State": "enabled",
						"IsCollection": 1,
						"NameEN": "Fonts",
						"DescEN": "",
						"ImageEN": "N/A",
						"ThumbnailEN": "N/A",
						"NameAR": "الخطوط",
						"DescAR": "",
						"ImageAR": "N/A",
						"ThumbnailAR": "N/A",
						"Collections": [
							{
								"Name": "Store fonts",
								"Thumbnail": "N/A",
								"IsDefault": "0",
								"Fields": [
									{
										"CodeName": "ArabicFonts",
										"Type": "sselect-lookup",
										"LookUpKey": "ArabicFonts",
										"IsMultiLang": "0",
										"NameEN": "Arabic Fonts",
										"DescEN": "",
										"NameAR": "الخطوط العربية",
										"DescAR": "",
										"ValueEN": "Cairo",
										"ValueAR": "Cairo"
									},
									{
										"CodeName": "EnglishFonts",
										"Type": "sselect-lookup",
										"LookUpKey": "EnglishFonts",
										"IsMultiLang": "0",
										"NameEN": "English Fonts",
										"DescEN": "",
										"NameAR": "الخطوط الانجليزية",
										"DescAR": "",
										"ValueEN": "Roboto",
										"ValueAR": "Roboto"
									}
								]
							}
						]
					},
					{
						"CodeName": "layout",
						"Name": "layout",
						"Type": "live",
						"State": "enabled",
						"IsCollection": 1,
						"NameEN": "Layout",
						"DescEN": "",
						"ImageEN": "N/A",
						"ThumbnailEN": "N/A",
						"NameAR": "التصميم",
						"DescAR": "",
						"ImageAR": "N/A",
						"ThumbnailAR": "N/A",
						"Collections": [
							{
								"Name": "layout",
								"Thumbnail": "N/A",
								"IsDefault": "0",
								"Fields": [
									{
										"CodeName": "layout",
										"Type": "sselect-lookup",
										"LookUpKey": "layout",
										"IsMultiLang": "0",
										"NameEN": "Theme Layout",
										"DescEN": "",
										"NameAR": "تخطيط القالب",
										"DescAR": "",
										"ValueEN": "",
										"ValueAR": ""
									},
									{
										"CodeName": "BoxedBG",
										"Type": "colorpicker",
										"LookUpKey": "",
										"IsMultiLang": "0",
										"NameEN": "Background Color for Boxed Layout",
										"DescEN": "",
										"NameAR": "لون الخلفية في حالة القالب الصندوقي",
										"DescAR": "",
										"ValueEN": "#2b383e",
										"ValueAR": "#2b383e"
									}
								]
							}
						]
					},
					{
						"CodeName": "newProductDuration",
						"Name": "product as new",
						"Type": "live",
						"State": "enabled",
						"IsCollection": 1,
						"NameEN": "New Product Time Interval",
						"DescEN": "How many days the products states as new?",
						"ImageEN": "N/A",
						"ThumbnailEN": "N/A",
						"NameAR": "صلاحية المنتج كجديد",
						"DescAR": "كم عدد الأيام التي يعتبر خلالها المنتج كمنتج جديد علي المتجر؟",
						"ImageAR": "N/A",
						"ThumbnailAR": "N/A",
						"Collections": [
							{
								"Name": "newInterval",
								"Thumbnail": "N/A",
								"IsDefault": "0",
								"Fields": [
									{
										"CodeName": "newInterval",
										"Type": "text",
										"LookUpKey": "",
										"IsMultiLang": "1",
										"NameEN": "Days",
										"DescEN": "",
										"NameAR": "عدد الأيام",
										"DescAR": "",
										"ValueEN": "130",
										"ValueAR": "130"
									}
								]
							}
						]
					}
				]
			}
		]
	},
	{
		"CodeName": "home",
		"Route": "",
		"NameEN": "Home Page",
		"DescEN": "",
		"NameAR": "الصفحة الرئيسية",
		"DescAR": "",
		"Special": 0,
		"Regions": [
		{
			"CodeName": "header",
			"RowOrder": "-1",
			"ColOrder": "-1",
			"ColWidth": "-1",
			"NameEN": "Header",
			"NameAR": "رأس الموقع",
			"DescEN": "",
			"DescAR": "",
			"Sections": [
				{
					"CodeName": "topbar",
					"Name": "Top Bar",
					"Type": "live",
					"State": "enabled",
					"IsCollection": 0,
					"NameEN": "Top Bar",
					"DescEN": "",
					"ImageEN": "N/A",
					"ThumbnailEN": "N/A",
					"NameAR": "الشريط العلوي",
					"DescAR": "",
					"ImageAR": "N/A",
					"ThumbnailAR": "N/A",
					"Fields":[
						{
							"CodeName": "displaySocialLinksHeader",
							"Type": "checkbox",
							"LookUpKey": "",
							"IsMultiLang": "0",
							"NameEN": "Display Social at Header",
							"DescEN": "",
							"NameAR": "عرض التواصل الاجتماعي في رأس الموقع",
							"DescAR": "",
							"ValueEN": "1",
							"ValueAR": "1"
						},
						{
							"CodeName": "facebooklink",
							"Type": "link",
							"LookUpKey": "",
							"IsMultiLang": "0",
							"NameEN": "Facebook Page Link",
							"DescEN": "",
							"NameAR": "رابط صفحة الفيسبوك",
							"DescAR": "",
							"ValueEN": "#",
							"ValueAR": "#"
						},
						{
							"CodeName": "twitterlink",
							"Type": "link",
							"LookUpKey": "",
							"IsMultiLang": "0",
							"NameEN": "Twitter Account Link",
							"DescEN": "",
							"NameAR": "رابط حساب تويتر",
							"DescAR": "",
							"ValueEN": "#",
							"ValueAR": "#"
						},
						{
							"CodeName": "linkedinlink",
							"Type": "link",
							"LookUpKey": "",
							"IsMultiLang": "0",
							"NameEN": "LinkedIn Page Link",
							"DescEN": "",
							"NameAR": "رابط صفحة لينكد إن",
							"DescAR": "",
							"ValueEN": "#",
							"ValueAR": "#"
						},
						{
							"CodeName": "googlepluslink",
							"Type": "link",
							"LookUpKey": "",
							"IsMultiLang": "0",
							"NameEN": "Google+ Page Link",
							"DescEN": "",
							"NameAR": "رابط صفحة جوجل بلس",
							"DescAR": "",
							"ValueEN": "#",
							"ValueAR": "#"
						},
						{
							"CodeName": "pinterestlink",
							"Type": "link",
							"LookUpKey": "",
							"IsMultiLang": "0",
							"NameEN": "Pinterest Page Link",
							"DescEN": "",
							"NameAR": "رابط صفحة بينترست",
							"DescAR": "",
							"ValueEN": "#",
							"ValueAR": "#"
						},
						{
							"CodeName": "youtubelink",
							"Type": "link",
							"LookUpKey": "",
							"IsMultiLang": "0",
							"NameEN": "Youtube Channel Link",
							"DescEN": "",
							"NameAR": "رابط قناة اليوتيوب",
							"DescAR": "",
							"ValueEN": "#",
							"ValueAR": "#"
						},
						{
							"CodeName": "instagramlink",
							"Type": "link",
							"LookUpKey": "",
							"IsMultiLang": "0",
							"NameEN": "Instagram Page Link",
							"DescEN": "",
							"NameAR": "رابط صفحة إنستاغرام",
							"DescAR": "",
							"ValueEN": "#",
							"ValueAR": "#"
						},
						{
							"CodeName": "snapchatlink",
							"Type": "link",
							"LookUpKey": "",
							"IsMultiLang": "0",
							"NameEN": "Snapchat Link",
							"DescEN": "",
							"NameAR": "رابط سنابشات ",
							"DescAR": "",
							"ValueEN": "#",
							"ValueAR": "#"
						},
						{
							"CodeName": "whatsapplink",
							"Type": "link",
							"LookUpKey": "",
							"IsMultiLang": "0",
							"NameEN": "Whatsapp Link",
							"DescEN": "",
							"NameAR": "رابط واتساب ",
							"DescAR": "",
							"ValueEN": "#",
							"ValueAR": "#"
						},
						{
							"CodeName": "tiktoklink",
							"Type": "link",
							"LookUpKey": "",
							"IsMultiLang": "0",
							"NameEN": "TikTok Link",
							"DescEN": "",
							"NameAR": "رابط تيك توك ",
							"DescAR": "",
							"ValueEN": "#",
							"ValueAR": "#"
						}
					]
				},
				{
					"CodeName": "StoreLogo",
					"Name": "Header Main Area",
					"Type": "live",
					"State": "enabled",
					"IsCollection": 0,
					"NameEN": "Store Logo",
					"DescEN": "",
					"ImageEN": "N/A",
					"ThumbnailEN": "N/A",
					"NameAR": "شعار المتجر",
					"DescAR": "",
					"ImageAR": "N/A",
					"ThumbnailAR": "N/A",
					"Fields": [
					{
						"CodeName": "logo",
						"Type": "image",
						"LookUpKey": "",
						"IsMultiLang": "1",
						"NameEN": "Store Logo",
						"DescEN": "",
						"NameAR": "شعار المتجر",
						"DescAR": "",
						"ValueEN": "data/welldone/DefLogo/LogoBEN.png",
						"ValueAR": "data/welldone/DefLogo/LogoBAR.png"
					},
					{
						"CodeName": "logoMobile",
						"Type": "image",
						"LookUpKey": "",
						"IsMultiLang": "1",
						"NameEN": "Store Logo (Mobile Version)",
						"DescEN": "",
						"NameAR": "شعار المتجر (نسخة للهواتف)",
						"DescAR": "",
						"ValueEN": "data/welldone/DefLogo/LogoBEN.png",
						"ValueAR": "data/welldone/DefLogo/LogoBAR.png"
					},
					{
						"CodeName": "logoheight",
						"Type": "text",
						"LookUpKey": "",
						"IsMultiLang": "1",
						"NameEN": "Logo Height",
						"DescEN": "",
						"NameAR": "إرتفاع الشعار",
						"DescAR": "",
						"ValueEN": "48",
						"ValueAR": "48"
					}
					]
				},
				{
					"CodeName": "mainMenuLink",
					"Name": "main menu link",
					"Type": "live",
					"State": "enabled",
					"IsCollection": 1,
					"NameEN": "Main Menu Link",
					"DescEN": "",
					"ImageEN": "N/A",
					"ThumbnailEN": "N/A",
					"NameAR": "رابط في القائمة الرئيسية",
					"DescAR": "",
					"ImageAR": "N/A",
					"ThumbnailAR": "N/A",
					"CollectionNameEN": "Menu Links",
					"CollectionNameAR": "روابط القائمة",
					"CollectionItemNameEN": "Menu Link",
					"CollectionItemNameAR": "رابط قائمة",
					"CollectionButtonNameEN": "Add New Link",
					"CollectionButtonNameAR": "اضف رابط جديد",
					"Collections": [
						{
							"Name" : "menuLink",
							"Thumbnail": "N/A",
							"IsDefault": "1",
							"Fields": [
							{
								"CodeName": "itemname",
								"Type": "text",
								"LookUpKey": "",
								"IsMultiLang": "1",
								"NameEN": "Menu Item Text",
								"DescEN": "",
								"NameAR": "نص عنصر القائمة",
								"DescAR": "",
								"ValueEN": "Home",
								"ValueAR": "الصفحة الرئيسية"
							},
							{
								"CodeName": "itemlink",
								"Type": "link",
								"LookUpKey": "",
								"IsMultiLang": "0",
								"NameEN": "Menu Item Link",
								"DescEN": "",
								"NameAR": "رابط عنصر القائمة",
								"DescAR": "",
								"ValueEN": "#",
								"ValueAR": "#"
							}						
							]
						},
						{
							"Name" : "menuLink",
							"Thumbnail": "N/A",
							"IsDefault": "0",
							"Fields": [
							{
								"CodeName": "itemname",
								"Type": "text",
								"LookUpKey": "",
								"IsMultiLang": "1",
								"NameEN": "Menu Item Text",
								"DescEN": "",
								"NameAR": "نص عنصر القائمة",
								"DescAR": "",
								"ValueEN": "Home",
								"ValueAR": "الصفحة الرئيسية"
							},
							{
								"CodeName": "itemlink",
								"Type": "link",
								"LookUpKey": "",
								"IsMultiLang": "0",
								"NameEN": "Menu Item Link",
								"DescEN": "",
								"NameAR": "رابط عنصر القائمة",
								"DescAR": "",
								"ValueEN": "#",
								"ValueAR": "#"
							}						
							]
						},
						{
							"Name" : "menuLink",
							"Thumbnail": "N/A",
							"IsDefault": "0",
							"Fields": [
							{
								"CodeName": "itemname",
								"Type": "text",
								"LookUpKey": "",
								"IsMultiLang": "1",
								"NameEN": "Menu Item Text",
								"DescEN": "",
								"NameAR": "نص عنصر القائمة",
								"DescAR": "",
								"ValueEN": "About",
								"ValueAR": "عن المتجر"
							},
							{
								"CodeName": "itemlink",
								"Type": "link",
								"LookUpKey": "",
								"IsMultiLang": "0",
								"NameEN": "Menu Item Link",
								"DescEN": "",
								"NameAR": "رابط عنصر القائمة",
								"DescAR": "",
								"ValueEN": "#",
								"ValueAR": "#"
							}						
							]
						}
					]
				},
				{
					"CodeName": "megaMenuLink",
					"Name": "Mega menu link",
					"Type": "live",
					"State": "enabled",
					"IsCollection": 1,
					"NameEN": "Mega Menu",
					"DescEN": "",
					"ImageEN": "N/A",
					"ThumbnailEN": "N/A",
					"NameAR": "القائمة المتطورة",
					"DescAR": "",
					"ImageAR": "N/A",
					"ThumbnailAR": "N/A",
					"Fields":[
						{
							"CodeName": "itemname",
							"Type": "text",
							"LookUpKey": "",
							"IsMultiLang": "1",
							"NameEN": "Link Text",
							"DescEN": "",
							"NameAR": "نص عنصر القائمة",
							"DescAR": "",
							"ValueEN": "Hot Category",
							"ValueAR": "عروض هائلة"
						},
						{
							"CodeName": "itemlink",
							"Type": "link",
							"LookUpKey": "",
							"IsMultiLang": "0",
							"NameEN": "Menu Item Link",
							"DescEN": "",
							"NameAR": "رابط عنصر القائمة",
							"DescAR": "",
							"ValueEN": "#",
							"ValueAR": "#"
						},
						{
							"CodeName": "sideImage",
							"Type": "image",
							"LookUpKey": "",
							"IsMultiLang": "1",
							"NameEN": "Ad Image",
							"DescEN": "",
							"NameAR": "صورة الاعلان",
							"DescAR": "",
							"ValueEN": "data/welldone/img-megamenu.jpg",
							"ValueAR": "data/welldone/img-megamenu.jpg"
						},
						{
							"CodeName": "categories",
							"Type": "tags-category",
							"LookUpKey": "",
							"IsMultiLang": "0",
							"NameEN": "Categories",
							"DescEN": "",
							"NameAR": "أقسام المنتجات",
							"DescAR": "",
							"ValueEN": "0,0,0,0,0,0",
							"ValueAR": "0,0,0,0,0,0"
						},
						{
							"CodeName": "brandsProduct",
							"Type": "tags-brand",
							"LookUpKey": "",
							"IsMultiLang": "0",
							"NameEN": "Brands",
							"DescEN": "",
							"NameAR": "الماركات",
							"DescAR": "",
							"ValueEN": "0,0,0,0,0,0,0,0,0",
							"ValueAR": "0,0,0,0,0,0,0,0,0"
						},
						{
							"CodeName": "displayIconicLinks",
							"Type": "checkbox",
							"LookUpKey": "",
							"IsMultiLang": "0",
							"NameEN": "Display Links with Icons",
							"DescEN": "",
							"NameAR": "عرض الروابط مع ايقونات",
							"DescAR": "",
							"ValueEN": "1",
							"ValueAR": "1"
						},
						{
							"CodeName": "iconicSlogan1",
							"Type": "text",
							"LookUpKey": "",
							"IsMultiLang": "1",
							"NameEN": "Slogan Text - Slogan 1",
							"DescEN": "",
							"NameAR": "نص الشعار - شعار 1",
							"DescAR": "",
							"ValueEN": "FREE SHIPPING",
							"ValueAR": "عروض هائلة"
						},
						{
							"CodeName": "iconicLink1",
							"Type": "link",
							"LookUpKey": "",
							"IsMultiLang": "0",
							"NameEN": "Slogan Link - Slogan 1",
							"DescEN": "",
							"NameAR": "رابط الشعار - شعار 1",
							"DescAR": "",
							"ValueEN": "#",
							"ValueAR": "#"
						},
						{
							"CodeName": "iconicLinkIcon1",
							"Type": "sselect-lookup",
							"LookUpKey": "FontAwesomeIcons",
							"IsMultiLang": "0",
							"NameEN": "Slogan Icon - Slogan 1",
							"DescEN": "",
							"NameAR": "ايقونة الشعار - شعار 1",
							"DescAR": "",
							"ValueEN": "fa fa-truck",
							"ValueAR": "fa fa-truck"
						},
						{
							"CodeName": "iconicSlogan2",
							"Type": "text",
							"LookUpKey": "",
							"IsMultiLang": "1",
							"NameEN": "Slogan Text - Slogan 2",
							"DescEN": "",
							"NameAR": "نص الشعار - شعار 2",
							"DescAR": "",
							"ValueEN": "Safe Payment",
							"ValueAR": "عروض هائلة"
						},
						{
							"CodeName": "iconicLink2",
							"Type": "link",
							"LookUpKey": "",
							"IsMultiLang": "0",
							"NameEN": "Slogan Link - Slogan 2",
							"DescEN": "",
							"NameAR": "رابط الشعار - شعار 2",
							"DescAR": "",
							"ValueEN": "#",
							"ValueAR": "#"
						},
						{
							"CodeName": "iconicLinkIcon2",
							"Type": "sselect-lookup",
							"LookUpKey": "FontAwesomeIcons",
							"IsMultiLang": "0",
							"NameEN": "Slogan Icon - Slogan 2",
							"DescEN": "",
							"NameAR": "ايقونة الشعار - شعار 2",
							"DescAR": "",
							"ValueEN": "fa fa-user",
							"ValueAR": "fa fa-user"
						},
						{
							"CodeName": "iconicSlogan3",
							"Type": "text",
							"LookUpKey": "",
							"IsMultiLang": "1",
							"NameEN": "Slogan Text - Slogan 3",
							"DescEN": "",
							"NameAR": "نص الشعار - شعار 3",
							"DescAR": "",
							"ValueEN": "Best Pirce!",
							"ValueAR": "عروض هائلة"
						},
						{
							"CodeName": "iconicLink3",
							"Type": "link",
							"LookUpKey": "",
							"IsMultiLang": "0",
							"NameEN": "Slogan Link - Slogan 3",
							"DescEN": "",
							"NameAR": "رابط الشعار - شعار 3",
							"DescAR": "",
							"ValueEN": "#",
							"ValueAR": "#"
						},
						{
							"CodeName": "iconicLinkIcon3",
							"Type": "sselect-lookup",
							"LookUpKey": "FontAwesomeIcons",
							"IsMultiLang": "0",
							"NameEN": "Slogan Icon - Slogan 3",
							"DescEN": "",
							"NameAR": "ايقونة الشعار - شعار 3",
							"DescAR": "",
							"ValueEN": "fa fa-shopping-bag",
							"ValueAR": "fa fa-shopping-bag"
						},
						{
							"CodeName": "iconicSlogan4",
							"Type": "text",
							"LookUpKey": "",
							"IsMultiLang": "1",
							"NameEN": "Slogan Text - Slogan 4",
							"DescEN": "",
							"NameAR": "نص الشعار - شعار 4",
							"DescAR": "",
							"ValueEN": "Offers",
							"ValueAR": "عروض هائلة"
						},
						{
							"CodeName": "iconicLink4",
							"Type": "link",
							"LookUpKey": "",
							"IsMultiLang": "0",
							"NameEN": "Slogan Link - Slogan 4",
							"DescEN": "",
							"NameAR": "رابط الشعار - شعار 4",
							"DescAR": "",
							"ValueEN": "#",
							"ValueAR": "#"
						},
						{
							"CodeName": "iconicLinkIcon4",
							"Type": "sselect-lookup",
							"LookUpKey": "FontAwesomeIcons",
							"IsMultiLang": "0",
							"NameEN": "Slogan Icon - Slogan 4",
							"DescEN": "",
							"NameAR": "ايقونة الشعار - شعار 4",
							"DescAR": "",
							"ValueEN": "fa fa-refresh",
							"ValueAR": "fa fa-refresh"
						}
					]
				},
				{
					"CodeName": "megaMenuLink2",
					"Name": "Mega menu link",
					"Type": "live",
					"State": "disabled",
					"IsCollection": 0,
					"NameEN": "Mega Menu Two",
					"DescEN": "",
					"ImageEN": "N/A",
					"ThumbnailEN": "N/A",
					"NameAR": "القائمة المتطورة الثانيه",
					"DescAR": "",
					"ImageAR": "N/A",
					"ThumbnailAR": "N/A",
					"Fields":[
						{
							"CodeName": "itemname",
							"Type": "text",
							"LookUpKey": "",
							"IsMultiLang": "1",
							"NameEN": "Link Text",
							"DescEN": "",
							"NameAR": "نص عنصر القائمة",
							"DescAR": "",
							"ValueEN": "Hot Category",
							"ValueAR": "عروض هائلة"
						},
						{
							"CodeName": "itemlink",
							"Type": "link",
							"LookUpKey": "",
							"IsMultiLang": "0",
							"NameEN": "Menu Item Link",
							"DescEN": "",
							"NameAR": "رابط عنصر القائمة",
							"DescAR": "",
							"ValueEN": "#",
							"ValueAR": "#"
						},
						{
							"CodeName": "sideImage",
							"Type": "image",
							"LookUpKey": "",
							"IsMultiLang": "1",
							"NameEN": "Ad Image",
							"DescEN": "",
							"NameAR": "صورة الاعلان",
							"DescAR": "",
							"ValueEN": "data/welldone/img-megamenu.jpg",
							"ValueAR": "data/welldone/img-megamenu.jpg"
						},
						{
							"CodeName": "categories",
							"Type": "tags-category",
							"LookUpKey": "",
							"IsMultiLang": "0",
							"NameEN": "Categories",
							"DescEN": "",
							"NameAR": "أقسام المنتجات",
							"DescAR": "",
							"ValueEN": "0,0,0,0,0,0",
							"ValueAR": "0,0,0,0,0,0"
						},
						{
							"CodeName": "displayIconicLinks",
							"Type": "checkbox",
							"LookUpKey": "",
							"IsMultiLang": "0",
							"NameEN": "Display Links with Icons",
							"DescEN": "",
							"NameAR": "عرض الروابط مع ايقونات",
							"DescAR": "",
							"ValueEN": "1",
							"ValueAR": "1"
						},
						{
							"CodeName": "iconicSlogan1",
							"Type": "text",
							"LookUpKey": "",
							"IsMultiLang": "1",
							"NameEN": "Slogan Text - Slogan 1",
							"DescEN": "",
							"NameAR": "نص الشعار - شعار 1",
							"DescAR": "",
							"ValueEN": "FREE SHIPPING",
							"ValueAR": "عروض هائلة"
						},
						{
							"CodeName": "iconicLink1",
							"Type": "link",
							"LookUpKey": "",
							"IsMultiLang": "0",
							"NameEN": "Slogan Link - Slogan 1",
							"DescEN": "",
							"NameAR": "رابط الشعار - شعار 1",
							"DescAR": "",
							"ValueEN": "#",
							"ValueAR": "#"
						},
						{
							"CodeName": "iconicLinkIcon1",
							"Type": "sselect-lookup",
							"LookUpKey": "FontAwesomeIcons",
							"IsMultiLang": "0",
							"NameEN": "Slogan Icon - Slogan 1",
							"DescEN": "",
							"NameAR": "ايقونة الشعار - شعار 1",
							"DescAR": "",
							"ValueEN": "fa fa-truck",
							"ValueAR": "fa fa-truck"
						},
						{
							"CodeName": "iconicSlogan2",
							"Type": "text",
							"LookUpKey": "",
							"IsMultiLang": "1",
							"NameEN": "Slogan Text - Slogan 2",
							"DescEN": "",
							"NameAR": "نص الشعار - شعار 2",
							"DescAR": "",
							"ValueEN": "Safe Payment",
							"ValueAR": "عروض هائلة"
						},
						{
							"CodeName": "iconicLink2",
							"Type": "link",
							"LookUpKey": "",
							"IsMultiLang": "0",
							"NameEN": "Slogan Link - Slogan 2",
							"DescEN": "",
							"NameAR": "رابط الشعار - شعار 2",
							"DescAR": "",
							"ValueEN": "#",
							"ValueAR": "#"
						},
						{
							"CodeName": "iconicLinkIcon2",
							"Type": "sselect-lookup",
							"LookUpKey": "FontAwesomeIcons",
							"IsMultiLang": "0",
							"NameEN": "Slogan Icon - Slogan 2",
							"DescEN": "",
							"NameAR": "ايقونة الشعار - شعار 2",
							"DescAR": "",
							"ValueEN": "fa fa-user",
							"ValueAR": "fa fa-user"
						},
						{
							"CodeName": "iconicSlogan3",
							"Type": "text",
							"LookUpKey": "",
							"IsMultiLang": "1",
							"NameEN": "Slogan Text - Slogan 3",
							"DescEN": "",
							"NameAR": "نص الشعار - شعار 3",
							"DescAR": "",
							"ValueEN": "Best Pirce!",
							"ValueAR": "عروض هائلة"
						},
						{
							"CodeName": "iconicLink3",
							"Type": "link",
							"LookUpKey": "",
							"IsMultiLang": "0",
							"NameEN": "Slogan Link - Slogan 3",
							"DescEN": "",
							"NameAR": "رابط الشعار - شعار 3",
							"DescAR": "",
							"ValueEN": "#",
							"ValueAR": "#"
						},
						{
							"CodeName": "iconicLinkIcon3",
							"Type": "sselect-lookup",
							"LookUpKey": "FontAwesomeIcons",
							"IsMultiLang": "0",
							"NameEN": "Slogan Icon - Slogan 3",
							"DescEN": "",
							"NameAR": "ايقونة الشعار - شعار 3",
							"DescAR": "",
							"ValueEN": "fa fa-shopping-bag",
							"ValueAR": "fa fa-shopping-bag"
						},
						{
							"CodeName": "iconicSlogan4",
							"Type": "text",
							"LookUpKey": "",
							"IsMultiLang": "1",
							"NameEN": "Slogan Text - Slogan 4",
							"DescEN": "",
							"NameAR": "نص الشعار - شعار 4",
							"DescAR": "",
							"ValueEN": "Offers",
							"ValueAR": "عروض هائلة"
						},
						{
							"CodeName": "iconicLink4",
							"Type": "link",
							"LookUpKey": "",
							"IsMultiLang": "0",
							"NameEN": "Slogan Link - Slogan 4",
							"DescEN": "",
							"NameAR": "رابط الشعار - شعار 4",
							"DescAR": "",
							"ValueEN": "#",
							"ValueAR": "#"
						},
						{
							"CodeName": "iconicLinkIcon4",
							"Type": "sselect-lookup",
							"LookUpKey": "FontAwesomeIcons",
							"IsMultiLang": "0",
							"NameEN": "Slogan Icon - Slogan 4",
							"DescEN": "",
							"NameAR": "ايقونة الشعار - شعار 4",
							"DescAR": "",
							"ValueEN": "fa fa-refresh",
							"ValueAR": "fa fa-refresh"
						}
					]
				},
				{
					"CodeName": "megaMenuLink3",
					"Name": "Mega menu link",
					"Type": "live",
					"State": "disabled",
					"IsCollection": 1,
					"NameEN": "Mega Menu three",
					"DescEN": "",
					"ImageEN": "N/A",
					"ThumbnailEN": "N/A",
					"NameAR": "القائمة المتطورة الثالثه",
					"DescAR": "",
					"ImageAR": "N/A",
					"ThumbnailAR": "N/A",
					"Fields":[
						{
							"CodeName": "itemname",
							"Type": "text",
							"LookUpKey": "",
							"IsMultiLang": "1",
							"NameEN": "Link Text",
							"DescEN": "",
							"NameAR": "نص عنصر القائمة",
							"DescAR": "",
							"ValueEN": "Hot Category",
							"ValueAR": "عروض هائلة"
						},
						{
							"CodeName": "itemlink",
							"Type": "link",
							"LookUpKey": "",
							"IsMultiLang": "0",
							"NameEN": "Menu Item Link",
							"DescEN": "",
							"NameAR": "رابط عنصر القائمة",
							"DescAR": "",
							"ValueEN": "#",
							"ValueAR": "#"
						},
						{
							"CodeName": "sideImage",
							"Type": "image",
							"LookUpKey": "",
							"IsMultiLang": "1",
							"NameEN": "Ad Image",
							"DescEN": "",
							"NameAR": "صورة الاعلان",
							"DescAR": "",
							"ValueEN": "data/welldone/img-megamenu.jpg",
							"ValueAR": "data/welldone/img-megamenu.jpg"
						},
						{
							"CodeName": "categories",
							"Type": "tags-category",
							"LookUpKey": "",
							"IsMultiLang": "0",
							"NameEN": "Categories",
							"DescEN": "",
							"NameAR": "أقسام المنتجات",
							"DescAR": "",
							"ValueEN": "0,0,0,0,0,0",
							"ValueAR": "0,0,0,0,0,0"
						},
						{
							"CodeName": "displayIconicLinks",
							"Type": "checkbox",
							"LookUpKey": "",
							"IsMultiLang": "0",
							"NameEN": "Display Links with Icons",
							"DescEN": "",
							"NameAR": "عرض الروابط مع ايقونات",
							"DescAR": "",
							"ValueEN": "1",
							"ValueAR": "1"
						},
						{
							"CodeName": "iconicSlogan1",
							"Type": "text",
							"LookUpKey": "",
							"IsMultiLang": "1",
							"NameEN": "Slogan Text - Slogan 1",
							"DescEN": "",
							"NameAR": "نص الشعار - شعار 1",
							"DescAR": "",
							"ValueEN": "FREE SHIPPING",
							"ValueAR": "عروض هائلة"
						},
						{
							"CodeName": "iconicLink1",
							"Type": "link",
							"LookUpKey": "",
							"IsMultiLang": "0",
							"NameEN": "Slogan Link - Slogan 1",
							"DescEN": "",
							"NameAR": "رابط الشعار - شعار 1",
							"DescAR": "",
							"ValueEN": "#",
							"ValueAR": "#"
						},
						{
							"CodeName": "iconicLinkIcon1",
							"Type": "sselect-lookup",
							"LookUpKey": "FontAwesomeIcons",
							"IsMultiLang": "0",
							"NameEN": "Slogan Icon - Slogan 1",
							"DescEN": "",
							"NameAR": "ايقونة الشعار - شعار 1",
							"DescAR": "",
							"ValueEN": "fa fa-truck",
							"ValueAR": "fa fa-truck"
						},
						{
							"CodeName": "iconicSlogan2",
							"Type": "text",
							"LookUpKey": "",
							"IsMultiLang": "1",
							"NameEN": "Slogan Text - Slogan 2",
							"DescEN": "",
							"NameAR": "نص الشعار - شعار 2",
							"DescAR": "",
							"ValueEN": "Safe Payment",
							"ValueAR": "عروض هائلة"
						},
						{
							"CodeName": "iconicLink2",
							"Type": "link",
							"LookUpKey": "",
							"IsMultiLang": "0",
							"NameEN": "Slogan Link - Slogan 2",
							"DescEN": "",
							"NameAR": "رابط الشعار - شعار 2",
							"DescAR": "",
							"ValueEN": "#",
							"ValueAR": "#"
						},
						{
							"CodeName": "iconicLinkIcon2",
							"Type": "sselect-lookup",
							"LookUpKey": "FontAwesomeIcons",
							"IsMultiLang": "0",
							"NameEN": "Slogan Icon - Slogan 2",
							"DescEN": "",
							"NameAR": "ايقونة الشعار - شعار 2",
							"DescAR": "",
							"ValueEN": "fa fa-user",
							"ValueAR": "fa fa-user"
						},
						{
							"CodeName": "iconicSlogan3",
							"Type": "text",
							"LookUpKey": "",
							"IsMultiLang": "1",
							"NameEN": "Slogan Text - Slogan 3",
							"DescEN": "",
							"NameAR": "نص الشعار - شعار 3",
							"DescAR": "",
							"ValueEN": "Best Pirce!",
							"ValueAR": "عروض هائلة"
						},
						{
							"CodeName": "iconicLink3",
							"Type": "link",
							"LookUpKey": "",
							"IsMultiLang": "0",
							"NameEN": "Slogan Link - Slogan 3",
							"DescEN": "",
							"NameAR": "رابط الشعار - شعار 3",
							"DescAR": "",
							"ValueEN": "#",
							"ValueAR": "#"
						},
						{
							"CodeName": "iconicLinkIcon3",
							"Type": "sselect-lookup",
							"LookUpKey": "FontAwesomeIcons",
							"IsMultiLang": "0",
							"NameEN": "Slogan Icon - Slogan 3",
							"DescEN": "",
							"NameAR": "ايقونة الشعار - شعار 3",
							"DescAR": "",
							"ValueEN": "fa fa-shopping-bag",
							"ValueAR": "fa fa-shopping-bag"
						},
						{
							"CodeName": "iconicSlogan4",
							"Type": "text",
							"LookUpKey": "",
							"IsMultiLang": "1",
							"NameEN": "Slogan Text - Slogan 4",
							"DescEN": "",
							"NameAR": "نص الشعار - شعار 4",
							"DescAR": "",
							"ValueEN": "Offers",
							"ValueAR": "عروض هائلة"
						},
						{
							"CodeName": "iconicLink4",
							"Type": "link",
							"LookUpKey": "",
							"IsMultiLang": "0",
							"NameEN": "Slogan Link - Slogan 4",
							"DescEN": "",
							"NameAR": "رابط الشعار - شعار 4",
							"DescAR": "",
							"ValueEN": "#",
							"ValueAR": "#"
						},
						{
							"CodeName": "iconicLinkIcon4",
							"Type": "sselect-lookup",
							"LookUpKey": "FontAwesomeIcons",
							"IsMultiLang": "0",
							"NameEN": "Slogan Icon - Slogan 4",
							"DescEN": "",
							"NameAR": "ايقونة الشعار - شعار 4",
							"DescAR": "",
							"ValueEN": "fa fa-refresh",
							"ValueAR": "fa fa-refresh"
						}
					]
				},
				{
					"CodeName": "megaMenuLink4",
					"Name": "Mega menu link",
					"Type": "live",
					"State": "disabled",
					"IsCollection": 1,
					"NameEN": "Mega Menu four",
					"DescEN": "",
					"ImageEN": "N/A",
					"ThumbnailEN": "N/A",
					"NameAR": "القائمة المتطورة الرابعه",
					"DescAR": "",
					"ImageAR": "N/A",
					"ThumbnailAR": "N/A",
					"Fields":[
						{
							"CodeName": "itemname",
							"Type": "text",
							"LookUpKey": "",
							"IsMultiLang": "1",
							"NameEN": "Link Text",
							"DescEN": "",
							"NameAR": "نص عنصر القائمة",
							"DescAR": "",
							"ValueEN": "Hot Category",
							"ValueAR": "عروض هائلة"
						},
						{
							"CodeName": "itemlink",
							"Type": "link",
							"LookUpKey": "",
							"IsMultiLang": "0",
							"NameEN": "Menu Item Link",
							"DescEN": "",
							"NameAR": "رابط عنصر القائمة",
							"DescAR": "",
							"ValueEN": "#",
							"ValueAR": "#"
						},
						{
							"CodeName": "sideImage",
							"Type": "image",
							"LookUpKey": "",
							"IsMultiLang": "1",
							"NameEN": "Ad Image",
							"DescEN": "",
							"NameAR": "صورة الاعلان",
							"DescAR": "",
							"ValueEN": "data/welldone/img-megamenu.jpg",
							"ValueAR": "data/welldone/img-megamenu.jpg"
						},
						{
							"CodeName": "categories",
							"Type": "tags-category",
							"LookUpKey": "",
							"IsMultiLang": "0",
							"NameEN": "Categories",
							"DescEN": "",
							"NameAR": "أقسام المنتجات",
							"DescAR": "",
							"ValueEN": "0,0,0,0,0,0",
							"ValueAR": "0,0,0,0,0,0"
						},
						{
							"CodeName": "displayIconicLinks",
							"Type": "checkbox",
							"LookUpKey": "",
							"IsMultiLang": "0",
							"NameEN": "Display Links with Icons",
							"DescEN": "",
							"NameAR": "عرض الروابط مع ايقونات",
							"DescAR": "",
							"ValueEN": "1",
							"ValueAR": "1"
						},
						{
							"CodeName": "iconicSlogan1",
							"Type": "text",
							"LookUpKey": "",
							"IsMultiLang": "1",
							"NameEN": "Slogan Text - Slogan 1",
							"DescEN": "",
							"NameAR": "نص الشعار - شعار 1",
							"DescAR": "",
							"ValueEN": "FREE SHIPPING",
							"ValueAR": "عروض هائلة"
						},
						{
							"CodeName": "iconicLink1",
							"Type": "link",
							"LookUpKey": "",
							"IsMultiLang": "0",
							"NameEN": "Slogan Link - Slogan 1",
							"DescEN": "",
							"NameAR": "رابط الشعار - شعار 1",
							"DescAR": "",
							"ValueEN": "#",
							"ValueAR": "#"
						},
						{
							"CodeName": "iconicLinkIcon1",
							"Type": "sselect-lookup",
							"LookUpKey": "FontAwesomeIcons",
							"IsMultiLang": "0",
							"NameEN": "Slogan Icon - Slogan 1",
							"DescEN": "",
							"NameAR": "ايقونة الشعار - شعار 1",
							"DescAR": "",
							"ValueEN": "fa fa-truck",
							"ValueAR": "fa fa-truck"
						},
						{
							"CodeName": "iconicSlogan2",
							"Type": "text",
							"LookUpKey": "",
							"IsMultiLang": "1",
							"NameEN": "Slogan Text - Slogan 2",
							"DescEN": "",
							"NameAR": "نص الشعار - شعار 2",
							"DescAR": "",
							"ValueEN": "Safe Payment",
							"ValueAR": "عروض هائلة"
						},
						{
							"CodeName": "iconicLink2",
							"Type": "link",
							"LookUpKey": "",
							"IsMultiLang": "0",
							"NameEN": "Slogan Link - Slogan 2",
							"DescEN": "",
							"NameAR": "رابط الشعار - شعار 2",
							"DescAR": "",
							"ValueEN": "#",
							"ValueAR": "#"
						},
						{
							"CodeName": "iconicLinkIcon2",
							"Type": "sselect-lookup",
							"LookUpKey": "FontAwesomeIcons",
							"IsMultiLang": "0",
							"NameEN": "Slogan Icon - Slogan 2",
							"DescEN": "",
							"NameAR": "ايقونة الشعار - شعار 2",
							"DescAR": "",
							"ValueEN": "fa fa-user",
							"ValueAR": "fa fa-user"
						},
						{
							"CodeName": "iconicSlogan3",
							"Type": "text",
							"LookUpKey": "",
							"IsMultiLang": "1",
							"NameEN": "Slogan Text - Slogan 3",
							"DescEN": "",
							"NameAR": "نص الشعار - شعار 3",
							"DescAR": "",
							"ValueEN": "Best Pirce!",
							"ValueAR": "عروض هائلة"
						},
						{
							"CodeName": "iconicLink3",
							"Type": "link",
							"LookUpKey": "",
							"IsMultiLang": "0",
							"NameEN": "Slogan Link - Slogan 3",
							"DescEN": "",
							"NameAR": "رابط الشعار - شعار 3",
							"DescAR": "",
							"ValueEN": "#",
							"ValueAR": "#"
						},
						{
							"CodeName": "iconicLinkIcon3",
							"Type": "sselect-lookup",
							"LookUpKey": "FontAwesomeIcons",
							"IsMultiLang": "0",
							"NameEN": "Slogan Icon - Slogan 3",
							"DescEN": "",
							"NameAR": "ايقونة الشعار - شعار 3",
							"DescAR": "",
							"ValueEN": "fa fa-shopping-bag",
							"ValueAR": "fa fa-shopping-bag"
						},
						{
							"CodeName": "iconicSlogan4",
							"Type": "text",
							"LookUpKey": "",
							"IsMultiLang": "1",
							"NameEN": "Slogan Text - Slogan 4",
							"DescEN": "",
							"NameAR": "نص الشعار - شعار 4",
							"DescAR": "",
							"ValueEN": "Offers",
							"ValueAR": "عروض هائلة"
						},
						{
							"CodeName": "iconicLink4",
							"Type": "link",
							"LookUpKey": "",
							"IsMultiLang": "0",
							"NameEN": "Slogan Link - Slogan 4",
							"DescEN": "",
							"NameAR": "رابط الشعار - شعار 4",
							"DescAR": "",
							"ValueEN": "#",
							"ValueAR": "#"
						},
						{
							"CodeName": "iconicLinkIcon4",
							"Type": "sselect-lookup",
							"LookUpKey": "FontAwesomeIcons",
							"IsMultiLang": "0",
							"NameEN": "Slogan Icon - Slogan 4",
							"DescEN": "",
							"NameAR": "ايقونة الشعار - شعار 4",
							"DescAR": "",
							"ValueEN": "fa fa-refresh",
							"ValueAR": "fa fa-refresh"
						}
					]
				},
				{
					"CodeName": "mainMenuDropdown1",
					"Name": "First Dropdown menu",
					"Type": "live",
					"State": "enabled",
					"IsCollection": 1,
					"NameEN": "First Dropdown Menu",
					"DescEN": "",
					"ImageEN": "N/A",
					"ThumbnailEN": "N/A",
					"NameAR": "القائمة المنسدلة الاولى",
					"DescAR": "",
					"ImageAR": "N/A",
					"ThumbnailAR": "N/A",
					"CollectionNameEN": "Menu Links - Dropdowns",
					"CollectionNameAR": "روابط القائمة المنسدلة",
					"CollectionItemNameEN": "Menu Link - Dropdown",
					"CollectionItemNameAR": "رابط قائمة منسدلة",
					"CollectionButtonNameEN": "Add New Dropdown Link",
					"CollectionButtonNameAR": "اضف رابط قائمة منسدلة جديد",
					"Fields": [
					{
						"CodeName": "linkname",
						"Type": "text",
						"LookUpKey": "",
						"IsMultiLang": "1",
						"NameEN": "Link Name",
						"DescEN": "",
						"NameAR": "إسم الرابط",
						"DescAR": "",
						"ValueEN": "Useful Links",
						"ValueAR": "روابط مهمة"
					},
					{
						"CodeName": "link",
						"Type": "link",
						"LookUpKey": "",
						"IsMultiLang": "1",
						"NameEN": "Link",
						"DescEN": "",
						"NameAR": "الرابط",
						"DescAR": "",
						"ValueEN": "#",
						"ValueAR": "#"
					}
					],
					"Collections": [
					{
						"Name": "About Us",
						"Thumbnail": "N/A",
						"IsDefault": "1",
						"Fields": [
						{
							"CodeName": "linkname",
							"Type": "text",
							"LookUpKey": "",
							"IsMultiLang": "1",
							"NameEN": "Link Name",
							"DescEN": "",
							"NameAR": "إسم الرابط",
							"DescAR": "",
							"ValueEN": "About Us",
							"ValueAR": "عن المتجر"
						},
						{
							"CodeName": "link",
							"Type": "link",
							"LookUpKey": "",
							"IsMultiLang": "1",
							"NameEN": "Link",
							"DescEN": "",
							"NameAR": "الرابط",
							"DescAR": "",
							"ValueEN": "#",
							"ValueAR": "#"
						}
						]
					},
					{
						"Name": "About Us",
						"Thumbnail": "N/A",
						"IsDefault": "0",
						"Fields": [
						{
							"CodeName": "linkname",
							"Type": "text",
							"LookUpKey": "",
							"IsMultiLang": "1",
							"NameEN": "Link Name",
							"DescEN": "",
							"NameAR": "إسم الرابط",
							"DescAR": "",
							"ValueEN": "About Us",
							"ValueAR": "عن المتجر"
						},
						{
							"CodeName": "link",
							"Type": "link",
							"LookUpKey": "",
							"IsMultiLang": "1",
							"NameEN": "Link",
							"DescEN": "",
							"NameAR": "الرابط",
							"DescAR": "",
							"ValueEN": "#",
							"ValueAR": "#"
						}
						]
					},
					{
						"Name": "Customer Service",
						"Thumbnail": "N/A",
						"IsDefault": "0",
						"Fields": [
						{
							"CodeName": "linkname",
							"Type": "text",
							"LookUpKey": "",
							"IsMultiLang": "1",
							"NameEN": "Link Name",
							"DescEN": "",
							"NameAR": "إسم الرابط",
							"DescAR": "",
							"ValueEN": "Customer Service",
							"ValueAR": "خدمة العملاء"
						},
						{
							"CodeName": "link",
							"Type": "link",
							"LookUpKey": "",
							"IsMultiLang": "1",
							"NameEN": "Link",
							"DescEN": "",
							"NameAR": "الرابط",
							"DescAR": "",
							"ValueEN": "#",
							"ValueAR": "#"
						}
						]
					},
					{
						"Name": "New Collection",
						"Thumbnail": "N/A",
						"IsDefault": "0",
						"Fields": [
						{
							"CodeName": "linkname",
							"Type": "text",
							"LookUpKey": "",
							"IsMultiLang": "1",
							"NameEN": "Link Name",
							"DescEN": "",
							"NameAR": "إسم الرابط",
							"DescAR": "",
							"ValueEN": "New Collection",
							"ValueAR": "التشكيلة الحديثة"
						},
						{
							"CodeName": "link",
							"Type": "link",
							"LookUpKey": "",
							"IsMultiLang": "1",
							"NameEN": "Link",
							"DescEN": "",
							"NameAR": "الرابط",
							"DescAR": "",
							"ValueEN": "#",
							"ValueAR": "#"
						}
						]
					},
					{
						"Name": "Manufacturers",
						"Thumbnail": "N/A",
						"IsDefault": "0",
						"Fields": [
						{
							"CodeName": "linkname",
							"Type": "text",
							"LookUpKey": "",
							"IsMultiLang": "1",
							"NameEN": "Link Name",
							"DescEN": "",
							"NameAR": "إسم الرابط",
							"DescAR": "",
							"ValueEN": "Manufacturers",
							"ValueAR": "المصنعين"
						},
						{
							"CodeName": "link",
							"Type": "link",
							"LookUpKey": "",
							"IsMultiLang": "1",
							"NameEN": "Link",
							"DescEN": "",
							"NameAR": "الرابط",
							"DescAR": "",
							"ValueEN": "#",
							"ValueAR": "#"
						}
						]
					},
					{
						"Name": "Privacy Policy",
						"Thumbnail": "N/A",
						"IsDefault": "0",
						"Fields": [
						{
							"CodeName": "linkname",
							"Type": "text",
							"LookUpKey": "",
							"IsMultiLang": "1",
							"NameEN": "Link Name",
							"DescEN": "",
							"NameAR": "إسم الرابط",
							"DescAR": "",
							"ValueEN": "Privacy Policy",
							"ValueAR": "سياسة الخصوصية"
						},
						{
							"CodeName": "link",
							"Type": "link",
							"LookUpKey": "",
							"IsMultiLang": "1",
							"NameEN": "Link",
							"DescEN": "",
							"NameAR": "الرابط",
							"DescAR": "",
							"ValueEN": "#",
							"ValueAR": "#"
						}
						]
					},
					{
						"Name": "Terms & Conditions",
						"Thumbnail": "N/A",
						"IsDefault": "0",
						"Fields": [
						{
							"CodeName": "linkname",
							"Type": "text",
							"LookUpKey": "",
							"IsMultiLang": "1",
							"NameEN": "Link Name",
							"DescEN": "",
							"NameAR": "إسم الرابط",
							"DescAR": "",
							"ValueEN": "Terms & Conditions",
							"ValueAR": "الشروط و الأحكام"
						},
						{
							"CodeName": "link",
							"Type": "link",
							"LookUpKey": "",
							"IsMultiLang": "1",
							"NameEN": "Link",
							"DescEN": "",
							"NameAR": "الرابط",
							"DescAR": "",
							"ValueEN": "#",
							"ValueAR": "#"
						}
						]
					},
					{
						"Name": "Blog",
						"Thumbnail": "N/A",
						"IsDefault": "0",
						"Fields": [
						{
							"CodeName": "linkname",
							"Type": "text",
							"LookUpKey": "",
							"IsMultiLang": "1",
							"NameEN": "Link Name",
							"DescEN": "",
							"NameAR": "إسم الرابط",
							"DescAR": "",
							"ValueEN": "Blog",
							"ValueAR": "المدونة"
						},
						{
							"CodeName": "link",
							"Type": "link",
							"LookUpKey": "",
							"IsMultiLang": "1",
							"NameEN": "Link",
							"DescEN": "",
							"NameAR": "الرابط",
							"DescAR": "",
							"ValueEN": "#",
							"ValueAR": "#"
						}
						]
					}
					]
				},
				{
					"CodeName": "mainMenuDropdown2",
					"Name": "Second Dropdown menu",
					"Type": "live",
					"State": "enabled",
					"IsCollection": 1,
					"NameEN": "Second Dropdown Menu",
					"DescEN": "",
					"ImageEN": "N/A",
					"ThumbnailEN": "N/A",
					"NameAR": "القائمة المنسدلة الثانية",
					"DescAR": "",
					"ImageAR": "N/A",
					"ThumbnailAR": "N/A",
					"CollectionNameEN": "Menu Links - Dropdowns",
					"CollectionNameAR": "روابط القائمة المنسدلة",
					"CollectionItemNameEN": "Menu Link - Dropdown",
					"CollectionItemNameAR": "رابط قائمة منسدلة",
					"CollectionButtonNameEN": "Add New Dropdown Link",
					"CollectionButtonNameAR": "اضف رابط قائمة منسدلة جديد",
					"Fields": [
					{
						"CodeName": "linkname",
						"Type": "text",
						"LookUpKey": "",
						"IsMultiLang": "1",
						"NameEN": "Link Name",
						"DescEN": "",
						"NameAR": "إسم الرابط",
						"DescAR": "",
						"ValueEN": "Quick Access",
						"ValueAR": "قائمة سريعة"
					},
					{
						"CodeName": "link",
						"Type": "link",
						"LookUpKey": "",
						"IsMultiLang": "1",
						"NameEN": "Link",
						"DescEN": "",
						"NameAR": "الرابط",
						"DescAR": "",
						"ValueEN": "#",
						"ValueAR": "#"
					}
					],
					"Collections": [
					{
						"Name": "New In",
						"Thumbnail": "N/A",
						"IsDefault": "1",
						"Fields": [
						{
							"CodeName": "linkname",
							"Type": "text",
							"LookUpKey": "",
							"IsMultiLang": "1",
							"NameEN": "Link Name",
							"DescEN": "",
							"NameAR": "إسم الرابط",
							"DescAR": "",
							"ValueEN": "New In",
							"ValueAR": "المنتجات الحديثة"
						},
						{
							"CodeName": "link",
							"Type": "link",
							"LookUpKey": "",
							"IsMultiLang": "1",
							"NameEN": "Link",
							"DescEN": "",
							"NameAR": "الرابط",
							"DescAR": "",
							"ValueEN": "#",
							"ValueAR": "#"
						}
						]
					},
					{
						"Name": "New In",
						"Thumbnail": "N/A",
						"IsDefault": "0",
						"Fields": [
						{
							"CodeName": "linkname",
							"Type": "text",
							"LookUpKey": "",
							"IsMultiLang": "1",
							"NameEN": "Link Name",
							"DescEN": "",
							"NameAR": "إسم الرابط",
							"DescAR": "",
							"ValueEN": "New In",
							"ValueAR": "المنتجات الحديثة"
						},
						{
							"CodeName": "link",
							"Type": "link",
							"LookUpKey": "",
							"IsMultiLang": "1",
							"NameEN": "Link",
							"DescEN": "",
							"NameAR": "الرابط",
							"DescAR": "",
							"ValueEN": "#",
							"ValueAR": "#"
						}
						]
					},
					{
						"Name": "Women",
						"Thumbnail": "N/A",
						"IsDefault": "0",
						"Fields": [
						{
							"CodeName": "linkname",
							"Type": "text",
							"LookUpKey": "",
							"IsMultiLang": "1",
							"NameEN": "Link Name",
							"DescEN": "",
							"NameAR": "إسم الرابط",
							"DescAR": "",
							"ValueEN": "Women",
							"ValueAR": "النساء"
						},
						{
							"CodeName": "link",
							"Type": "link",
							"LookUpKey": "",
							"IsMultiLang": "1",
							"NameEN": "Link",
							"DescEN": "",
							"NameAR": "الرابط",
							"DescAR": "",
							"ValueEN": "#",
							"ValueAR": "#"
						}
						]
					},
					{
						"Name": "Men",
						"Thumbnail": "N/A",
						"IsDefault": "0",
						"Fields": [
						{
							"CodeName": "linkname",
							"Type": "text",
							"LookUpKey": "",
							"IsMultiLang": "1",
							"NameEN": "Link Name",
							"DescEN": "",
							"NameAR": "إسم الرابط",
							"DescAR": "",
							"ValueEN": "Men",
							"ValueAR": "الرجال"
						},
						{
							"CodeName": "link",
							"Type": "link",
							"LookUpKey": "",
							"IsMultiLang": "1",
							"NameEN": "Link",
							"DescEN": "",
							"NameAR": "الرابط",
							"DescAR": "",
							"ValueEN": "#",
							"ValueAR": "#"
						}
						]
					},
					{
						"Name": "Best Sellers",
						"Thumbnail": "N/A",
						"IsDefault": "0",
						"Fields": [
						{
							"CodeName": "linkname",
							"Type": "text",
							"LookUpKey": "",
							"IsMultiLang": "1",
							"NameEN": "Link Name",
							"DescEN": "",
							"NameAR": "إسم الرابط",
							"DescAR": "",
							"ValueEN": "Best Sellers",
							"ValueAR": "الأكثر مبيعاً"
						},
						{
							"CodeName": "link",
							"Type": "link",
							"LookUpKey": "",
							"IsMultiLang": "1",
							"NameEN": "Link",
							"DescEN": "",
							"NameAR": "الرابط",
							"DescAR": "",
							"ValueEN": "#",
							"ValueAR": "#"
						}
						]
					},
					{
						"Name": "Top Brands",
						"Thumbnail": "N/A",
						"IsDefault": "0",
						"Fields": [
						{
							"CodeName": "linkname",
							"Type": "text",
							"LookUpKey": "",
							"IsMultiLang": "1",
							"NameEN": "Link Name",
							"DescEN": "",
							"NameAR": "إسم الرابط",
							"DescAR": "",
							"ValueEN": "Top Brands",
							"ValueAR": "الماركات الشهيرة"
						},
						{
							"CodeName": "link",
							"Type": "link",
							"LookUpKey": "",
							"IsMultiLang": "1",
							"NameEN": "Link",
							"DescEN": "",
							"NameAR": "الرابط",
							"DescAR": "",
							"ValueEN": "#",
							"ValueAR": "#"
						}
						]
					},
					{
						"Name": "Sale & Special Offers",
						"Thumbnail": "N/A",
						"IsDefault": "0",
						"Fields": [
						{
							"CodeName": "linkname",
							"Type": "text",
							"LookUpKey": "",
							"IsMultiLang": "1",
							"NameEN": "Link Name",
							"DescEN": "",
							"NameAR": "إسم الرابط",
							"DescAR": "",
							"ValueEN": "Sale & Special Offers",
							"ValueAR": "الخصومات و العروض الخاصة"
						},
						{
							"CodeName": "link",
							"Type": "link",
							"LookUpKey": "",
							"IsMultiLang": "1",
							"NameEN": "Link",
							"DescEN": "",
							"NameAR": "الرابط",
							"DescAR": "",
							"ValueEN": "#",
							"ValueAR": "#"
						}
						]
					},
					{
						"Name": "Lookbook",
						"Thumbnail": "N/A",
						"IsDefault": "0",
						"Fields": [
						{
							"CodeName": "linkname",
							"Type": "text",
							"LookUpKey": "",
							"IsMultiLang": "1",
							"NameEN": "Link Name",
							"DescEN": "",
							"NameAR": "إسم الرابط",
							"DescAR": "",
							"ValueEN": "Lookbook",
							"ValueAR": "كتاب الصور"
						},
						{
							"CodeName": "link",
							"Type": "link",
							"LookUpKey": "",
							"IsMultiLang": "1",
							"NameEN": "Link",
							"DescEN": "",
							"NameAR": "الرابط",
							"DescAR": "",
							"ValueEN": "#",
							"ValueAR": "#"
						}
						]
					}
					]
				},
				{
					"CodeName": "mainMenuDropdown3",
					"Name": "Second Dropdown menu",
					"Type": "live",
					"State": "disabled",
					"IsCollection": 1,
					"NameEN": "Third Dropdown Menu",
					"DescEN": "",
					"ImageEN": "N/A",
					"ThumbnailEN": "N/A",
					"NameAR": "القائمة المنسدلة الثالثه",
					"DescAR": "",
					"ImageAR": "N/A",
					"ThumbnailAR": "N/A",
					"CollectionNameEN": "Menu Links - Dropdowns",
					"CollectionNameAR": "روابط القائمة المنسدلة",
					"CollectionItemNameEN": "Menu Link - Dropdown",
					"CollectionItemNameAR": "رابط قائمة منسدلة",
					"CollectionButtonNameEN": "Add New Dropdown Link",
					"CollectionButtonNameAR": "اضف رابط قائمة منسدلة جديد",
					"Fields": [
					{
						"CodeName": "linkname",
						"Type": "text",
						"LookUpKey": "",
						"IsMultiLang": "1",
						"NameEN": "Link Name",
						"DescEN": "",
						"NameAR": "إسم الرابط",
						"DescAR": "",
						"ValueEN": "Quick Access",
						"ValueAR": "قائمة سريعة"
					},
					{
						"CodeName": "link",
						"Type": "link",
						"LookUpKey": "",
						"IsMultiLang": "1",
						"NameEN": "Link",
						"DescEN": "",
						"NameAR": "الرابط",
						"DescAR": "",
						"ValueEN": "#",
						"ValueAR": "#"
					}
					],
					"Collections": [
					{
						"Name": "New In",
						"Thumbnail": "N/A",
						"IsDefault": "1",
						"Fields": [
						{
							"CodeName": "linkname",
							"Type": "text",
							"LookUpKey": "",
							"IsMultiLang": "1",
							"NameEN": "Link Name",
							"DescEN": "",
							"NameAR": "إسم الرابط",
							"DescAR": "",
							"ValueEN": "New In",
							"ValueAR": "المنتجات الحديثة"
						},
						{
							"CodeName": "link",
							"Type": "link",
							"LookUpKey": "",
							"IsMultiLang": "1",
							"NameEN": "Link",
							"DescEN": "",
							"NameAR": "الرابط",
							"DescAR": "",
							"ValueEN": "#",
							"ValueAR": "#"
						}
						]
					},
					{
						"Name": "New In",
						"Thumbnail": "N/A",
						"IsDefault": "0",
						"Fields": [
						{
							"CodeName": "linkname",
							"Type": "text",
							"LookUpKey": "",
							"IsMultiLang": "1",
							"NameEN": "Link Name",
							"DescEN": "",
							"NameAR": "إسم الرابط",
							"DescAR": "",
							"ValueEN": "New In",
							"ValueAR": "المنتجات الحديثة"
						},
						{
							"CodeName": "link",
							"Type": "link",
							"LookUpKey": "",
							"IsMultiLang": "1",
							"NameEN": "Link",
							"DescEN": "",
							"NameAR": "الرابط",
							"DescAR": "",
							"ValueEN": "#",
							"ValueAR": "#"
						}
						]
					},
					{
						"Name": "Women",
						"Thumbnail": "N/A",
						"IsDefault": "0",
						"Fields": [
						{
							"CodeName": "linkname",
							"Type": "text",
							"LookUpKey": "",
							"IsMultiLang": "1",
							"NameEN": "Link Name",
							"DescEN": "",
							"NameAR": "إسم الرابط",
							"DescAR": "",
							"ValueEN": "Women",
							"ValueAR": "النساء"
						},
						{
							"CodeName": "link",
							"Type": "link",
							"LookUpKey": "",
							"IsMultiLang": "1",
							"NameEN": "Link",
							"DescEN": "",
							"NameAR": "الرابط",
							"DescAR": "",
							"ValueEN": "#",
							"ValueAR": "#"
						}
						]
					},
					{
						"Name": "Men",
						"Thumbnail": "N/A",
						"IsDefault": "0",
						"Fields": [
						{
							"CodeName": "linkname",
							"Type": "text",
							"LookUpKey": "",
							"IsMultiLang": "1",
							"NameEN": "Link Name",
							"DescEN": "",
							"NameAR": "إسم الرابط",
							"DescAR": "",
							"ValueEN": "Men",
							"ValueAR": "الرجال"
						},
						{
							"CodeName": "link",
							"Type": "link",
							"LookUpKey": "",
							"IsMultiLang": "1",
							"NameEN": "Link",
							"DescEN": "",
							"NameAR": "الرابط",
							"DescAR": "",
							"ValueEN": "#",
							"ValueAR": "#"
						}
						]
					},
					{
						"Name": "Best Sellers",
						"Thumbnail": "N/A",
						"IsDefault": "0",
						"Fields": [
						{
							"CodeName": "linkname",
							"Type": "text",
							"LookUpKey": "",
							"IsMultiLang": "1",
							"NameEN": "Link Name",
							"DescEN": "",
							"NameAR": "إسم الرابط",
							"DescAR": "",
							"ValueEN": "Best Sellers",
							"ValueAR": "الأكثر مبيعاً"
						},
						{
							"CodeName": "link",
							"Type": "link",
							"LookUpKey": "",
							"IsMultiLang": "1",
							"NameEN": "Link",
							"DescEN": "",
							"NameAR": "الرابط",
							"DescAR": "",
							"ValueEN": "#",
							"ValueAR": "#"
						}
						]
					},
					{
						"Name": "Top Brands",
						"Thumbnail": "N/A",
						"IsDefault": "0",
						"Fields": [
						{
							"CodeName": "linkname",
							"Type": "text",
							"LookUpKey": "",
							"IsMultiLang": "1",
							"NameEN": "Link Name",
							"DescEN": "",
							"NameAR": "إسم الرابط",
							"DescAR": "",
							"ValueEN": "Top Brands",
							"ValueAR": "الماركات الشهيرة"
						},
						{
							"CodeName": "link",
							"Type": "link",
							"LookUpKey": "",
							"IsMultiLang": "1",
							"NameEN": "Link",
							"DescEN": "",
							"NameAR": "الرابط",
							"DescAR": "",
							"ValueEN": "#",
							"ValueAR": "#"
						}
						]
					},
					{
						"Name": "Sale & Special Offers",
						"Thumbnail": "N/A",
						"IsDefault": "0",
						"Fields": [
						{
							"CodeName": "linkname",
							"Type": "text",
							"LookUpKey": "",
							"IsMultiLang": "1",
							"NameEN": "Link Name",
							"DescEN": "",
							"NameAR": "إسم الرابط",
							"DescAR": "",
							"ValueEN": "Sale & Special Offers",
							"ValueAR": "الخصومات و العروض الخاصة"
						},
						{
							"CodeName": "link",
							"Type": "link",
							"LookUpKey": "",
							"IsMultiLang": "1",
							"NameEN": "Link",
							"DescEN": "",
							"NameAR": "الرابط",
							"DescAR": "",
							"ValueEN": "#",
							"ValueAR": "#"
						}
						]
					},
					{
						"Name": "Lookbook",
						"Thumbnail": "N/A",
						"IsDefault": "0",
						"Fields": [
						{
							"CodeName": "linkname",
							"Type": "text",
							"LookUpKey": "",
							"IsMultiLang": "1",
							"NameEN": "Link Name",
							"DescEN": "",
							"NameAR": "إسم الرابط",
							"DescAR": "",
							"ValueEN": "Lookbook",
							"ValueAR": "كتاب الصور"
						},
						{
							"CodeName": "link",
							"Type": "link",
							"LookUpKey": "",
							"IsMultiLang": "1",
							"NameEN": "Link",
							"DescEN": "",
							"NameAR": "الرابط",
							"DescAR": "",
							"ValueEN": "#",
							"ValueAR": "#"
						}
						]
					}
					]
				},
				{
					"CodeName": "mainMenuLinkEnd",
					"Name": "main menu link end",
					"Type": "live",
					"State": "enabled",
					"IsCollection": 1,
					"NameEN": "Main Menu Link at End",
					"DescEN": "",
					"ImageEN": "N/A",
					"ThumbnailEN": "N/A",
					"NameAR": "رابط في نهاية القائمة الرئيسية",
					"DescAR": "",
					"ImageAR": "N/A",
					"ThumbnailAR": "N/A",
					"CollectionNameEN": "Menu Links",
					"CollectionNameAR": "روابط القائمة",
					"CollectionItemNameEN": "Menu Link",
					"CollectionItemNameAR": "رابط قائمة",
					"CollectionButtonNameEN": "Add New Link",
					"CollectionButtonNameAR": "اضف رابط جديد",
					"Collections": [
						{
							"Name" : "menuLink",
							"Thumbnail": "N/A",
							"IsDefault": "1",
							"Fields": [
							{
								"CodeName": "itemname",
								"Type": "text",
								"LookUpKey": "",
								"IsMultiLang": "1",
								"NameEN": "Menu Item Text",
								"DescEN": "",
								"NameAR": "نص عنصر القائمة",
								"DescAR": "",
								"ValueEN": "Home",
								"ValueAR": "الصفحة الرئيسية"
							},
							{
								"CodeName": "itemlink",
								"Type": "link",
								"LookUpKey": "",
								"IsMultiLang": "0",
								"NameEN": "Menu Item Link",
								"DescEN": "",
								"NameAR": "رابط عنصر القائمة",
								"DescAR": "",
								"ValueEN": "#",
								"ValueAR": "#"
							}						
							]
						},
						{
							"Name" : "menuLink",
							"Thumbnail": "N/A",
							"IsDefault": "0",
							"Fields": [
							{
								"CodeName": "itemname",
								"Type": "text",
								"LookUpKey": "",
								"IsMultiLang": "1",
								"NameEN": "Menu Item Text",
								"DescEN": "",
								"NameAR": "نص عنصر القائمة",
								"DescAR": "",
								"ValueEN": "Contact",
								"ValueAR": "اتصل بنا"
							},
							{
								"CodeName": "itemlink",
								"Type": "link",
								"LookUpKey": "",
								"IsMultiLang": "0",
								"NameEN": "Menu Item Link",
								"DescEN": "",
								"NameAR": "رابط عنصر القائمة",
								"DescAR": "",
								"ValueEN": "#",
								"ValueAR": "#"
							}						
							]
						}
					]
				}

			]
		},
		{
			"CodeName": "maincontent",
			"RowOrder": "0",
			"ColOrder": "0",
			"ColWidth": "12",
			"NameEN": "Main Content",
			"NameAR": "المحتوى الرئيسي",
			"DescEN": "",
			"DescAR": "",
			"Sections": [
			
			]
		},
		{
			"CodeName": "footer",
			"RowOrder": "-1",
			"ColOrder": "-1",
			"ColWidth": "-1",
			"NameEN": "Footer",
			"NameAR": "تذييل الموقع",
			"DescEN": "",
			"DescAR": "",
			"Sections": [
			{
				"CodeName": "footerLinksRight",
				"Name": "footer links on the right",
				"Type": "live",
				"State": "enabled",
				"IsCollection": 1,
				"NameEN": "Footer Links on the Right",
				"DescEN": "",
				"ImageEN": "N/A",
				"ThumbnailEN": "N/A",
				"NameAR": "روابط تذييل الموقع - جهة اليمين",
				"DescAR": "",
				"ImageAR": "N/A",
				"ThumbnailAR": "N/A",
				"CollectionNameEN": "Footer Links",
				"CollectionNameAR": "روابط تذييل الموقع",
				"CollectionItemNameEN": "Link",
				"CollectionItemNameAR": "رابط",
				"CollectionButtonNameEN": "Add New Link",
				"CollectionButtonNameAR": "اضف رابط جديد",
				"Collections": [
				{
					"Name": "About Us",
					"Thumbnail": "N/A",
					"IsDefault": "1",
					"Fields": [
					{
						"CodeName": "linkname",
						"Type": "text",
						"LookUpKey": "",
						"IsMultiLang": "1",
						"NameEN": "Link Name",
						"DescEN": "",
						"NameAR": "إسم الرابط",
						"DescAR": "",
						"ValueEN": "About Us",
						"ValueAR": "عن المتجر"
					},
					{
						"CodeName": "link",
						"Type": "link",
						"LookUpKey": "",
						"IsMultiLang": "1",
						"NameEN": "Link",
						"DescEN": "",
						"NameAR": "الرابط",
						"DescAR": "",
						"ValueEN": "#",
						"ValueAR": "#"
					}
					]
				},
				{
					"Name": "About Us",
					"Thumbnail": "N/A",
					"IsDefault": "0",
					"Fields": [
					{
						"CodeName": "linkname",
						"Type": "text",
						"LookUpKey": "",
						"IsMultiLang": "1",
						"NameEN": "Link Name",
						"DescEN": "",
						"NameAR": "إسم الرابط",
						"DescAR": "",
						"ValueEN": "About Us",
						"ValueAR": "عن المتجر"
					},
					{
						"CodeName": "link",
						"Type": "link",
						"LookUpKey": "",
						"IsMultiLang": "1",
						"NameEN": "Link",
						"DescEN": "",
						"NameAR": "الرابط",
						"DescAR": "",
						"ValueEN": "#",
						"ValueAR": "#"
					}
					]
				},
				{
					"Name": "Blog",
					"Thumbnail": "N/A",
					"IsDefault": "0",
					"Fields": [
					{
						"CodeName": "linkname",
						"Type": "text",
						"LookUpKey": "",
						"IsMultiLang": "1",
						"NameEN": "Link Name",
						"DescEN": "",
						"NameAR": "إسم الرابط",
						"DescAR": "",
						"ValueEN": "Blog",
						"ValueAR": "المدونة"
					},
					{
						"CodeName": "link",
						"Type": "link",
						"LookUpKey": "",
						"IsMultiLang": "1",
						"NameEN": "Link",
						"DescEN": "",
						"NameAR": "الرابط",
						"DescAR": "",
						"ValueEN": "#",
						"ValueAR": "#"
					}
					]
				}
				]
			},
			{
				"CodeName": "footerLinksLeft",
				"Name": "footer links on the Left",
				"Type": "live",
				"State": "enabled",
				"IsCollection": 1,
				"NameEN": "Footer Links on the Left",
				"DescEN": "",
				"ImageEN": "N/A",
				"ThumbnailEN": "N/A",
				"NameAR": "روابط تذييل الموقع - جهة اليسار",
				"DescAR": "",
				"ImageAR": "N/A",
				"ThumbnailAR": "N/A",
				"CollectionNameEN": "Footer Links",
				"CollectionNameAR": "روابط تذييل الموقع",
				"CollectionItemNameEN": "Link",
				"CollectionItemNameAR": "رابط",
				"CollectionButtonNameEN": "Add New Link",
				"CollectionButtonNameAR": "اضف رابط جديد",
				"Collections": [
				{
					"Name": "About Us",
					"Thumbnail": "N/A",
					"IsDefault": "1",
					"Fields": [
					{
						"CodeName": "linkname",
						"Type": "text",
						"LookUpKey": "",
						"IsMultiLang": "1",
						"NameEN": "Link Name",
						"DescEN": "",
						"NameAR": "إسم الرابط",
						"DescAR": "",
						"ValueEN": "About Us",
						"ValueAR": "عن المتجر"
					},
					{
						"CodeName": "link",
						"Type": "link",
						"LookUpKey": "",
						"IsMultiLang": "1",
						"NameEN": "Link",
						"DescEN": "",
						"NameAR": "الرابط",
						"DescAR": "",
						"ValueEN": "#",
						"ValueAR": "#"
					}
					]
				},
				{
					"Name": "About Us",
					"Thumbnail": "N/A",
					"IsDefault": "0",
					"Fields": [
					{
						"CodeName": "linkname",
						"Type": "text",
						"LookUpKey": "",
						"IsMultiLang": "1",
						"NameEN": "Link Name",
						"DescEN": "",
						"NameAR": "إسم الرابط",
						"DescAR": "",
						"ValueEN": "About Us",
						"ValueAR": "عن المتجر"
					},
					{
						"CodeName": "link",
						"Type": "link",
						"LookUpKey": "",
						"IsMultiLang": "1",
						"NameEN": "Link",
						"DescEN": "",
						"NameAR": "الرابط",
						"DescAR": "",
						"ValueEN": "#",
						"ValueAR": "#"
					}
					]
				},
				{
					"Name": "Privacy Policy",
					"Thumbnail": "N/A",
					"IsDefault": "0",
					"Fields": [
					{
						"CodeName": "linkname",
						"Type": "text",
						"LookUpKey": "",
						"IsMultiLang": "1",
						"NameEN": "Link Name",
						"DescEN": "",
						"NameAR": "إسم الرابط",
						"DescAR": "",
						"ValueEN": "Privacy Policy",
						"ValueAR": "سياسة الخصوصية"
					},
					{
						"CodeName": "link",
						"Type": "link",
						"LookUpKey": "",
						"IsMultiLang": "1",
						"NameEN": "Link",
						"DescEN": "",
						"NameAR": "الرابط",
						"DescAR": "",
						"ValueEN": "#",
						"ValueAR": "#"
					}
					]
				},
				{
					"Name": "Terms & Conditions",
					"Thumbnail": "N/A",
					"IsDefault": "0",
					"Fields": [
					{
						"CodeName": "linkname",
						"Type": "text",
						"LookUpKey": "",
						"IsMultiLang": "1",
						"NameEN": "Link Name",
						"DescEN": "",
						"NameAR": "إسم الرابط",
						"DescAR": "",
						"ValueEN": "Terms & Conditions",
						"ValueAR": "الشروط و الأحكام"
					},
					{
						"CodeName": "link",
						"Type": "link",
						"LookUpKey": "",
						"IsMultiLang": "1",
						"NameEN": "Link",
						"DescEN": "",
						"NameAR": "الرابط",
						"DescAR": "",
						"ValueEN": "#",
						"ValueAR": "#"
					}
					]
				},
				{
					"Name": "Blog",
					"Thumbnail": "N/A",
					"IsDefault": "0",
					"Fields": [
					{
						"CodeName": "linkname",
						"Type": "text",
						"LookUpKey": "",
						"IsMultiLang": "1",
						"NameEN": "Link Name",
						"DescEN": "",
						"NameAR": "إسم الرابط",
						"DescAR": "",
						"ValueEN": "Blog",
						"ValueAR": "المدونة"
					},
					{
						"CodeName": "link",
						"Type": "link",
						"LookUpKey": "",
						"IsMultiLang": "1",
						"NameEN": "Link",
						"DescEN": "",
						"NameAR": "الرابط",
						"DescAR": "",
						"ValueEN": "#",
						"ValueAR": "#"
					}
					]
				}
				]
			},
			{
				"CodeName": "footerBio",
				"Name": "Footer Bio",
				"Type": "live",
				"State": "enabled",
				"IsCollection": 0,
				"NameEN": "Footer Bio",
				"DescEN": "",
				"ImageEN": "N/A",
				"ThumbnailEN": "N/A",
				"NameAR": "نبذة",
				"DescAR": "",
				"ImageAR": "N/A",
				"ThumbnailAR": "N/A",
				"Fields": [
				{
					"CodeName": "bioImage",
					"Type": "image",
					"LookUpKey": "",
					"IsMultiLang": "1",
					"NameEN": "Bio Image",
					"DescEN": "",
					"NameAR": "صورة النبذة",
					"DescAR": "",
					"ValueEN": "data/welldone/DefLogo/LogoWEN.png",
					"ValueAR": "data/welldone/DefLogo/LogoWAR.png"
				},
				{
					"CodeName": "biolink",
					"Type": "link",
					"LookUpKey": "",
					"IsMultiLang": "0",
					"NameEN": "Bio Image Link",
					"DescEN": "",
					"NameAR": "رابط صورة النبذة",
					"DescAR": "",
					"ValueEN": "#",
					"ValueAR": "#"
				},
				{
					"CodeName": "bio",
					"Type": "textarea",
					"LookUpKey": "",
					"IsMultiLang": "1",
					"NameEN": "Bio Brief",
					"DescEN": "",
					"NameAR": "نص النبذة المختصر",
					"DescAR": "",
					"ValueEN": "This is one of the best and most attractive and smartest templates on the market",
					"ValueAR": "واحد من افضل و احسن المتاجر الالكترونية الذي يتميز بالسهولة في الاستخدام"
				}
				]
			},
			{
				"CodeName": "firstcolumnlinks",
				"Name": "First Column Links",
				"Type": "live",
				"State": "enabled",
				"IsCollection": 1,
				"NameEN": "First Column Links",
				"DescEN": "",
				"ImageEN": "N/A",
				"ThumbnailEN": "N/A",
				"NameAR": "روابط العمود الأول",
				"DescAR": "",
				"ImageAR": "N/A",
				"ThumbnailAR": "N/A",
				"CollectionNameEN": "Links",
				"CollectionNameAR": "الروابط",
				"CollectionItemNameEN": "Link",
				"CollectionItemNameAR": "رابط",
				"CollectionButtonNameEN": "Add New Link",
				"CollectionButtonNameAR": "اضف رابط جديد",
				"Fields": [
				{
					"CodeName": "columntitle",
					"Type": "text",
					"LookUpKey": "",
					"IsMultiLang": "1",
					"NameEN": "Column Title",
					"DescEN": "",
					"NameAR": "عنوان العمود",
					"DescAR": "",
					"ValueEN": "KoolShop",
					"ValueAR": "متجرنا المنعش"
				},
				{
					"CodeName": "displaycolumntitle",
					"Type": "checkbox",
					"LookUpKey": "",
					"IsMultiLang": "0",
					"NameEN": "Display Column Title",
					"DescEN": "",
					"NameAR": "عرض عنوان العمود",
					"DescAR": "",
					"ValueEN": "1",
					"ValueAR": "1"
				}
				],
				"Collections": [
				{
					"Name": "About Us",
					"Thumbnail": "N/A",
					"IsDefault": "1",
					"Fields": [
					{
						"CodeName": "linkname",
						"Type": "text",
						"LookUpKey": "",
						"IsMultiLang": "1",
						"NameEN": "Link Name",
						"DescEN": "",
						"NameAR": "إسم الرابط",
						"DescAR": "",
						"ValueEN": "About Us",
						"ValueAR": "عن المتجر"
					},
					{
						"CodeName": "link",
						"Type": "link",
						"LookUpKey": "",
						"IsMultiLang": "1",
						"NameEN": "Link",
						"DescEN": "",
						"NameAR": "الرابط",
						"DescAR": "",
						"ValueEN": "#",
						"ValueAR": "#"
					}
					]
				},
				{
					"Name": "About Us",
					"Thumbnail": "N/A",
					"IsDefault": "0",
					"Fields": [
					{
						"CodeName": "linkname",
						"Type": "text",
						"LookUpKey": "",
						"IsMultiLang": "1",
						"NameEN": "Link Name",
						"DescEN": "",
						"NameAR": "إسم الرابط",
						"DescAR": "",
						"ValueEN": "About Us",
						"ValueAR": "عن المتجر"
					},
					{
						"CodeName": "link",
						"Type": "link",
						"LookUpKey": "",
						"IsMultiLang": "1",
						"NameEN": "Link",
						"DescEN": "",
						"NameAR": "الرابط",
						"DescAR": "",
						"ValueEN": "#",
						"ValueAR": "#"
					}
					]
				},
				{
					"Name": "Privacy Policy",
					"Thumbnail": "N/A",
					"IsDefault": "0",
					"Fields": [
					{
						"CodeName": "linkname",
						"Type": "text",
						"LookUpKey": "",
						"IsMultiLang": "1",
						"NameEN": "Link Name",
						"DescEN": "",
						"NameAR": "إسم الرابط",
						"DescAR": "",
						"ValueEN": "Privacy Policy",
						"ValueAR": "سياسة الخصوصية"
					},
					{
						"CodeName": "link",
						"Type": "link",
						"LookUpKey": "",
						"IsMultiLang": "1",
						"NameEN": "Link",
						"DescEN": "",
						"NameAR": "الرابط",
						"DescAR": "",
						"ValueEN": "#",
						"ValueAR": "#"
					}
					]
				},
				{
					"Name": "Terms & Conditions",
					"Thumbnail": "N/A",
					"IsDefault": "0",
					"Fields": [
					{
						"CodeName": "linkname",
						"Type": "text",
						"LookUpKey": "",
						"IsMultiLang": "1",
						"NameEN": "Link Name",
						"DescEN": "",
						"NameAR": "إسم الرابط",
						"DescAR": "",
						"ValueEN": "Terms & Conditions",
						"ValueAR": "الشروط و الأحكام"
					},
					{
						"CodeName": "link",
						"Type": "link",
						"LookUpKey": "",
						"IsMultiLang": "1",
						"NameEN": "Link",
						"DescEN": "",
						"NameAR": "الرابط",
						"DescAR": "",
						"ValueEN": "#",
						"ValueAR": "#"
					}
					]
				},
				{
					"Name": "Blog",
					"Thumbnail": "N/A",
					"IsDefault": "0",
					"Fields": [
					{
						"CodeName": "linkname",
						"Type": "text",
						"LookUpKey": "",
						"IsMultiLang": "1",
						"NameEN": "Link Name",
						"DescEN": "",
						"NameAR": "إسم الرابط",
						"DescAR": "",
						"ValueEN": "Blog",
						"ValueAR": "المدونة"
					},
					{
						"CodeName": "link",
						"Type": "link",
						"LookUpKey": "",
						"IsMultiLang": "1",
						"NameEN": "Link",
						"DescEN": "",
						"NameAR": "الرابط",
						"DescAR": "",
						"ValueEN": "#",
						"ValueAR": "#"
					}
					]
				}
				]
			},
			{
				"CodeName": "secondcolumnlinks",
				"Name": "Second Column Links",
				"Type": "live",
				"State": "enabled",
				"IsCollection": 1,
				"NameEN": "Second Column Links",
				"DescEN": "",
				"ImageEN": "N/A",
				"ThumbnailEN": "N/A",
				"NameAR": "روابط العمود الثاني",
				"DescAR": "",
				"ImageAR": "N/A",
				"ThumbnailAR": "N/A",
				"CollectionNameEN": "Links",
				"CollectionNameAR": "الروابط",
				"CollectionItemNameEN": "Link",
				"CollectionItemNameAR": "رابط",
				"CollectionButtonNameEN": "Add New Link",
				"CollectionButtonNameAR": "اضف رابط جديد",
				"Fields": [
				{
					"CodeName": "columntitle",
					"Type": "text",
					"LookUpKey": "",
					"IsMultiLang": "1",
					"NameEN": "Column Title",
					"DescEN": "",
					"NameAR": "عنوان العمود",
					"DescAR": "",
					"ValueEN": "Products",
					"ValueAR": "المنتجات"
				},
				{
					"CodeName": "displaycolumntitle",
					"Type": "checkbox",
					"LookUpKey": "",
					"IsMultiLang": "0",
					"NameEN": "Display Column Title",
					"DescEN": "",
					"NameAR": "عرض عنوان العمود",
					"DescAR": "",
					"ValueEN": "1",
					"ValueAR": "1"
				}
				],
				"Collections": [
				{
					"Name": "New In",
					"Thumbnail": "N/A",
					"IsDefault": "1",
					"Fields": [
					{
						"CodeName": "linkname",
						"Type": "text",
						"LookUpKey": "",
						"IsMultiLang": "1",
						"NameEN": "Link Name",
						"DescEN": "",
						"NameAR": "إسم الرابط",
						"DescAR": "",
						"ValueEN": "New In",
						"ValueAR": "المنتجات الحديثة"
					},
					{
						"CodeName": "link",
						"Type": "link",
						"LookUpKey": "",
						"IsMultiLang": "1",
						"NameEN": "Link",
						"DescEN": "",
						"NameAR": "الرابط",
						"DescAR": "",
						"ValueEN": "#",
						"ValueAR": "#"
					}
					]
				},
								{
					"Name": "New In",
					"Thumbnail": "N/A",
					"IsDefault": "0",
					"Fields": [
					{
						"CodeName": "linkname",
						"Type": "text",
						"LookUpKey": "",
						"IsMultiLang": "1",
						"NameEN": "Link Name",
						"DescEN": "",
						"NameAR": "إسم الرابط",
						"DescAR": "",
						"ValueEN": "New In",
						"ValueAR": "المنتجات الحديثة"
					},
					{
						"CodeName": "link",
						"Type": "link",
						"LookUpKey": "",
						"IsMultiLang": "1",
						"NameEN": "Link",
						"DescEN": "",
						"NameAR": "الرابط",
						"DescAR": "",
						"ValueEN": "#",
						"ValueAR": "#"
					}
					]
				},
				{
					"Name": "Best Sellers",
					"Thumbnail": "N/A",
					"IsDefault": "0",
					"Fields": [
					{
						"CodeName": "linkname",
						"Type": "text",
						"LookUpKey": "",
						"IsMultiLang": "1",
						"NameEN": "Link Name",
						"DescEN": "",
						"NameAR": "إسم الرابط",
						"DescAR": "",
						"ValueEN": "Best Sellers",
						"ValueAR": "الأكثر مبيعاً"
					},
					{
						"CodeName": "link",
						"Type": "link",
						"LookUpKey": "",
						"IsMultiLang": "1",
						"NameEN": "Link",
						"DescEN": "",
						"NameAR": "الرابط",
						"DescAR": "",
						"ValueEN": "#",
						"ValueAR": "#"
					}
					]
				},
				{
					"Name": "Top Brands",
					"Thumbnail": "N/A",
					"IsDefault": "0",
					"Fields": [
					{
						"CodeName": "linkname",
						"Type": "text",
						"LookUpKey": "",
						"IsMultiLang": "1",
						"NameEN": "Link Name",
						"DescEN": "",
						"NameAR": "إسم الرابط",
						"DescAR": "",
						"ValueEN": "Top Brands",
						"ValueAR": "الماركات الشهيرة"
					},
					{
						"CodeName": "link",
						"Type": "link",
						"LookUpKey": "",
						"IsMultiLang": "1",
						"NameEN": "Link",
						"DescEN": "",
						"NameAR": "الرابط",
						"DescAR": "",
						"ValueEN": "#",
						"ValueAR": "#"
					}
					]
				},
				{
					"Name": "Sale & Special Offers",
					"Thumbnail": "N/A",
					"IsDefault": "0",
					"Fields": [
					{
						"CodeName": "linkname",
						"Type": "text",
						"LookUpKey": "",
						"IsMultiLang": "1",
						"NameEN": "Link Name",
						"DescEN": "",
						"NameAR": "إسم الرابط",
						"DescAR": "",
						"ValueEN": "Sale & Special Offers",
						"ValueAR": "الخصومات و العروض الخاصة"
					},
					{
						"CodeName": "link",
						"Type": "link",
						"LookUpKey": "",
						"IsMultiLang": "1",
						"NameEN": "Link",
						"DescEN": "",
						"NameAR": "الرابط",
						"DescAR": "",
						"ValueEN": "#",
						"ValueAR": "#"
					}
					]
				},
				{
					"Name": "Lookbook",
					"Thumbnail": "N/A",
					"IsDefault": "0",
					"Fields": [
					{
						"CodeName": "linkname",
						"Type": "text",
						"LookUpKey": "",
						"IsMultiLang": "1",
						"NameEN": "Link Name",
						"DescEN": "",
						"NameAR": "إسم الرابط",
						"DescAR": "",
						"ValueEN": "Lookbook",
						"ValueAR": "كتاب الصور"
					},
					{
						"CodeName": "link",
						"Type": "link",
						"LookUpKey": "",
						"IsMultiLang": "1",
						"NameEN": "Link",
						"DescEN": "",
						"NameAR": "الرابط",
						"DescAR": "",
						"ValueEN": "#",
						"ValueAR": "#"
					}
					]
				}
				]
			},
			{
				"CodeName": "thirdcolumnlinks",
				"Name": "Third Column Links",
				"Type": "live",
				"State": "enabled",
				"IsCollection": 1,
				"NameEN": "Third Column Links",
				"DescEN": "",
				"ImageEN": "N/A",
				"ThumbnailEN": "N/A",
				"NameAR": "روابط العمود الثالث",
				"DescAR": "",
				"ImageAR": "N/A",
				"ThumbnailAR": "N/A",
				"CollectionNameEN": "Links",
				"CollectionNameAR": "الروابط",
				"CollectionItemNameEN": "Link",
				"CollectionItemNameAR": "رابط",
				"CollectionButtonNameEN": "Add New Link",
				"CollectionButtonNameAR": "اضف رابط جديد",
				"Fields": [
				{
					"CodeName": "columntitle",
					"Type": "text",
					"LookUpKey": "",
					"IsMultiLang": "1",
					"NameEN": "Column Title",
					"DescEN": "",
					"NameAR": "عنوان العمود",
					"DescAR": "",
					"ValueEN": "KoolShop",
					"ValueAR": "متجرنا المنعش"
				},
				{
					"CodeName": "displaycolumntitle",
					"Type": "checkbox",
					"LookUpKey": "",
					"IsMultiLang": "0",
					"NameEN": "Display Column Title",
					"DescEN": "",
					"NameAR": "عرض عنوان العمود",
					"DescAR": "",
					"ValueEN": "1",
					"ValueAR": "1"
				}
				],
				"Collections": [
				{
					"Name": "About Us",
					"Thumbnail": "N/A",
					"IsDefault": "1",
					"Fields": [
					{
						"CodeName": "linkname",
						"Type": "text",
						"LookUpKey": "",
						"IsMultiLang": "1",
						"NameEN": "Link Name",
						"DescEN": "",
						"NameAR": "إسم الرابط",
						"DescAR": "",
						"ValueEN": "About Us",
						"ValueAR": "عن المتجر"
					},
					{
						"CodeName": "link",
						"Type": "link",
						"LookUpKey": "",
						"IsMultiLang": "1",
						"NameEN": "Link",
						"DescEN": "",
						"NameAR": "الرابط",
						"DescAR": "",
						"ValueEN": "#",
						"ValueAR": "#"
					}
					]
				},
				{
					"Name": "About Us",
					"Thumbnail": "N/A",
					"IsDefault": "0",
					"Fields": [
					{
						"CodeName": "linkname",
						"Type": "text",
						"LookUpKey": "",
						"IsMultiLang": "1",
						"NameEN": "Link Name",
						"DescEN": "",
						"NameAR": "إسم الرابط",
						"DescAR": "",
						"ValueEN": "About Us",
						"ValueAR": "عن المتجر"
					},
					{
						"CodeName": "link",
						"Type": "link",
						"LookUpKey": "",
						"IsMultiLang": "1",
						"NameEN": "Link",
						"DescEN": "",
						"NameAR": "الرابط",
						"DescAR": "",
						"ValueEN": "#",
						"ValueAR": "#"
					}
					]
				},
				{
					"Name": "Customer Service",
					"Thumbnail": "N/A",
					"IsDefault": "0",
					"Fields": [
					{
						"CodeName": "linkname",
						"Type": "text",
						"LookUpKey": "",
						"IsMultiLang": "1",
						"NameEN": "Link Name",
						"DescEN": "",
						"NameAR": "إسم الرابط",
						"DescAR": "",
						"ValueEN": "Customer Service",
						"ValueAR": "خدمة العملاء"
					},
					{
						"CodeName": "link",
						"Type": "link",
						"LookUpKey": "",
						"IsMultiLang": "1",
						"NameEN": "Link",
						"DescEN": "",
						"NameAR": "الرابط",
						"DescAR": "",
						"ValueEN": "#",
						"ValueAR": "#"
					}
					]
				},
				{
					"Name": "Privacy Policy",
					"Thumbnail": "N/A",
					"IsDefault": "0",
					"Fields": [
					{
						"CodeName": "linkname",
						"Type": "text",
						"LookUpKey": "",
						"IsMultiLang": "1",
						"NameEN": "Link Name",
						"DescEN": "",
						"NameAR": "إسم الرابط",
						"DescAR": "",
						"ValueEN": "Privacy Policy",
						"ValueAR": "سياسة الخصوصية"
					},
					{
						"CodeName": "link",
						"Type": "link",
						"LookUpKey": "",
						"IsMultiLang": "1",
						"NameEN": "Link",
						"DescEN": "",
						"NameAR": "الرابط",
						"DescAR": "",
						"ValueEN": "#",
						"ValueAR": "#"
					}
					]
				},
				{
					"Name": "Terms & Conditions",
					"Thumbnail": "N/A",
					"IsDefault": "0",
					"Fields": [
					{
						"CodeName": "linkname",
						"Type": "text",
						"LookUpKey": "",
						"IsMultiLang": "1",
						"NameEN": "Link Name",
						"DescEN": "",
						"NameAR": "إسم الرابط",
						"DescAR": "",
						"ValueEN": "Terms & Conditions",
						"ValueAR": "الشروط و الأحكام"
					},
					{
						"CodeName": "link",
						"Type": "link",
						"LookUpKey": "",
						"IsMultiLang": "1",
						"NameEN": "Link",
						"DescEN": "",
						"NameAR": "الرابط",
						"DescAR": "",
						"ValueEN": "#",
						"ValueAR": "#"
					}
					]
				},
				{
					"Name": "Blog",
					"Thumbnail": "N/A",
					"IsDefault": "0",
					"Fields": [
					{
						"CodeName": "linkname",
						"Type": "text",
						"LookUpKey": "",
						"IsMultiLang": "1",
						"NameEN": "Link Name",
						"DescEN": "",
						"NameAR": "إسم الرابط",
						"DescAR": "",
						"ValueEN": "Blog",
						"ValueAR": "المدونة"
					},
					{
						"CodeName": "link",
						"Type": "link",
						"LookUpKey": "",
						"IsMultiLang": "1",
						"NameEN": "Link",
						"DescEN": "",
						"NameAR": "الرابط",
						"DescAR": "",
						"ValueEN": "#",
						"ValueAR": "#"
					}
					]
				}
				]
			},
			{
				"CodeName": "storecontacts",
				"Name": "Footer storecontacts",
				"Type": "live",
				"State": "enabled",
				"IsCollection": 0,
				"NameEN": "Footer Store Contacts",
				"DescEN": "",
				"ImageEN": "N/A",
				"ThumbnailEN": "N/A",
				"NameAR": "معلومات الاتصال في تذييل الموقع",
				"DescAR": "",
				"ImageAR": "N/A",
				"ThumbnailAR": "N/A",
				"Fields": [
				{
					"CodeName": "columntitle",
					"Type": "text",
					"LookUpKey": "",
					"IsMultiLang": "1",
					"NameEN": "Column Title",
					"DescEN": "",
					"NameAR": "عنوان العمود",
					"DescAR": "",
					"ValueEN": "Store Contacts",
					"ValueAR": "اتصل بنا"
				},
				{
					"CodeName": "displaycolumntitle",
					"Type": "checkbox",
					"LookUpKey": "",
					"IsMultiLang": "0",
					"NameEN": "Display Column Title",
					"DescEN": "",
					"NameAR": "عرض عنوان العمود",
					"DescAR": "",
					"ValueEN": "1",
					"ValueAR": "1"
				}
				]
			},
			{
				"CodeName": "socialMediaFooter",
				"Name": "Social Media Links",
				"Type": "live",
				"State": "enabled",
				"IsCollection": 0,
				"NameEN": "Social Media",
				"DescEN": "",
				"ImageEN": "N/A",
				"ThumbnailEN": "N/A",
				"NameAR": "قنوات التواصل",
				"DescAR": "",
				"ImageAR": "N/A",
				"ThumbnailAR": "N/A",
				"Fields":[
					{
						"CodeName": "displaySocialLinksFooter",
						"Type": "checkbox",
						"LookUpKey": "",
						"IsMultiLang": "0",
						"NameEN": "Display Social at Footer",
						"DescEN": "",
						"NameAR": "عرض قنوات التواصل الاجتماعي",
						"DescAR": "",
						"ValueEN": "1",
						"ValueAR": "1"
					},
					{
						"CodeName": "facebooklink",
						"Type": "link",
						"LookUpKey": "",
						"IsMultiLang": "0",
						"NameEN": "Facebook Page Link",
						"DescEN": "",
						"NameAR": "رابط صفحة الفيسبوك",
						"DescAR": "",
						"ValueEN": "#",
						"ValueAR": "#"
					},
					{
						"CodeName": "twitterlink",
						"Type": "link",
						"LookUpKey": "",
						"IsMultiLang": "0",
						"NameEN": "Twitter Account Link",
						"DescEN": "",
						"NameAR": "رابط حساب تويتر",
						"DescAR": "",
						"ValueEN": "#",
						"ValueAR": "#"
					},
					{
						"CodeName": "linkedinlink",
						"Type": "link",
						"LookUpKey": "",
						"IsMultiLang": "0",
						"NameEN": "LinkedIn Page Link",
						"DescEN": "",
						"NameAR": "رابط صفحة لينكد إن",
						"DescAR": "",
						"ValueEN": "#",
						"ValueAR": "#"
					},
					{
						"CodeName": "googlepluslink",
						"Type": "link",
						"LookUpKey": "",
						"IsMultiLang": "0",
						"NameEN": "Google+ Page Link",
						"DescEN": "",
						"NameAR": "رابط صفحة جوجل بلس",
						"DescAR": "",
						"ValueEN": "#",
						"ValueAR": "#"
					},
					{
						"CodeName": "pinterestlink",
						"Type": "link",
						"LookUpKey": "",
						"IsMultiLang": "0",
						"NameEN": "Pinterest Page Link",
						"DescEN": "",
						"NameAR": "رابط صفحة بينترست",
						"DescAR": "",
						"ValueEN": "#",
						"ValueAR": "#"
					},
					{
						"CodeName": "youtubelink",
						"Type": "link",
						"LookUpKey": "",
						"IsMultiLang": "0",
						"NameEN": "Youtube Channel Link",
						"DescEN": "",
						"NameAR": "رابط قناة اليوتيوب",
						"DescAR": "",
						"ValueEN": "#",
						"ValueAR": "#"
					},
					{
						"CodeName": "instagramlink",
						"Type": "link",
						"LookUpKey": "",
						"IsMultiLang": "0",
						"NameEN": "Instagram Page Link",
						"DescEN": "",
						"NameAR": "رابط صفحة إنستاغرام",
						"DescAR": "",
						"ValueEN": "#",
						"ValueAR": "#"
					},
					{
						"CodeName": "snapchatlink",
						"Type": "link",
						"LookUpKey": "",
						"IsMultiLang": "0",
						"NameEN": "Snapchat Link",
						"DescEN": "",
						"NameAR": "رابط سنابشات ",
						"DescAR": "",
						"ValueEN": "#",
						"ValueAR": "#"
					},
					{
						"CodeName": "whatsapplink",
						"Type": "link",
						"LookUpKey": "",
						"IsMultiLang": "0",
						"NameEN": "Whatsapp Link",
						"DescEN": "",
						"NameAR": "رابط واتساب ",
						"DescAR": "",
						"ValueEN": "#",
						"ValueAR": "#"
					},
					{
						"CodeName": "tiktoklink",
						"Type": "link",
						"LookUpKey": "",
						"IsMultiLang": "0",
						"NameEN": "TikTok Link",
						"DescEN": "",
						"NameAR": "رابط تيك توك ",
						"DescAR": "",
						"ValueEN": "#",
						"ValueAR": "#"
					}
				]
			},
			{
					"CodeName": "Payments",
					"Name": "Payments",
					"Type": "live",
					"State": "disabled",
					"IsCollection": 1,
					"CollectionNameEN": "Payments",
					"CollectionNameAR": "طرق الدفع",
					"CollectionItemNameEN": "Payment Method",
					"CollectionItemNameAR": "طريقة دفع",
					"CollectionButtonNameEN": "Add New Method",
					"CollectionButtonNameAR": "اضف طريقة جديدة",
					"NameEN": "Payments",
					"DescEN": "",
					"ImageEN": "N/A",
					"ThumbnailEN": "N/A",
					"NameAR": "طرق الدفع",
					"DescAR": "",
					"ImageAR": "N/A",
					"ThumbnailAR": "N/A",
					"Collections": [
						{
							"Name": "Payments Method",
							"Thumbnail": "N/A",
							"IsDefault": "1",
							"Fields": [
								{
									"CodeName": "Payment_Image",
									"Type": "image",
									"LookUpKey": "",
									"IsMultiLang": "1",
									"NameEN": "Payment Image",
									"DescEN": "",
									"NameAR": "صورة طريقة الدفع",
									"DescAR": "",
									"ValueEN": "data/hermes/paypal.png",
									"ValueAR": "data/hermes/paypal.png"
								},
								{
									"CodeName": "payment_Link",
									"Type": "link",
									"LookUpKey": "",
									"IsMultiLang": "0",
									"NameEN": "Payment Link",
									"DescEN": "",
									"NameAR": "رابط طريقة الدفع",
									"DescAR": "",
									"ValueEN": "#",
									"ValueAR": "#"
								}
							]
						},
						{
							"Name": "Payments Method",
							"Thumbnail": "N/A",
							"IsDefault": "0",
							"Fields": [
								{
									"CodeName": "Payment_Image",
									"Type": "image",
									"LookUpKey": "",
									"IsMultiLang": "1",
									"NameEN": "Payment Image",
									"DescEN": "",
									"NameAR": "صورة طريقة الدفع",
									"DescAR": "",
									"ValueEN": "data/hermes/paypal.png",
									"ValueAR": "data/hermes/paypal.png"
								},
								{
									"CodeName": "payment_Link",
									"Type": "link",
									"LookUpKey": "",
									"IsMultiLang": "0",
									"NameEN": "Payment Link",
									"DescEN": "",
									"NameAR": "رابط طريقة الدفع",
									"DescAR": "",
									"ValueEN": "#",
									"ValueAR": "#"
								}
							]
						},
						{
							"Name": "Payments Method",
							"Thumbnail": "N/A",
							"IsDefault": "0",
							"Fields": [
								{
									"CodeName": "Payment_Image",
									"Type": "image",
									"LookUpKey": "",
									"IsMultiLang": "1",
									"NameEN": "Payment Image",
									"DescEN": "",
									"NameAR": "صورة طريقة الدفع",
									"DescAR": "",
									"ValueEN": "data/hermes/master.png",
									"ValueAR": "data/hermes/master.png"
								},
								{
									"CodeName": "payment_Link",
									"Type": "link",
									"LookUpKey": "",
									"IsMultiLang": "0",
									"NameEN": "Payment Link",
									"DescEN": "",
									"NameAR": "رابط طريقة الدفع",
									"DescAR": "",
									"ValueEN": "#",
									"ValueAR": "#"
								}
							]
						},
						{
							"Name": "Payments Method",
							"Thumbnail": "N/A",
							"IsDefault": "0",
							"Fields": [
								{
									"CodeName": "Payment_Image",
									"Type": "image",
									"LookUpKey": "",
									"IsMultiLang": "1",
									"NameEN": "Payment Image",
									"DescEN": "",
									"NameAR": "صورة طريقة الدفع",
									"DescAR": "",
									"ValueEN": "data/hermes/cirrus.png",
									"ValueAR": "data/hermes/cirrus.png"
								},
								{
									"CodeName": "payment_Link",
									"Type": "link",
									"LookUpKey": "",
									"IsMultiLang": "0",
									"NameEN": "Payment Link",
									"DescEN": "",
									"NameAR": "رابط طريقة الدفع",
									"DescAR": "",
									"ValueEN": "#",
									"ValueAR": "#"
								}
							]
						},
						{
							"Name": "Payments Method",
							"Thumbnail": "N/A",
							"IsDefault": "0",
							"Fields": [
								{
									"CodeName": "Payment_Image",
									"Type": "image",
									"LookUpKey": "",
									"IsMultiLang": "1",
									"NameEN": "Payment Image",
									"DescEN": "",
									"NameAR": "صورة طريقة الدفع",
									"DescAR": "",
									"ValueEN": "data/hermes/maestro.png",
									"ValueAR": "data/hermes/maestro.png"
								},
								{
									"CodeName": "payment_Link",
									"Type": "link",
									"LookUpKey": "",
									"IsMultiLang": "0",
									"NameEN": "Payment Link",
									"DescEN": "",
									"NameAR": "رابط طريقة الدفع",
									"DescAR": "",
									"ValueEN": "#",
									"ValueAR": "#"
								}
							]
						}
					]
				},
			{
					"CodeName": "MobileApp",
					"Name": "Mobile App",
					"Type": "live",
					"State": "disabled",
					"IsCollection": 1,
					"CollectionNameEN": "Mobile App",
					"CollectionNameAR": "تطبيق الموبيل",
					"CollectionItemNameEN": "Mobile App",
					"CollectionItemNameAR": "تطبيق الموبيل",
					"CollectionButtonNameEN": "Add New App",
					"CollectionButtonNameAR": "أضف تطبيق جديد",
					"NameEN": "Mobile Apps",
					"DescEN": "",
					"ImageEN": "N/A",
					"ThumbnailEN": "N/A",
					"NameAR": "تطبيقات الموبيل",
					"DescAR": "",
					"ImageAR": "N/A",
					"ThumbnailAR": "N/A",
					"Collections": [
						{
							"Name": "App Icon",
							"Thumbnail": "N/A",
							"IsDefault": "0",
							"Fields": [
								{
									"CodeName": "app_Image",
									"Type": "image",
									"LookUpKey": "",
									"IsMultiLang": "1",
									"NameEN": "App Image",
									"DescEN": "",
									"NameAR": "صورة التطبيق",
									"DescAR": "",
									"ValueEN": "data/welldone/googleplay.png",
									"ValueAR": "data/welldone/googleplay.png"
								},
								{
									"CodeName": "app_link",
									"Type": "link",
									"LookUpKey": "",
									"IsMultiLang": "0",
									"NameEN": "App Link",
									"DescEN": "",
									"NameAR": "رابط التطبيق",
									"DescAR": "",
									"ValueEN": "#",
									"ValueAR": "#"
								}
							]
						},
						{
							"Name": "App Icon",
							"Thumbnail": "N/A",
							"IsDefault": "1",
							"Fields": [
								{
									"CodeName": "app_Image",
									"Type": "image",
									"LookUpKey": "",
									"IsMultiLang": "1",
									"NameEN": "App Image",
									"DescEN": "",
									"NameAR": "صورة التطبيق",
									"DescAR": "",
									"ValueEN": "data/welldone/googleplay.png",
									"ValueAR": "data/welldone/googleplay.png"
								},
								{
									"CodeName": "app_link",
									"Type": "link",
									"LookUpKey": "",
									"IsMultiLang": "0",
									"NameEN": "App Link",
									"DescEN": "",
									"NameAR": "رابط التطبيق",
									"DescAR": "",
									"ValueEN": "#",
									"ValueAR": "#"
								}
							]
						},
						{
							"Name": "App Icon",
							"Thumbnail": "N/A",
							"IsDefault": "0",
							"Fields": [
								{
									"CodeName": "app_Image",
									"Type": "image",
									"LookUpKey": "",
									"IsMultiLang": "1",
									"NameEN": "App Image",
									"DescEN": "",
									"NameAR": "صورة التطبيق",
									"DescAR": "",
									"ValueEN": "data/welldone/appstore.png",
									"ValueAR": "data/welldone/appstore.png"
								},
								{
									"CodeName": "app_link",
									"Type": "link",
									"LookUpKey": "",
									"IsMultiLang": "0",
									"NameEN": "App Link",
									"DescEN": "",
									"NameAR": "رابط التطبيق",
									"DescAR": "",
									"ValueEN": "#",
									"ValueAR": "#"
								}
							]
						},
						{
							"Name": "App Icon",
							"Thumbnail": "N/A",
							"IsDefault": "1",
							"Fields": [
								{
									"CodeName": "app_Image",
									"Type": "image",
									"LookUpKey": "",
									"IsMultiLang": "1",
									"NameEN": "App Image",
									"DescEN": "",
									"NameAR": "صورة التطبيق",
									"DescAR": "",
									"ValueEN": "data/welldone/appstore.png",
									"ValueAR": "data/welldone/appstore.png"
								},
								{
									"CodeName": "app_link",
									"Type": "link",
									"LookUpKey": "",
									"IsMultiLang": "0",
									"NameEN": "App Link",
									"DescEN": "",
									"NameAR": "رابط التطبيق",
									"DescAR": "",
									"ValueEN": "#",
									"ValueAR": "#"
								}
							]
						}
					]
				},
			{
				"CodeName": "Copyrights",
				"Name": "Footer Copyrights",
				"Type": "live",
				"State": "enabled",
				"IsCollection": 0,
				"NameEN": "Copyrights",
				"DescEN": "",
				"ImageEN": "N/A",
				"ThumbnailEN": "N/A",
				"NameAR": "حقوق الطبع و النشر",
				"DescAR": "",
				"ImageAR": "N/A",
				"ThumbnailAR": "N/A",
				"Fields": [
					{
						"CodeName": "Copyrights",
						"Type": "textarea",
						"LookUpKey": "",
						"IsMultiLang": "1",
						"NameEN": "Copyright Information",
						"DescEN": "",
						"NameAR": "حقوق الطبع و النشر",
						"DescAR": "",
						"ValueEN": "Copyright © 2017 Our Shop. All Rights Reserved.",
						"ValueAR": "حقوق النشر © 2017 متجرنا. جميع الحقوق محفوظة."
					},
					{
						"CodeName": "copyrightsPowered",
						"Type": "textarea",
						"LookUpKey": "",
						"IsMultiLang": "1",
						"NameEN": "Powered By Text",
						"DescEN": "",
						"NameAR": "نص بدعم من",
						"DescAR": "",
						"ValueEN": "Powered by <a href=\"https://expandcart.com\">ExpandCart</a>",
						"ValueAR": "بدعم من <a href=\"https://expandcart.com\">إكسباند كارت</a>"
					}
				]
				}
			]
		}
		]
	},
	{
		"CodeName": "general",
		"Route": "",
		"NameEN": "General",
		"DescEN": "",
		"NameAR": "الصفحة العامة",
		"DescAR": "",
		"Special": 0,
		"Regions": [
		{
			"CodeName": "maincontent",
			"RowOrder": "0",
			"ColOrder": "0",
			"ColWidth": "12",
			"NameEN": "Main Content",
			"NameAR": "المحتوى الرئيسي",
			"DescEN": "",
			"DescAR": "",
			"Sections": [
			]
		},
		{
			"CodeName": "bottomcontent",
			"RowOrder": "0",
			"ColOrder": "0",
			"ColWidth": "12",
			"NameEN": "Bottom Content",
			"NameAR": "المحتوى السفلي",
			"DescEN": "",
			"DescAR": "",
			"Sections": [

			]
		}
		]
	}
	]
}