{
	"CodeName": "largance",
	"NameEN": "Largance",
	"DescEN": "",
	"ImageEN": "N/A",
	"DemourlEN": "N/A",
	"NameAR": "لارجانس",
	"DescAR": "",
	"ImageAR": "N/A",
	"DemourlAR": "N/A",
	"Pages": [
	{
		"CodeName": "templatesettings",
		"Route": "",
		"NameEN": "Settings",
		"DescEN": "",
		"NameAR": "الإعدادات",
		"DescAR": "",
		"Special": 1,
		"Regions": [
			{
				"CodeName": "styling",
				"RowOrder": "-1",
				"ColOrder": "-1",
				"ColWidth": "-1",
				"NameEN": "Styling",
				"NameAR": "التصميم",
				"DescEN": "",
				"DescAR": "",
				"Sections": [
					{
						"CodeName": "options",
						"Name": "Options",
						"Type": "live",
						"State": "enabled",
						"IsCollection": 1,
						"CollectionNameEN": "Options",
						"CollectionNameAR": "اختيارات",
						"CollectionItemNameEN": "Option",
						"CollectionItemNameAR": "اختيار",
						"CollectionButtonNameEN": "Add New Option",
						"CollectionButtonNameAR": "اضف اختيار جديد",
						"NameEN": "Options",
						"DescEN": "",
						"ImageEN": "N/A",
						"ThumbnailEN": "N/A",
						"NameAR": "اختيارات",
						"DescAR": "",
						"ImageAR": "N/A",
						"ThumbnailAR": "N/A",
						"Collections": [
							{
								"Name": "Options",
								"Thumbnail": "N/A",
								"IsDefault": "0",
								"Fields": [
									{
										"CodeName": "Options",
										"Type": "sselect-lookup",
										"LookUpKey": "Options",
										"IsMultiLang": "0",
										"NameEN": "Display Extra Icon in Nav",
										"DescEN": "",
										"NameAR": "عرض ايقونات اضافية في القائمة",
										"DescAR": "",
										"ValueEN": "0",
										"ValueAR": "0"
									}
								]
							}
						]
					},
					{
						"CodeName": "colors",
						"Name": "Colors",
						"Type": "live",
						"State": "enabled",
						"IsCollection": 1,
						"CollectionNameEN": "Colors",
						"CollectionNameAR": "الألوان",
						"CollectionItemNameEN": "Color",
						"CollectionItemNameAR": "لون",
						"CollectionButtonNameEN": "Add New Color",
						"CollectionButtonNameAR": "اضف لون جديد",
						"NameEN": "Colors",
						"DescEN": "",
						"ImageEN": "N/A",
						"ThumbnailEN": "N/A",
						"NameAR": "الألوان",
						"DescAR": "",
						"ImageAR": "N/A",
						"ThumbnailAR": "N/A",
						"Collections": [
							{
								"Name": "Colorset 1",
								"Thumbnail": "N/A",
								"IsDefault": "0",
								"Fields": [
									{
										"CodeName": "MainColor",
										"Type": "colorpicker",
										"LookUpKey": "",
										"IsMultiLang": "0",
										"NameEN": "Main Color",
										"DescEN": "",
										"NameAR": "اللون الاساسى",
										"DescAR": "",
										"ValueEN": "#3078c0",
										"ValueAR": "#3078c0"
									},
									{
										"CodeName": "MenuColor",
										"Type": "colorpicker",
										"LookUpKey": "",
										"IsMultiLang": "0",
										"NameEN": "Menu Color",
										"DescEN": "",
										"NameAR": "لون القائمة",
										"DescAR": "",
										"ValueEN": "#686868",
										"ValueAR": "#686868"
									}
								]
							}
						]
					},
					{
						"CodeName": "fonts",
						"Name": "Fonts",
						"Type": "live",
						"State": "enabled",
						"IsCollection": 1,
						"CollectionNameEN": "Fonts",
						"CollectionNameAR": "الخطوط",
						"CollectionItemNameEN": "Font",
						"CollectionItemNameAR": "خط",
						"CollectionButtonNameEN": "Add New Font",
						"CollectionButtonNameAR": "اضف خط جديد",
						"NameEN": "Fonts",
						"DescEN": "",
						"ImageEN": "N/A",
						"ThumbnailEN": "N/A",
						"NameAR": "الخطوط",
						"DescAR": "",
						"ImageAR": "N/A",
						"ThumbnailAR": "N/A",
						"Collections": [
							{
								"Name": "Store Font",
								"Thumbnail": "N/A",
								"IsDefault": "0",
								"Fields": [
									{
										"CodeName": "ArabicFonts",
										"Type": "sselect-lookup",
										"LookUpKey": "ArabicFonts",
										"IsMultiLang": "0",
										"NameEN": "Arabic Fonts",
										"DescEN": "",
										"NameAR": "الخط العربي",
										"DescAR": "",
										"ValueEN": "Cairo",
										"ValueAR": "Cairo"
									},
									{
										"CodeName": "EnglishFonts",
										"Type": "sselect-lookup",
										"LookUpKey": "EnglishFonts",
										"IsMultiLang": "0",
										"NameEN": "English Font",
										"DescEN": "",
										"NameAR": "الخط الإنجليزي",
										"DescAR": "",
										"ValueEN": "Open Sans",
										"ValueAR": "Open Sans"
									}
								]
							}
						]
					}
				]
			}
		]
	},
	{
		"CodeName": "home",
		"Route": "",
		"NameEN": "Home Page",
		"DescEN": "",
		"NameAR": "الصفحة الرئيسية",
		"DescAR": "",
		"Special": 0,
		"Regions": [
		{
			"CodeName": "header",
			"RowOrder": "-1",
			"ColOrder": "-1",
			"ColWidth": "-1",
			"NameEN": "Header",
			"NameAR": "رأس الموقع",
			"DescEN": "",
			"DescAR": "",
			"Sections": [
			{
				"CodeName": "headerslogan",
				"Name": "header slogan",
				"Type": "live",
				"State": "enabled",
				"IsCollection": 0,
				"NameEN": "Header top slogan",
				"DescEN": "",
				"ImageEN": "N/A",
				"ThumbnailEN": "N/A",
				"NameAR": "شعار ترويجي في رأس الموقع",
				"DescAR": "",
				"ImageAR": "N/A",
				"ThumbnailAR": "N/A",
				"Fields": [
				{
					"CodeName": "slogan",
					"Type": "text",
					"LookUpKey": "",
					"IsMultiLang": "1",
					"NameEN": "Header top slogan",
					"DescEN": "",
					"NameAR": "شعار ترويجي في رأس الموقع",
					"DescAR": "",
					"ValueEN": "",
					"ValueAR": ""
				}
				]
			},
			{
				"CodeName": "headermain",
				"Name": "header area",
				"Type": "live",
				"State": "enabled",
				"IsCollection": 0,
				"NameEN": "Store Logo",
				"DescEN": "",
				"ImageEN": "N/A",
				"ThumbnailEN": "N/A",
				"NameAR": "شعار المتجر",
				"DescAR": "",
				"ImageAR": "N/A",
				"ThumbnailAR": "N/A",
				"Fields": [
				{
					"CodeName": "logo",
					"Type": "image",
					"LookUpKey": "",
					"IsMultiLang": "1",
					"NameEN": "Logo Image",
					"DescEN": "",
					"NameAR": "صورة الشعار",
					"DescAR": "",
					"ValueEN": "data/largance/DefLogo/LogoBEN.png",
					"ValueAR": "data/largance/DefLogo/LogoBAR.png"
				},
				{
					"CodeName": "logoheight",
					"Type": "text",
					"LookUpKey": "",
					"IsMultiLang": "1",
					"NameEN": "Logo Height",
					"DescEN": "",
					"NameAR": "إرتفاع الشعار",
					"DescAR": "",
					"ValueEN": "51",
					"ValueAR": "51"
				}
				]
			},
			{
				"CodeName": "mainMenuLink",
				"Name": "Main Menu",
				"Type": "live",
				"State": "enabled",
				"IsCollection": 1,
				"CollectionNameEN": "Menu Items",
				"CollectionNameAR": "عناصر القائمة",
				"CollectionItemNameEN": "Menu Item",
				"CollectionItemNameAR": "عنصر قائمة",
				"CollectionButtonNameEN": "Add New Menu Item",
				"CollectionButtonNameAR": "اضف عنصر قائمة جديد",
				"NameEN": "Static Links Menus",
				"DescEN": "",
				"ImageEN": "N/A",
				"ThumbnailEN": "N/A",
				"NameAR": "قوائم الروابط الثابتة",
				"DescAR": "",
				"ImageAR": "N/A",
				"ThumbnailAR": "N/A",
				"Collections": [
					{
						"Name" : "menuLink",
						"Thumbnail": "N/A",
						"IsDefault": "1",
						"Fields": [
						{
							"CodeName": "itemname",
							"Type": "text",
							"LookUpKey": "",
							"IsMultiLang": "1",
							"NameEN": "Menu Item Text",
							"DescEN": "",
							"NameAR": "نص عنصر القائمة",
							"DescAR": "",
							"ValueEN": "Home",
							"ValueAR": "الصفحة الرئيسية"
						},
						{
							"CodeName": "itemlink",
							"Type": "link",
							"LookUpKey": "",
							"IsMultiLang": "0",
							"NameEN": "Menu Item Link",
							"DescEN": "",
							"NameAR": "رابط عنصر القائمة",
							"DescAR": "",
							"ValueEN": "#",
							"ValueAR": "#"
						}
						]
					},
					{
						"Name" : "menuLink",
						"Thumbnail": "N/A",
						"IsDefault": "0",
						"Fields": [
						{
							"CodeName": "itemname",
							"Type": "text",
							"LookUpKey": "",
							"IsMultiLang": "1",
							"NameEN": "Menu Item Text",
							"DescEN": "",
							"NameAR": "نص عنصر القائمة",
							"DescAR": "",
							"ValueEN": "Home",
							"ValueAR": "الصفحة الرئيسية"
						},
						{
							"CodeName": "itemlink",
							"Type": "link",
							"LookUpKey": "",
							"IsMultiLang": "0",
							"NameEN": "Menu Item Link",
							"DescEN": "",
							"NameAR": "رابط عنصر القائمة",
							"DescAR": "",
							"ValueEN": "#",
							"ValueAR": "#"
						}
						]
					},
					{
						"Name" : "menuLink",
						"Thumbnail": "N/A",
						"IsDefault": "0",
						"Fields": [
						{
							"CodeName": "itemname",
							"Type": "text",
							"LookUpKey": "",
							"IsMultiLang": "1",
							"NameEN": "Menu Item Text",
							"DescEN": "",
							"NameAR": "نص عنصر القائمة",
							"DescAR": "",
							"ValueEN": "About",
							"ValueAR": "عن المتجر"
						},
						{
							"CodeName": "itemlink",
							"Type": "link",
							"LookUpKey": "",
							"IsMultiLang": "0",
							"NameEN": "Menu Item Link",
							"DescEN": "",
							"NameAR": "رابط عنصر القائمة",
							"DescAR": "",
							"ValueEN": "#",
							"ValueAR": "#"
						}
						]
					}
				]
			},
			{
				"CodeName": "megaMenuLink2",
				"Name": "Mega Menu",
				"Type": "live",
				"State": "enabled",
				"IsCollection": 1,
				"CollectionNameEN": "Menu Items",
				"CollectionNameAR": "عناصر القائمة",
				"CollectionItemNameEN": "Menu Item",
				"CollectionItemNameAR": "عنصر قائمة",
				"CollectionButtonNameEN": "Add New Menu Item",
				"CollectionButtonNameAR": "اضف عنصر قائمة جديد",
				"NameEN": "Selected Categories Menus",
				"DescEN": "",
				"ImageEN": "N/A",
				"ThumbnailEN": "N/A",
				"NameAR": "قوائم الأقسام المختارة",
				"DescAR": "",
				"ImageAR": "N/A",
				"ThumbnailAR": "N/A",
				"Collections": [
					{
						"Name" : "megaMenuLink",
						"Thumbnail": "N/A",
						"IsDefault": "1",
						"Fields": [
						{
							"CodeName": "ColumnTitle",
							"Type": "text",
							"LookUpKey": "",
							"IsMultiLang": "1",
							"NameEN": "Menu Item Text",
							"DescEN": "",
							"NameAR": "نص عنصر القائمة",
							"DescAR": "",
							"ValueEN": "New Categories",
							"ValueAR": "أقسام جديدة"
						},
						{
							"CodeName": "ColumnLink",
							"Type": "link",
							"LookUpKey": "",
							"IsMultiLang": "1",
							"NameEN": "Menu Item Link",
							"DescEN": "",
							"NameAR": "رابط عنصر القائمة",
							"DescAR": "",
							"ValueEN": "#",
							"ValueAR": "#"
						},
						{
							"CodeName": "displaySidead",
							"Type": "checkbox",
							"LookUpKey": "",
							"IsMultiLang": "0",
							"NameEN": "Display Side Ad",
							"DescEN": "",
							"NameAR": "عرض الإعلان الترويجي",
							"DescAR": "",
							"ValueEN": "1",
							"ValueAR": "1"
						},
						{
							"CodeName": "sidedadlink",
							"Type": "link",
							"LookUpKey": "",
							"IsMultiLang": "1",
							"NameEN": "Ad Link",
							"DescEN": "",
							"NameAR": "رابط الإعلان",
							"DescAR": "",
							"ValueEN": "#",
							"ValueAR": "#"
						},
						{
							"CodeName": "sideAdimg",
							"Type": "image",
							"LookUpKey": "",
							"IsMultiLang": "1",
							"NameEN": "Ad Image",
							"DescEN": "",
							"NameAR": "صورة الإعلان",
							"DescAR": "",
							"ValueEN": "data/largance/megaadv.png",
							"ValueAR": "data/largance/megaadv.png"
						},
						{
							"CodeName": "categories",
							"Type": "tags-category",
							"LookUpKey": "",
							"IsMultiLang": "0",
							"NameEN": "Categories",
							"DescEN": "",
							"NameAR": "الأقسام",
							"DescAR": "",
							"ValueEN": "0,0",
							"ValueAR": "0,0"
						}
						]
					},
					{
						"Name" : "megaMenuLink",
						"Thumbnail": "N/A",
						"IsDefault": "0",
						"Fields": [
							{
								"CodeName": "ColumnTitle",
								"Type": "text",
								"LookUpKey": "",
								"IsMultiLang": "1",
								"NameEN": "Menu Item Text",
								"DescEN": "",
								"NameAR": "نص عنصر القائمة",
								"DescAR": "",
								"ValueEN": "New Categories",
								"ValueAR": "أقسام جديدة"
							},
							{
								"CodeName": "ColumnLink",
								"Type": "link",
								"LookUpKey": "",
								"IsMultiLang": "1",
								"NameEN": "Menu Item Link",
								"DescEN": "",
								"NameAR": "رابط عنصر القائمة",
								"DescAR": "",
								"ValueEN": "#",
								"ValueAR": "#"
							},
							{
								"CodeName": "displaySidead",
								"Type": "checkbox",
								"LookUpKey": "",
								"IsMultiLang": "0",
								"NameEN": "Display Side Ad",
								"DescEN": "",
								"NameAR": "عرض الإعلان الترويجي",
								"DescAR": "",
								"ValueEN": "1",
								"ValueAR": "1"
							},
							{
								"CodeName": "sidedadlink",
								"Type": "link",
								"LookUpKey": "",
								"IsMultiLang": "1",
								"NameEN": "Ad Link",
								"DescEN": "",
								"NameAR": "رابط الإعلان",
								"DescAR": "",
								"ValueEN": "#",
								"ValueAR": "#"
							},
							{
								"CodeName": "sideAdimg",
								"Type": "image",
								"LookUpKey": "",
								"IsMultiLang": "1",
								"NameEN": "Ad Image",
								"DescEN": "",
								"NameAR": "صورة الإعلان",
								"DescAR": "",
								"ValueEN": "data/largance/megaadv.png",
								"ValueAR": "data/largance/megaadv.png"
							},
							{
								"CodeName": "categories",
								"Type": "tags-category",
								"LookUpKey": "",
								"IsMultiLang": "0",
								"NameEN": "Categories",
								"DescEN": "",
								"NameAR": "الأقسام",
								"DescAR": "",
								"ValueEN": "0,0",
								"ValueAR": "0,0"
							}
						]
					}
				]
			},
			{
				"CodeName": "megaMenuLink",
				"Name": "mega menu link (Products)",
				"Type": "live",
				"State": "enabled",
				"IsCollection": 1,
				"CollectionNameEN": "Menu Items",
				"CollectionNameAR": "عناصر القائمة",
				"CollectionItemNameEN": "Menu Item",
				"CollectionItemNameAR": "عنصر قائمة",
				"CollectionButtonNameEN": "Add New Menu Item",
				"CollectionButtonNameAR": "اضف عنصر قائمة جديد",
				"NameEN": "Selected Products Menus",
				"DescEN": "",
				"ImageEN": "N/A",
				"ThumbnailEN": "N/A",
				"NameAR": "قوائم المنتجات المختارة",
				"DescAR": "",
				"ImageAR": "N/A",
				"ThumbnailAR": "N/A",
				"Collections": [
					{
						"Name" : "megaMenuLink",
						"Thumbnail": "N/A",
						"IsDefault": "1",
						"Fields": [

						{
							"CodeName": "ColumnTitle",
							"Type": "text",
							"LookUpKey": "",
							"IsMultiLang": "1",
							"NameEN": "Menu Item Text",
							"DescEN": "",
							"NameAR": "نص عنصر القائمة",
							"DescAR": "",
							"ValueEN": "Hot Deals",
							"ValueAR": "عروض هائلة"
						},
						{
							"CodeName": "ColumnLink",
							"Type": "link",
							"LookUpKey": "",
							"IsMultiLang": "1",
							"NameEN": "Menu Item Link",
							"DescEN": "",
							"NameAR": "رابط عنصر القائمة",
							"DescAR": "",
							"ValueEN": "#",
							"ValueAR": "#"
						},
						{
							"CodeName": "displaySidead",
							"Type": "checkbox",
							"LookUpKey": "",
							"IsMultiLang": "0",
							"NameEN": "Display Side Ad",
							"DescEN": "",
							"NameAR": "عرض الإعلان الترويجي",
							"DescAR": "",
							"ValueEN": "1",
							"ValueAR": "1"
						},
						{
							"CodeName": "sidedadlink",
							"Type": "link",
							"LookUpKey": "",
							"IsMultiLang": "1",
							"NameEN": "Ad Link",
							"DescEN": "",
							"NameAR": "رابط الإعلان",
							"DescAR": "",
							"ValueEN": "#",
							"ValueAR": "#"
						},
						{
							"CodeName": "sideAdTitle",
							"Type": "text",
							"LookUpKey": "",
							"IsMultiLang": "1",
							"NameEN": "Side Ad Title",
							"DescEN": "",
							"NameAR": "عنوان الإعلان الجانبي",
							"DescAR": "",
							"ValueEN": "Hot Deals",
							"ValueAR": "عروض هائلة"
						},
						{
							"CodeName": "sideAdbody",
							"Type": "text",
							"LookUpKey": "",
							"IsMultiLang": "1",
							"NameEN": "Menu Main Text",
							"DescEN": "",
							"NameAR": "النص الرئيسي للإعلان",
							"DescAR": "",
							"ValueEN": "Good deals for our customers for the end of the month",
							"ValueAR": "عروض حقيقية و تخفيضات لعملائنا حتي نهاية الشهر"
						},
						{
							"CodeName": "sideAdimg",
							"Type": "image",
							"LookUpKey": "",
							"IsMultiLang": "1",
							"NameEN": "Ad Image",
							"DescEN": "",
							"NameAR": "صورة الإعلان",
							"DescAR": "",
							"ValueEN": "data/largance/ad-01.jpg",
							"ValueAR": "data/largance/ad-01.jpg"
						},
						{
							"CodeName": "products",
							"Type": "tags-product",
							"LookUpKey": "",
							"IsMultiLang": "0",
							"NameEN": "Products",
							"DescEN": "",
							"NameAR": "المنتجات",
							"DescAR": "",
							"ValueEN": "0,0,0,0,0,0,0,0,0,0,0",
							"ValueAR": "0,0,0,0,0,0,0,0,0,0,0"
						}
						]
					},
					{
						"Name" : "megaMenuLink",
						"Thumbnail": "N/A",
						"IsDefault": "0",
						"Fields": [

							{
								"CodeName": "ColumnTitle",
								"Type": "text",
								"LookUpKey": "",
								"IsMultiLang": "1",
								"NameEN": "Menu Item Text",
								"DescEN": "",
								"NameAR": "نص عنصر القائمة",
								"DescAR": "",
								"ValueEN": "Hot Deals",
								"ValueAR": "عروض هائلة"
							},
							{
								"CodeName": "ColumnLink",
								"Type": "link",
								"LookUpKey": "",
								"IsMultiLang": "1",
								"NameEN": "Menu Item Link",
								"DescEN": "",
								"NameAR": "رابط عنصر القائمة",
								"DescAR": "",
								"ValueEN": "#",
								"ValueAR": "#"
							},
							{
								"CodeName": "displaySidead",
								"Type": "checkbox",
								"LookUpKey": "",
								"IsMultiLang": "0",
								"NameEN": "Display Side Ad",
								"DescEN": "",
								"NameAR": "عرض الإعلان الترويجي",
								"DescAR": "",
								"ValueEN": "1",
								"ValueAR": "1"
							},
							{
								"CodeName": "sidedadlink",
								"Type": "link",
								"LookUpKey": "",
								"IsMultiLang": "1",
								"NameEN": "Ad Link",
								"DescEN": "",
								"NameAR": "رابط الإعلان",
								"DescAR": "",
								"ValueEN": "#",
								"ValueAR": "#"
							},
							{
								"CodeName": "sideAdTitle",
								"Type": "text",
								"LookUpKey": "",
								"IsMultiLang": "1",
								"NameEN": "Side Ad Title",
								"DescEN": "",
								"NameAR": "عنوان الإعلان الجانبي",
								"DescAR": "",
								"ValueEN": "Hot Deals",
								"ValueAR": "عروض هائلة"
							},
							{
								"CodeName": "sideAdbody",
								"Type": "text",
								"LookUpKey": "",
								"IsMultiLang": "1",
								"NameEN": "Menu Main Text",
								"DescEN": "",
								"NameAR": "النص الرئيسي للإعلان",
								"DescAR": "",
								"ValueEN": "Good deals for our customers for the end of the month",
								"ValueAR": "عروض حقيقية و تخفيضات لعملائنا حتي نهاية الشهر"
							},
							{
								"CodeName": "sideAdimg",
								"Type": "image",
								"LookUpKey": "",
								"IsMultiLang": "1",
								"NameEN": "Ad Image",
								"DescEN": "",
								"NameAR": "صورة الإعلان",
								"DescAR": "",
								"ValueEN": "data/largance/ad-01.jpg",
								"ValueAR": "data/largance/ad-01.jpg"
							},
							{
								"CodeName": "products",
								"Type": "tags-product",
								"LookUpKey": "",
								"IsMultiLang": "0",
								"NameEN": "Products",
								"DescEN": "",
								"NameAR": "المنتجات",
								"DescAR": "",
								"ValueEN": "0,0,0,0,0,0,0,0,0,0,0",
								"ValueAR": "0,0,0,0,0,0,0,0,0,0,0"
							}
						]
					}
				]
			},
			{
				"CodeName": "mainMenuCategories",
				"Name": "Category link",
				"Type": "live",
				"State": "enabled",
				"IsCollection": 1,
				"CollectionNameEN": "Menu Items",
				"CollectionNameAR": "عناصر القائمة",
				"CollectionItemNameEN": "Menu Item",
				"CollectionItemNameAR": "عنصر قائمة",
				"CollectionButtonNameEN": "Add New Menu Item",
				"CollectionButtonNameAR": "اضف عنصر قائمة جديد",
				"NameEN": "Simple Categories Menus",
				"DescEN": "",
				"ImageEN": "N/A",
				"ThumbnailEN": "N/A",
				"NameAR": "قوائم الأقسام البسيطة",
				"DescAR": "",
				"ImageAR": "N/A",
				"ThumbnailAR": "N/A",
				"Collections": [
					{
						"Name": "Featured Category",
						"Thumbnail": "N/A",
						"IsDefault": "1",
						"Fields": [
							{
								"CodeName": "itemname",
								"Type": "text",
								"LookUpKey": "",
								"IsMultiLang": "1",
								"NameEN": "Menu Item Text",
								"DescEN": "",
								"NameAR": "نص عنصر القائمة",
								"DescAR": "",
								"ValueEN": "Featured Category",
								"ValueAR": "قسم خاص"
							},
							{
								"CodeName": "itemlink",
								"Type": "link",
								"LookUpKey": "",
								"IsMultiLang": "0",
								"NameEN": "Menu Item Link",
								"DescEN": "",
								"NameAR": "رابط عنصر القائمة",
								"DescAR": "",
								"ValueEN": "#",
								"ValueAR": "#"
							},
							{
								"CodeName": "categories",
								"Type": "tags-category",
								"LookUpKey": "",
								"IsMultiLang": "0",
								"NameEN": "Categories",
								"DescEN": "",
								"NameAR": "الأقسام",
								"DescAR": "",
								"ValueEN": "0",
								"ValueAR": "0"
							}
						]
					},
					{
						"Name": "Featured Categories",
						"Thumbnail": "N/A",
						"IsDefault": "0",
						"Fields": [
							{
								"CodeName": "itemname",
								"Type": "text",
								"LookUpKey": "",
								"IsMultiLang": "1",
								"NameEN": "Menu Item Text",
								"DescEN": "",
								"NameAR": "نص عنصر القائمة",
								"DescAR": "",
								"ValueEN": "Featured Category",
								"ValueAR": "قسم خاص"
							},
							{
								"CodeName": "itemlink",
								"Type": "link",
								"LookUpKey": "",
								"IsMultiLang": "0",
								"NameEN": "Menu Item Link",
								"DescEN": "",
								"NameAR": "رابط عنصر القائمة",
								"DescAR": "",
								"ValueEN": "#",
								"ValueAR": "#"
							},
							{
								"CodeName": "categories",
								"Type": "tags-category",
								"LookUpKey": "",
								"IsMultiLang": "0",
								"NameEN": "Categories",
								"DescEN": "",
								"NameAR": "الأقسام",
								"DescAR": "",
								"ValueEN": "0",
								"ValueAR": "0"
							}
						]
					}
				]
			},
			{
				"CodeName": "mainMenuLinkEnd",
				"Name": "main menu link end",
				"Type": "live",
				"State": "enabled",
				"IsCollection": 1,
				"CollectionNameEN": "Menu Items",
				"CollectionNameAR": "عناصر القائمة",
				"CollectionItemNameEN": "Menu Item",
				"CollectionItemNameAR": "عنصر قائمة",
				"CollectionButtonNameEN": "Add New Menu Item",
				"CollectionButtonNameAR": "اضف عنصر قائمة جديد",
				"NameEN": "Static Links Menus",
				"DescEN": "",
				"ImageEN": "N/A",
				"ThumbnailEN": "N/A",
				"NameAR": "قوائم الروابط الثابتة",
				"DescAR": "",
				"ImageAR": "N/A",
				"ThumbnailAR": "N/A",
				"Collections": [
					{
						"Name" : "menuLink",
						"Thumbnail": "N/A",
						"IsDefault": "1",
						"Fields": [
						{
							"CodeName": "itemname",
							"Type": "text",
							"LookUpKey": "",
							"IsMultiLang": "1",
							"NameEN": "Menu Item Text",
							"DescEN": "",
							"NameAR": "نص عنصر القائمة",
							"DescAR": "",
							"ValueEN": "Home",
							"ValueAR": "الصفحة الرئيسية"
						},
						{
							"CodeName": "itemlink",
							"Type": "link",
							"LookUpKey": "",
							"IsMultiLang": "0",
							"NameEN": "Menu Item Link",
							"DescEN": "",
							"NameAR": "رابط عنصر القائمة",
							"DescAR": "",
							"ValueEN": "#",
							"ValueAR": "#"
						}
						]
					},
					{
						"Name" : "menuLink",
						"Thumbnail": "N/A",
						"IsDefault": "0",
						"Fields": [
						{
							"CodeName": "itemname",
							"Type": "text",
							"LookUpKey": "",
							"IsMultiLang": "1",
							"NameEN": "Menu Item Text",
							"DescEN": "",
							"NameAR": "نص عنصر القائمة",
							"DescAR": "",
							"ValueEN": "Contact",
							"ValueAR": "اتصل بنا"
						},
						{
							"CodeName": "itemlink",
							"Type": "link",
							"LookUpKey": "",
							"IsMultiLang": "0",
							"NameEN": "Menu Item Link",
							"DescEN": "",
							"NameAR": "رابط عنصر القائمة",
							"DescAR": "",
							"ValueEN": "#",
							"ValueAR": "#"
						}
						]
					},
					{
						"Name" : "menuLink",
						"Thumbnail": "N/A",
						"IsDefault": "0",
						"Fields": [
						{
							"CodeName": "itemname",
							"Type": "text",
							"LookUpKey": "",
							"IsMultiLang": "1",
							"NameEN": "Menu Item Text",
							"DescEN": "",
							"NameAR": "نص عنصر القائمة",
							"DescAR": "",
							"ValueEN": "Blog",
							"ValueAR": "المجلة"
						},
						{
							"CodeName": "itemlink",
							"Type": "link",
							"LookUpKey": "",
							"IsMultiLang": "0",
							"NameEN": "Menu Item Link",
							"DescEN": "",
							"NameAR": "رابط عنصر القائمة",
							"DescAR": "",
							"ValueEN": "#",
							"ValueAR": "#"
						}
						]
					}
				]
			}
			]
		},
		{
			"CodeName": "maincontent",
			"RowOrder": "0",
			"ColOrder": "0",
			"ColWidth": "12",
			"NameEN": "Main Content",
			"NameAR": "المحتوى الرئيسي",
			"DescEN": "",
			"DescAR": "",
			"Sections": [
			{
				"CodeName": "storehero",
				"Name": "My Slides",
				"Type": "live",
				"State": "enabled",
				"IsCollection": 1,
				"CollectionNameEN": "Slide Show",
				"CollectionNameAR": "عرض الشرائح",
				"CollectionItemNameEN": "Slide",
				"CollectionItemNameAR": "شريحة",
				"CollectionButtonNameEN": "Add New Slide",
				"CollectionButtonNameAR": "اضف شريحة جديدة",
				"NameEN": "Slide Show",
				"DescEN": "",
				"ImageEN": "N/A",
				"ThumbnailEN": "N/A",
				"NameAR": "عرض الشرائح",
				"DescAR": "",
				"ImageAR": "N/A",
				"ThumbnailAR": "N/A",
				"Collections":
				[
					{
						"Name": "My Slide",
						"Thumbnail": "N/A",
						"IsDefault": "1",
						"Fields": [
						{
							"CodeName": "mainheading",
							"Type": "text",
							"LookUpKey": "",
							"IsMultiLang": "1",
							"NameEN": "Main Title",
							"DescEN": "",
							"NameAR": "العنوان الرئيسي",
							"DescAR": "",
							"ValueEN": "The Victoria Grand Cuisine",
							"ValueAR": "مطبخ فيكتوريا الكبرى"
						},
						{
							"CodeName": "subheading",
							"Type": "textarea",
							"LookUpKey": "",
							"IsMultiLang": "1",
							"NameEN": "Sub Title",
							"DescEN": "",
							"NameAR": "العنوان الفرعي",
							"DescAR": "",
							"ValueEN": "Buy Trendy Design Furniture",
							"ValueAR": "إشتري أثاث بتصميم عصري"
						},
						{
							"CodeName": "slidelink",
							"Type": "link",
							"LookUpKey": "",
							"IsMultiLang": "1",
							"NameEN": "Slide Link",
							"DescEN": "",
							"NameAR": "رابط الشريحة",
							"DescAR": "",
							"ValueEN": "#",
							"ValueAR": "#"
						},
						{
							"CodeName": "slideimage",
							"Type": "image",
							"LookUpKey": "",
							"IsMultiLang": "1",
							"NameEN": "Slide Image",
							"DescEN": "",
							"NameAR": "صورة الشريحة",
							"DescAR": "",
							"ValueEN": "data/largance/slide13a.jpg",
							"ValueAR": "data/largance/slide13a.jpg"
						}
						]
					},
					{
						"Name": "My First Slide",
						"Thumbnail": "N/A",
						"IsDefault": "0",
						"Fields": [
						{
							"CodeName": "mainheading",
							"Type": "text",
							"LookUpKey": "",
							"IsMultiLang": "1",
							"NameEN": "Main Title",
							"DescEN": "",
							"NameAR": "العنوان الرئيسي",
							"DescAR": "",
							"ValueEN": "The Victoria Grand Cuisine",
							"ValueAR": "مطبخ فيكتوريا الكبرى"
						},
						{
							"CodeName": "subheading",
							"Type": "textarea",
							"LookUpKey": "",
							"IsMultiLang": "1",
							"NameEN": "Sub Title",
							"DescEN": "",
							"NameAR": "العنوان الفرعي",
							"DescAR": "",
							"ValueEN": "Buy Trendy Design Furniture",
							"ValueAR": "إشتري أثاث بتصميم عصري"
						},
						{
							"CodeName": "slidelink",
							"Type": "link",
							"LookUpKey": "",
							"IsMultiLang": "1",
							"NameEN": "Slide Link",
							"DescEN": "",
							"NameAR": "رابط الشريحة",
							"DescAR": "",
							"ValueEN": "#",
							"ValueAR": "#"
						},
						{
							"CodeName": "slideimage",
							"Type": "image",
							"LookUpKey": "",
							"IsMultiLang": "1",
							"NameEN": "Slide Image",
							"DescEN": "",
							"NameAR": "صورة الشريحة",
							"DescAR": "",
							"ValueEN": "data/largance/slide13a.jpg",
							"ValueAR": "data/largance/slide13a.jpg"
						}
						]
					},
					{
						"Name": "My Second Slide",
						"Thumbnail": "N/A",
						"IsDefault": "0",
						"Fields": [
						{
							"CodeName": "mainheading",
							"Type": "text",
							"LookUpKey": "",
							"IsMultiLang": "1",
							"NameEN": "Main Title",
							"DescEN": "",
							"NameAR": "العنوان الرئيسي",
							"DescAR": "",
							"ValueEN": "The Victoria Ghost Chair",
							"ValueAR": "كرسي فيكتوريا الشبح"
						},
						{
							"CodeName": "subheading",
							"Type": "textarea",
							"LookUpKey": "",
							"IsMultiLang": "1",
							"NameEN": "Sub Title",
							"DescEN": "",
							"NameAR": "العنوان الفرعي",
							"DescAR": "",
							"ValueEN": "Buy Trendy Design Furniture",
							"ValueAR": "إشتري أثاث بتصميم عصري"
						},
						{
							"CodeName": "slidelink",
							"Type": "link",
							"LookUpKey": "",
							"IsMultiLang": "1",
							"NameEN": "Slide Link",
							"DescEN": "",
							"NameAR": "رابط الشريحة",
							"DescAR": "",
							"ValueEN": "#",
							"ValueAR": "#"
						},
						{
							"CodeName": "slideimage",
							"Type": "image",
							"LookUpKey": "",
							"IsMultiLang": "1",
							"NameEN": "Slide Image",
							"DescEN": "",
							"NameAR": "صورة الشريحة",
							"DescAR": "",
							"ValueEN": "data/largance/slide13b.jpg",
							"ValueAR": "data/largance/slide13b.jpg"
						}
						]
					},
					{
						"Name": "My Third Slide",
						"Thumbnail": "N/A",
						"IsDefault": "0",
						"Fields": [
						{
							"CodeName": "mainheading",
							"Type": "text",
							"LookUpKey": "",
							"IsMultiLang": "1",
							"NameEN": "Main Title",
							"DescEN": "",
							"NameAR": "العنوان الرئيسي",
							"DescAR": "",
							"ValueEN": "Feel The Beats",
							"ValueAR": "إشعر بالطبول"
						},
						{
							"CodeName": "subheading",
							"Type": "textarea",
							"LookUpKey": "",
							"IsMultiLang": "1",
							"NameEN": "Sub Title",
							"DescEN": "",
							"NameAR": "العنوان الفرعي",
							"DescAR": "",
							"ValueEN": "CES 2016 Honours<br>For Headphones Innovation",
							"ValueAR": "جائزة 2016<br>لإبتكارات السماعات"
						},
						{
							"CodeName": "slidelink",
							"Type": "link",
							"LookUpKey": "",
							"IsMultiLang": "1",
							"NameEN": "Slide Link",
							"DescEN": "",
							"NameAR": "رابط الشريحة",
							"DescAR": "",
							"ValueEN": "#",
							"ValueAR": "#"
						},
						{
							"CodeName": "slideimage",
							"Type": "image",
							"LookUpKey": "",
							"IsMultiLang": "1",
							"NameEN": "Slide Image",
							"DescEN": "",
							"NameAR": "صورة الشريحة",
							"DescAR": "",
							"ValueEN": "data/largance/slide13c.jpg",
							"ValueAR": "data/largance/slide13c.jpg"
						}
						]
					}
				]
			},
			{
				"CodeName": "iconslider",
				"Name": "icons slider",
				"Type": "live",
				"State": "enabled",
				"IsCollection": 1,
				"CollectionNameEN": "Brand Logos",
				"CollectionNameAR": "الشعارات",
				"CollectionItemNameEN": "Brand",
				"CollectionItemNameAR": "علامة تجارية",
				"CollectionButtonNameEN": "Add New Brand",
				"CollectionButtonNameAR": "اضف علامة تجارية جديدة",
				"NameEN": "Brand Logos",
				"DescEN": "",
				"ImageEN": "N/A",
				"ThumbnailEN": "N/A",
				"NameAR": "شعارات الماركت",
				"DescAR": "",
				"ImageAR": "N/A",
				"ThumbnailAR": "N/A",
				"Fields":
				[
					{
						"CodeName": "sectiontitle",
						"Type": "text",
						"LookUpKey": "",
						"IsMultiLang": "1",
						"NameEN": "Section Title",
						"DescEN": "",
						"NameAR": "عنوان القسم",
						"DescAR": "",
						"ValueEN": "Featured Brands",
						"ValueAR": "افضل الماركات"
					},
					{
						"CodeName": "displaysectiontitle",
						"Type": "checkbox",
						"LookUpKey": "",
						"IsMultiLang": "0",
						"NameEN": "Display Section Title",
						"DescEN": "",
						"NameAR": "عرض عنوان القسم",
						"DescAR": "",
						"ValueEN": "1",
						"ValueAR": "1"
					}
				],
				"Collections":
				[
					{
						"Name": "My Slide",
						"Thumbnail": "N/A",
						"IsDefault": "1",
						"Fields": [
							{
								"CodeName": "imagelink",
								"Type": "link",
								"LookUpKey": "",
								"IsMultiLang": "1",
								"NameEN": "Brand Link",
								"DescEN": "",
								"NameAR": "رابط العلامة التجارية",
								"DescAR": "",
								"ValueEN": "#",
								"ValueAR": "#"
							},
							{
								"CodeName": "slideimage",
								"Type": "image",
								"LookUpKey": "",
								"IsMultiLang": "1",
								"NameEN": "Brand Image",
								"DescEN": "",
								"NameAR": "صورة العلامة التجارية",
								"DescAR": "",
								"ValueEN": "data/largance/part1.png",
								"ValueAR": "data/largance/part1.png"
							}
						]
					},
					{
						"Name": "My Slide 1",
						"Thumbnail": "N/A",
						"IsDefault": "0",
						"Fields": [
							{
								"CodeName": "imagelink",
								"Type": "link",
								"LookUpKey": "",
								"IsMultiLang": "1",
								"NameEN": "Brand Link",
								"DescEN": "",
								"NameAR": "رابط العلامة التجارية",
								"DescAR": "",
								"ValueEN": "#",
								"ValueAR": "#"
							},
							{
								"CodeName": "slideimage",
								"Type": "image",
								"LookUpKey": "",
								"IsMultiLang": "1",
								"NameEN": "Brand Image",
								"DescEN": "",
								"NameAR": "صورة العلامة التجارية",
								"DescAR": "",
								"ValueEN": "data/largance/part1.png",
								"ValueAR": "data/largance/part1.png"
							}
						]
					},
					{
						"Name": "My Slide 2",
						"Thumbnail": "N/A",
						"IsDefault": "0",
						"Fields": [
							{
								"CodeName": "imagelink",
								"Type": "link",
								"LookUpKey": "",
								"IsMultiLang": "1",
								"NameEN": "Brand Link",
								"DescEN": "",
								"NameAR": "رابط العلامة التجارية",
								"DescAR": "",
								"ValueEN": "#",
								"ValueAR": "#"
							},
							{
								"CodeName": "slideimage",
								"Type": "image",
								"LookUpKey": "",
								"IsMultiLang": "1",
								"NameEN": "Brand Image",
								"DescEN": "",
								"NameAR": "صورة العلامة التجارية",
								"DescAR": "",
								"ValueEN": "data/largance/part2.png",
								"ValueAR": "data/largance/part2.png"
							}
						]
					},
					{
						"Name": "My Slide 3",
						"Thumbnail": "N/A",
						"IsDefault": "0",
						"Fields": [
							{
								"CodeName": "imagelink",
								"Type": "link",
								"LookUpKey": "",
								"IsMultiLang": "1",
								"NameEN": "Brand Link",
								"DescEN": "",
								"NameAR": "رابط العلامة التجارية",
								"DescAR": "",
								"ValueEN": "#",
								"ValueAR": "#"
							},
							{
								"CodeName": "slideimage",
								"Type": "image",
								"LookUpKey": "",
								"IsMultiLang": "1",
								"NameEN": "Brand Image",
								"DescEN": "",
								"NameAR": "صورة العلامة التجارية",
								"DescAR": "",
								"ValueEN": "data/largance/part3.png",
								"ValueAR": "data/largance/part3.png"
							}
						]
					},
					{
						"Name": "My Slide 4",
						"Thumbnail": "N/A",
						"IsDefault": "0",
						"Fields": [
							{
								"CodeName": "imagelink",
								"Type": "link",
								"LookUpKey": "",
								"IsMultiLang": "1",
								"NameEN": "Brand Link",
								"DescEN": "",
								"NameAR": "رابط العلامة التجارية",
								"DescAR": "",
								"ValueEN": "#",
								"ValueAR": "#"
							},
							{
								"CodeName": "slideimage",
								"Type": "image",
								"LookUpKey": "",
								"IsMultiLang": "1",
								"NameEN": "Brand Image",
								"DescEN": "",
								"NameAR": "صورة العلامة التجارية",
								"DescAR": "",
								"ValueEN": "data/largance/part4.png",
								"ValueAR": "data/largance/part4.png"
							}
						]
					},
					{
						"Name": "My Slide 5",
						"Thumbnail": "N/A",
						"IsDefault": "0",
						"Fields": [
							{
								"CodeName": "imagelink",
								"Type": "link",
								"LookUpKey": "",
								"IsMultiLang": "1",
								"NameEN": "Brand Link",
								"DescEN": "",
								"NameAR": "رابط العلامة التجارية",
								"DescAR": "",
								"ValueEN": "#",
								"ValueAR": "#"
							},
							{
								"CodeName": "slideimage",
								"Type": "image",
								"LookUpKey": "",
								"IsMultiLang": "1",
								"NameEN": "Brand Image",
								"DescEN": "",
								"NameAR": "صورة العلامة التجارية",
								"DescAR": "",
								"ValueEN": "data/largance/part5.png",
								"ValueAR": "data/largance/part5.png"
							}
						]
					},
					{
						"Name": "My Slide 6",
						"Thumbnail": "N/A",
						"IsDefault": "0",
						"Fields": [
							{
								"CodeName": "imagelink",
								"Type": "link",
								"LookUpKey": "",
								"IsMultiLang": "1",
								"NameEN": "Brand Link",
								"DescEN": "",
								"NameAR": "رابط العلامة التجارية",
								"DescAR": "",
								"ValueEN": "#",
								"ValueAR": "#"
							},
							{
								"CodeName": "slideimage",
								"Type": "image",
								"LookUpKey": "",
								"IsMultiLang": "1",
								"NameEN": "Brand Image",
								"DescEN": "",
								"NameAR": "صورة العلامة التجارية",
								"DescAR": "",
								"ValueEN": "data/largance/part6.png",
								"ValueAR": "data/largance/part6.png"
							}
						]
					}
				]
			},

			{
				"CodeName": "productSliderSpecial",
				"Name": "Special Products slider",
				"Type": "live",
				"State": "enabled",
				"IsCollection": 0,
				"NameEN": "Special Products",
				"DescEN": "",
				"ImageEN": "N/A",
				"ThumbnailEN": "N/A",
				"NameAR": "المنتجات ذات العروض",
				"DescAR": "",
				"ImageAR": "N/A",
				"ThumbnailAR": "N/A",
				"Fields": [
					{
						"CodeName": "sectiontitle",
						"Type": "text",
						"LookUpKey": "",
						"IsMultiLang": "1",
						"NameEN": "Section Title",
						"DescEN": "",
						"NameAR": "عنوان القسم",
						"DescAR": "",
						"ValueEN": "Special Products",
						"ValueAR": "العروض الخاصة"
					},
					{
						"CodeName": "displaysectiontitle",
						"Type": "checkbox",
						"LookUpKey": "",
						"IsMultiLang": "0",
						"NameEN": "Display Section Title",
						"DescEN": "",
						"NameAR": "عرض عنوان القسم",
						"DescAR": "",
						"ValueEN": "1",
						"ValueAR": "1"
					}
				]
			},

			{
				"CodeName": "banner",
				"Name": "image banner",
				"Type": "live",
				"State": "enabled",
				"IsCollection": 0,
				"NameEN": "Banner",
				"DescEN": "",
				"ImageEN": "N/A",
				"ThumbnailEN": "N/A",
				"NameAR": "إعلان",
				"DescAR": "",
				"ImageAR": "N/A",
				"ThumbnailAR": "N/A",
				"Fields": [
					{
						"CodeName": "bannerlink",
						"Type": "link",
						"LookUpKey": "",
						"IsMultiLang": "1",
						"NameEN": "Banner Link",
						"DescEN": "",
						"NameAR": "رابط الإعلان",
						"DescAR": "",
						"ValueEN": "#",
						"ValueAR": "#"
					},
					{
						"CodeName": "bannerimage",
						"Type": "image",
						"LookUpKey": "",
						"IsMultiLang": "1",
						"NameEN": "Banner Image",
						"DescEN": "",
						"NameAR": "صورة الإعلان",
						"DescAR": "",
						"ValueEN": "data/largance/banner.jpg",
						"ValueAR": "data/largance/banner.jpg"
					}
				]
			},

				{
					"CodeName": "featuredproductstemplate1",
					"Name": "Products Slider ( Featured )",
					"Type": "live",
					"State": "enabled",
					"IsCollection": 0,
					"NameEN": "Selected Products - Grid",
					"DescEN": "",
					"ImageEN": "N/A",
					"ThumbnailEN": "N/A",
					"NameAR": "منتجات مختارة - شبكة منتجات",
					"DescAR": "",
					"ImageAR": "N/A",
					"ThumbnailAR": "N/A",
					"Fields": [
						{
							"CodeName": "sectiontitle",
							"Type": "text",
							"LookUpKey": "",
							"IsMultiLang": "1",
							"NameEN": "Section Title",
							"DescEN": "",
							"NameAR": "عنوان القسم",
							"DescAR": "",
							"ValueEN": "Arrival Products",
							"ValueAR": "المنتجات الأحدث"
						},
						{
							"CodeName": "displaysectiontitle",
							"Type": "checkbox",
							"LookUpKey": "",
							"IsMultiLang": "0",
							"NameEN": "Display Section Title",
							"DescEN": "",
							"NameAR": "عرض عنوان القسم",
							"DescAR": "",
							"ValueEN": "1",
							"ValueAR": "1"
						},
						{
							"CodeName": "products",
							"Type": "tags-product",
							"LookUpKey": "",
							"IsMultiLang": "0",
							"NameEN": "Products",
							"DescEN": "",
							"NameAR": "المنتجات",
							"DescAR": "",
							"ValueEN": "0,0,0,0,0,0,0,0,0,0,0,0,0,0,0,0,0,0,0,0",
							"ValueAR": "0,0,0,0,0,0,0,0,0,0,0,0,0,0,0,0,0,0,0,0"
						},
						{
							"CodeName": "rows",
							"Type": "sselect-lookup",
							"LookUpKey": "base-pbox-rows",
							"IsMultiLang": "0",
							"NameEN": "Number of Rows",
							"DescEN": "",
							"NameAR": "عدد الصفوف",
							"DescAR": "",
							"ValueEN": "2",
							"ValueAR": "2"
						}
					]
				},
			{
				"CodeName": "featuredCat",
				"Name": "Products from Featured Category",
				"Type": "live",
				"State": "enabled",
				"IsCollection": 0,
				"NameEN": "Selected Categories",
				"DescEN": "",
				"ImageEN": "N/A",
				"ThumbnailEN": "N/A",
				"NameAR": "الأقسام المختارة",
				"DescAR": "",
				"ImageAR": "N/A",
				"ThumbnailAR": "N/A",
				"Fields": [
					{
						"CodeName": "sectiontitle",
						"Type": "text",
						"LookUpKey": "",
						"IsMultiLang": "1",
						"NameEN": "Section Title",
						"DescEN": "",
						"NameAR": "عنوان القسم",
						"DescAR": "",
						"ValueEN": "Featured Categories",
						"ValueAR": "أقسام مميزة"
					},
					{
						"CodeName": "displaysectiontitle",
						"Type": "checkbox",
						"LookUpKey": "",
						"IsMultiLang": "0",
						"NameEN": "Display Section Title",
						"DescEN": "",
						"NameAR": "عرض عنوان القسم",
						"DescAR": "",
						"ValueEN": "1",
						"ValueAR": "1"
					},
					{
						"CodeName": "categories",
						"Type": "tags-category",
						"LookUpKey": "",
						"IsMultiLang": "0",
						"NameEN": "Categories",
						"DescEN": "",
						"NameAR": "الأقسام",
						"DescAR": "",
						"ValueEN": "0,0,0,0",
						"ValueAR": "0,0,0,0"
					}
				]
			},

			{
				"CodeName": "bannercollection",
				"Name": "Banner 1",
				"Type": "live",
				"State": "enabled",
				"IsCollection": 1,
				"CollectionNameEN": "Banners",
				"CollectionNameAR": "الصور الدعائية",
				"CollectionItemNameEN": "Banner",
				"CollectionItemNameAR": "صورة دعائية",
				"CollectionButtonNameEN": "Add New Banner",
				"CollectionButtonNameAR": "اضف صورة دعائية جديدة",
				"NameEN": "Banners",
				"DescEN": "",
				"ImageEN": "N/A",
				"ThumbnailEN": "N/A",
				"NameAR": "صور دعائية",
				"DescAR": "",
				"ImageAR": "N/A",
				"ThumbnailAR": "N/A",
				"Collections": [
					{
						"Name": "My Banner",
						"Thumbnail": "N/A",
						"IsDefault": "1",
						"Fields": [
							{
								"CodeName": "bannerimage",
								"Type": "image",
								"LookUpKey": "",
								"IsMultiLang": "1",
								"NameEN": "Banner Image",
								"DescEN": "",
								"NameAR": "الصورة الدعائية",
								"DescAR": "",
								"ValueEN": "data/largance/banner.jpg",
								"ValueAR": "data/largance/banner.jpg"
							},
							{
								"CodeName": "bannerlink",
								"Type": "link",
								"LookUpKey": "",
								"IsMultiLang": "1",
								"NameEN": "Banner Link",
								"DescEN": "",
								"NameAR": "رابط الصورة الدعائية",
								"DescAR": "",
								"ValueEN": "#",
								"ValueAR": "#"
							},
							{
								"CodeName": "bannerwidth",
								"Type": "sselect-lookup",
								"LookUpKey": "base-banner-width",
								"IsMultiLang": "1",
								"NameEN": "Banner Width",
								"DescEN": "",
								"NameAR": "عرض الصورة الدعائية",
								"DescAR": "",
								"ValueEN": "1/2",
								"ValueAR": "1/2"
							}
						]
					},
					{
						"Name": "My Banner 1",
						"Thumbnail": "N/A",
						"IsDefault": "0",
						"Fields": [
							{
								"CodeName": "bannerimage",
								"Type": "image",
								"LookUpKey": "",
								"IsMultiLang": "1",
								"NameEN": "Banner Image",
								"DescEN": "",
								"NameAR": "الصورة الدعائية",
								"DescAR": "",
								"ValueEN": "data/largance/banner.jpg",
								"ValueAR": "data/largance/banner.jpg"
							},
							{
								"CodeName": "bannerlink",
								"Type": "link",
								"LookUpKey": "",
								"IsMultiLang": "1",
								"NameEN": "Banner Link",
								"DescEN": "",
								"NameAR": "رابط الصورة الدعائية",
								"DescAR": "",
								"ValueEN": "#",
								"ValueAR": "#"
							},
							{
								"CodeName": "bannerwidth",
								"Type": "sselect-lookup",
								"LookUpKey": "base-banner-width",
								"IsMultiLang": "1",
								"NameEN": "Banner Width",
								"DescEN": "",
								"NameAR": "عرض الصورة الدعائية",
								"DescAR": "",
								"ValueEN": "1/2",
								"ValueAR": "1/2"
							}
						]
					},
					{
						"Name": "My Banner 2",
						"Thumbnail": "N/A",
						"IsDefault": "0",
						"Fields": [
							{
								"CodeName": "bannerimage",
								"Type": "image",
								"LookUpKey": "",
								"IsMultiLang": "1",
								"NameEN": "Banner Image",
								"DescEN": "",
								"NameAR": "الصورة الدعائية",
								"DescAR": "",
								"ValueEN": "data/largance/banner.jpg",
								"ValueAR": "data/largance/banner.jpg"
							},
							{
								"CodeName": "bannerlink",
								"Type": "link",
								"LookUpKey": "",
								"IsMultiLang": "1",
								"NameEN": "Banner Link",
								"DescEN": "",
								"NameAR": "رابط الصورة الدعائية",
								"DescAR": "",
								"ValueEN": "#",
								"ValueAR": "#"
							},
							{
								"CodeName": "bannerwidth",
								"Type": "sselect-lookup",
								"LookUpKey": "base-banner-width",
								"IsMultiLang": "1",
								"NameEN": "Banner Width",
								"DescEN": "",
								"NameAR": "عرض الصورة الدعائية",
								"DescAR": "",
								"ValueEN": "1/2",
								"ValueAR": "1/2"
							}
						]
					}
				]
			},

			{
				"CodeName": "megaBlockLatest",
				"Name": "Special Products slider",
				"Type": "live",
				"State": "enabled",
				"IsCollection": 0,
				"NameEN": "Latest Products - Promotion Block",
				"DescEN": "",
				"ImageEN": "N/A",
				"ThumbnailEN": "N/A",
				"NameAR": "المنتجات الأحدث - المربع الدعائي",
				"DescAR": "",
				"ImageAR": "N/A",
				"ThumbnailAR": "N/A",
				"Fields": [
					{
						"CodeName": "boxcolor",
						"Type": "sselect-lookup",
						"LookUpKey": "block-color",
						"IsMultiLang": "1",
						"NameEN": "Section Color",
						"DescEN": "",
						"NameAR": "لون القسم",
						"DescAR": "",
						"ValueEN": "blue-block",
						"ValueAR": "blue-block"
					},
					{
						"CodeName": "sectiontitle",
						"Type": "text",
						"LookUpKey": "",
						"IsMultiLang": "1",
						"NameEN": "Section Title",
						"DescEN": "",
						"NameAR": "عنوان القسم",
						"DescAR": "",
						"ValueEN": "Latest Products",
						"ValueAR": "وصل حديثاً"
					},
					{
						"CodeName": "displaysectiontitle",
						"Type": "checkbox",
						"LookUpKey": "",
						"IsMultiLang": "0",
						"NameEN": "Display Section Title",
						"DescEN": "",
						"NameAR": "عرض عنوان القسم",
						"DescAR": "",
						"ValueEN": "1",
						"ValueAR": "1"
					},
					{
						"CodeName": "bottomdisplayAds",
						"Type": "checkbox",
						"LookUpKey": "",
						"IsMultiLang": "0",
						"NameEN": "Display Banner",
						"DescEN": "",
						"NameAR": "عرض الإعلان",
						"DescAR": "",
						"ValueEN": "1",
						"ValueAR": "1"
					},
					{
						"CodeName": "bottomadsLink",
						"Type": "link",
						"LookUpKey": "",
						"IsMultiLang": "1",
						"NameEN": "Banner Link",
						"DescEN": "",
						"NameAR": "رابط الإعلان",
						"DescAR": "",
						"ValueEN": "#",
						"ValueAR": "#"
					},
					{
						"CodeName": "bottombuttontext",
						"Type": "text",
						"LookUpKey": "",
						"IsMultiLang": "1",
						"NameEN": "Link Text",
						"DescEN": "",
						"NameAR": "اسم الرابط",
						"DescAR": "",
						"ValueEN": "shop now",
						"ValueAR": "تسوق الان"
					},
					{
						"CodeName": "bottomadsImage",
						"Type": "image",
						"LookUpKey": "",
						"IsMultiLang": "1",
						"NameEN": "Banner Image",
						"DescEN": "",
						"NameAR": "صورة الإعلان",
						"DescAR": "",
						"ValueEN": "data/largance/banner-electronics.jpg",
						"ValueAR": "data/largance/banner-electronics.jpg"
					},
					{
						"CodeName": "bottomtitle",
						"Type": "text",
						"LookUpKey": "",
						"IsMultiLang": "1",
						"NameEN": "Banner Main Title",
						"DescEN": "",
						"NameAR": "عنوان الإعلان الرئيسي",
						"DescAR": "",
						"ValueEN": "UPTO 23% OFF",
						"ValueAR": "خصومات هائلة!"
					},
					{
						"CodeName": "bottomsubtitle",
						"Type": "text",
						"LookUpKey": "",
						"IsMultiLang": "1",
						"NameEN": "Banner Sub Title",
						"DescEN": "",
						"NameAR": "عنوان الإعلان الفرعي",
						"DescAR": "",
						"ValueEN": "Laptop-Dell XPS",
						"ValueAR": "كمبيوتر محمول طراز سوني"
					}
				]
			},
			{
				"CodeName": "megaBlockSpecial",
				"Name": "Special Products slider",
				"Type": "live",
				"State": "enabled",
				"IsCollection": 0,
				"NameEN": "Special Products - Promotion Block",
				"DescEN": "",
				"ImageEN": "N/A",
				"ThumbnailEN": "N/A",
				"NameAR": "المنتجات ذات العروض - المربع الدعائي",
				"DescAR": "",
				"ImageAR": "N/A",
				"ThumbnailAR": "N/A",
				"Fields": [
					{
						"CodeName": "boxcolor",
						"Type": "sselect-lookup",
						"LookUpKey": "block-color",
						"IsMultiLang": "1",
						"NameEN": "Section Color",
						"DescEN": "",
						"NameAR": "لون القسم",
						"DescAR": "",
						"ValueEN": "red-block",
						"ValueAR": "red-block"
					},
					{
						"CodeName": "sectiontitle",
						"Type": "text",
						"LookUpKey": "",
						"IsMultiLang": "1",
						"NameEN": "Section Title",
						"DescEN": "",
						"NameAR": "عنوان القسم",
						"DescAR": "",
						"ValueEN": "Special Offers",
						"ValueAR": "وصل حديثاً"
					},
					{
						"CodeName": "displaysectiontitle",
						"Type": "checkbox",
						"LookUpKey": "",
						"IsMultiLang": "0",
						"NameEN": "Display Section Title",
						"DescEN": "",
						"NameAR": "عرض عنوان القسم",
						"DescAR": "",
						"ValueEN": "1",
						"ValueAR": "1"
					},
					{
						"CodeName": "bottomdisplayAds",
						"Type": "checkbox",
						"LookUpKey": "",
						"IsMultiLang": "0",
						"NameEN": "Display Banner",
						"DescEN": "",
						"NameAR": "عرض الإعلان",
						"DescAR": "",
						"ValueEN": "1",
						"ValueAR": "1"
					},
					{
						"CodeName": "bottomadsLink",
						"Type": "link",
						"LookUpKey": "",
						"IsMultiLang": "1",
						"NameEN": "Banner Link",
						"DescEN": "",
						"NameAR": "رابط الإعلان",
						"DescAR": "",
						"ValueEN": "#",
						"ValueAR": "#"
					},
					{
						"CodeName": "bottombuttontext",
						"Type": "text",
						"LookUpKey": "",
						"IsMultiLang": "1",
						"NameEN": "Link Text",
						"DescEN": "",
						"NameAR": "اسم الرابط",
						"DescAR": "",
						"ValueEN": "shop now",
						"ValueAR": "تسوق الان"
					},
					{
						"CodeName": "bottomadsImage",
						"Type": "image",
						"LookUpKey": "",
						"IsMultiLang": "1",
						"NameEN": "Banner Image",
						"DescEN": "",
						"NameAR": "صورة الإعلان",
						"DescAR": "",
						"ValueEN": "data/largance/banner-electronics.jpg",
						"ValueAR": "data/largance/banner-electronics.jpg"
					},
					{
						"CodeName": "bottomtitle",
						"Type": "text",
						"LookUpKey": "",
						"IsMultiLang": "1",
						"NameEN": "Banner Main Title",
						"DescEN": "",
						"NameAR": "عنوان الإعلان الرئيسي",
						"DescAR": "",
						"ValueEN": "UPTO 23% OFF",
						"ValueAR": "خصومات هائلة!"
					},
					{
						"CodeName": "bottomsubtitle",
						"Type": "text",
						"LookUpKey": "",
						"IsMultiLang": "1",
						"NameEN": "Banner Sub Title",
						"DescEN": "",
						"NameAR": "عنوان الإعلان الفرعي",
						"DescAR": "",
						"ValueEN": "Laptop-Dell XPS",
						"ValueAR": "كمبيوتر محمول طراز سوني"
					}
				]
			},
			{
				"CodeName": "megaBlockBestSeller",
				"Name": "Special Products slider",
				"Type": "live",
				"State": "enabled",
				"IsCollection": 0,
				"NameEN": "Bestseller Products - Promotion Block",
				"DescEN": "",
				"ImageEN": "N/A",
				"ThumbnailEN": "N/A",
				"NameAR": "المنتجات الأكثر مبيعاً - المربع الدعائي",
				"DescAR": "",
				"ImageAR": "N/A",
				"ThumbnailAR": "N/A",
				"Fields": [
					{
						"CodeName": "boxcolor",
						"Type": "sselect-lookup",
						"LookUpKey": "block-color",
						"IsMultiLang": "1",
						"NameEN": "Section Color",
						"DescEN": "",
						"NameAR": "لون القسم",
						"DescAR": "",
						"ValueEN": "orange-block",
						"ValueAR": "orange-block"
					},
					{
						"CodeName": "sectiontitle",
						"Type": "text",
						"LookUpKey": "",
						"IsMultiLang": "1",
						"NameEN": "Section Title",
						"DescEN": "",
						"NameAR": "عنوان القسم",
						"DescAR": "",
						"ValueEN": "Best Selling Products",
						"ValueAR": "وصل حديثاً"
					},
					{
						"CodeName": "displaysectiontitle",
						"Type": "checkbox",
						"LookUpKey": "",
						"IsMultiLang": "0",
						"NameEN": "Display Section Title",
						"DescEN": "",
						"NameAR": "عرض عنوان القسم",
						"DescAR": "",
						"ValueEN": "1",
						"ValueAR": "1"
					},
					{
						"CodeName": "bottomdisplayAds",
						"Type": "checkbox",
						"LookUpKey": "",
						"IsMultiLang": "0",
						"NameEN": "Display Banner",
						"DescEN": "",
						"NameAR": "عرض الإعلان",
						"DescAR": "",
						"ValueEN": "1",
						"ValueAR": "1"
					},
					{
						"CodeName": "bottomadsLink",
						"Type": "link",
						"LookUpKey": "",
						"IsMultiLang": "1",
						"NameEN": "Banner Link",
						"DescEN": "",
						"NameAR": "رابط الإعلان",
						"DescAR": "",
						"ValueEN": "#",
						"ValueAR": "#"
					},
					{
						"CodeName": "bottombuttontext",
						"Type": "text",
						"LookUpKey": "",
						"IsMultiLang": "1",
						"NameEN": "Link Text",
						"DescEN": "",
						"NameAR": "اسم الرابط",
						"DescAR": "",
						"ValueEN": "shop now",
						"ValueAR": "تسوق الان"
					},
					{
						"CodeName": "bottomadsImage",
						"Type": "image",
						"LookUpKey": "",
						"IsMultiLang": "1",
						"NameEN": "Banner Image",
						"DescEN": "",
						"NameAR": "صورة الإعلان",
						"DescAR": "",
						"ValueEN": "data/largance/banner-electronics.jpg",
						"ValueAR": "data/largance/banner-electronics.jpg"
					},
					{
						"CodeName": "bottomtitle",
						"Type": "text",
						"LookUpKey": "",
						"IsMultiLang": "1",
						"NameEN": "Banner Main Title",
						"DescEN": "",
						"NameAR": "عنوان الإعلان الرئيسي",
						"DescAR": "",
						"ValueEN": "UPTO 23% OFF",
						"ValueAR": "خصومات هائلة!"
					},
					{
						"CodeName": "bottomsubtitle",
						"Type": "text",
						"LookUpKey": "",
						"IsMultiLang": "1",
						"NameEN": "Banner Sub Title",
						"DescEN": "",
						"NameAR": "عنوان الإعلان الفرعي",
						"DescAR": "",
						"ValueEN": "Laptop-Dell XPS",
						"ValueAR": "كمبيوتر محمول طراز سوني"
					}
				]
			},
			{
				"CodeName": "megaBlockCategory",
				"Name": "Category Products slider",
				"Type": "live",
				"State": "enabled",
				"IsCollection": 0,
				"NameEN": "Selected Category Products - Promotion Block",
				"DescEN": "",
				"ImageEN": "N/A",
				"ThumbnailEN": "N/A",
				"NameAR": "منتجات قسم مختار - المربع الدعائي",
				"DescAR": "",
				"ImageAR": "N/A",
				"ThumbnailAR": "N/A",
				"Fields": [
					{
						"CodeName": "boxcolor",
						"Type": "sselect-lookup",
						"LookUpKey": "block-color",
						"IsMultiLang": "1",
						"NameEN": "Section Color",
						"DescEN": "",
						"NameAR": "لون القسم",
						"DescAR": "",
						"ValueEN": "green-block",
						"ValueAR": "green-block"
					},
					{
						"CodeName": "sectiontitle",
						"Type": "text",
						"LookUpKey": "",
						"IsMultiLang": "1",
						"NameEN": "Section Title",
						"DescEN": "",
						"NameAR": "عنوان القسم",
						"DescAR": "",
						"ValueEN": "Phone Accessories",
						"ValueAR": "كماليات هواتف"
					},
					{
						"CodeName": "displaysectiontitle",
						"Type": "checkbox",
						"LookUpKey": "",
						"IsMultiLang": "0",
						"NameEN": "Display Section Title",
						"DescEN": "",
						"NameAR": "عرض عنوان القسم",
						"DescAR": "",
						"ValueEN": "1",
						"ValueAR": "1"
					},
					{
						"CodeName": "bottomdisplayAds",
						"Type": "checkbox",
						"LookUpKey": "",
						"IsMultiLang": "0",
						"NameEN": "Display Banner",
						"DescEN": "",
						"NameAR": "عرض الإعلان",
						"DescAR": "",
						"ValueEN": "1",
						"ValueAR": "1"
					},
					{
						"CodeName": "bottomadsLink",
						"Type": "link",
						"LookUpKey": "",
						"IsMultiLang": "1",
						"NameEN": "Banner Link",
						"DescEN": "",
						"NameAR": "رابط الإعلان",
						"DescAR": "",
						"ValueEN": "#",
						"ValueAR": "#"
					},
					{
						"CodeName": "bottombuttontext",
						"Type": "text",
						"LookUpKey": "",
						"IsMultiLang": "1",
						"NameEN": "Link Text",
						"DescEN": "",
						"NameAR": "اسم الرابط",
						"DescAR": "",
						"ValueEN": "shop now",
						"ValueAR": "تسوق الان"
					},
					{
						"CodeName": "bottomadsImage",
						"Type": "image",
						"LookUpKey": "",
						"IsMultiLang": "1",
						"NameEN": "Banner Image",
						"DescEN": "",
						"NameAR": "صورة الإعلان",
						"DescAR": "",
						"ValueEN": "data/largance/banner-electronics.jpg",
						"ValueAR": "data/largance/banner-electronics.jpg"
					},
					{
						"CodeName": "bottomtitle",
						"Type": "text",
						"LookUpKey": "",
						"IsMultiLang": "1",
						"NameEN": "Banner Main Title",
						"DescEN": "",
						"NameAR": "عنوان الإعلان الرئيسي",
						"DescAR": "",
						"ValueEN": "UPTO 23% OFF",
						"ValueAR": "خصومات هائلة!"
					},
					{
						"CodeName": "bottomsubtitle",
						"Type": "text",
						"LookUpKey": "",
						"IsMultiLang": "1",
						"NameEN": "Banner Sub Title",
						"DescEN": "",
						"NameAR": "عنوان الإعلان الفرعي",
						"DescAR": "",
						"ValueEN": "Laptop-Dell XPS",
						"ValueAR": "كمبيوتر محمول طراز سوني"
					},
					{
						"CodeName": "categories",
						"Type": "tags-category",
						"LookUpKey": "",
						"IsMultiLang": "0",
						"NameEN": "Categories",
						"DescEN": "",
						"NameAR": "الأقسام",
						"DescAR": "",
						"ValueEN": "0",
						"ValueAR": "0"
					}
				]
			},




				{
					"CodeName": "storehero",
					"Name": "My Slides",
					"Type": "available",
					"State": "enabled",
					"IsCollection": 1,
					"CollectionNameEN": "Slide Show",
					"CollectionNameAR": "عرض الشرائح",
					"CollectionItemNameEN": "Slide",
					"CollectionItemNameAR": "شريحة",
					"CollectionButtonNameEN": "Add New Slide",
					"CollectionButtonNameAR": "اضف شريحة جديدة",
					"NameEN": "Slide Show",
					"DescEN": "",
					"ImageEN": "N/A",
					"ThumbnailEN": "N/A",
					"NameAR": "عرض الشرائح",
					"DescAR": "",
					"ImageAR": "N/A",
					"ThumbnailAR": "N/A",
					"Collections":
					[
						{
							"Name": "My Slide",
							"Thumbnail": "N/A",
							"IsDefault": "1",
							"Fields": [
								{
									"CodeName": "mainheading",
									"Type": "text",
									"LookUpKey": "",
									"IsMultiLang": "1",
									"NameEN": "Main Title",
									"DescEN": "",
									"NameAR": "العنوان الرئيسي",
									"DescAR": "",
									"ValueEN": "The Victoria Grand Cuisine",
									"ValueAR": "مطبخ فيكتوريا الكبرى"
								},
								{
									"CodeName": "subheading",
									"Type": "textarea",
									"LookUpKey": "",
									"IsMultiLang": "1",
									"NameEN": "Sub Title",
									"DescEN": "",
									"NameAR": "العنوان الفرعي",
									"DescAR": "",
									"ValueEN": "Buy Trendy Design Furniture",
									"ValueAR": "إشتري أثاث بتصميم عصري"
								},
								{
									"CodeName": "slidelink",
									"Type": "link",
									"LookUpKey": "",
									"IsMultiLang": "1",
									"NameEN": "Slide Link",
									"DescEN": "",
									"NameAR": "رابط الشريحة",
									"DescAR": "",
									"ValueEN": "#",
									"ValueAR": "#"
								},
								{
									"CodeName": "slideimage",
									"Type": "image",
									"LookUpKey": "",
									"IsMultiLang": "1",
									"NameEN": "Slide Image",
									"DescEN": "",
									"NameAR": "صورة الشريحة",
									"DescAR": "",
									"ValueEN": "data/largance/slide13a.jpg",
									"ValueAR": "data/largance/slide13a.jpg"
								}
							]
						},
						{
							"Name": "My First Slide",
							"Thumbnail": "N/A",
							"IsDefault": "0",
							"Fields": [
								{
									"CodeName": "mainheading",
									"Type": "text",
									"LookUpKey": "",
									"IsMultiLang": "1",
									"NameEN": "Main Title",
									"DescEN": "",
									"NameAR": "العنوان الرئيسي",
									"DescAR": "",
									"ValueEN": "The Victoria Grand Cuisine",
									"ValueAR": "مطبخ فيكتوريا الكبرى"
								},
								{
									"CodeName": "subheading",
									"Type": "textarea",
									"LookUpKey": "",
									"IsMultiLang": "1",
									"NameEN": "Sub Title",
									"DescEN": "",
									"NameAR": "العنوان الفرعي",
									"DescAR": "",
									"ValueEN": "Buy Trendy Design Furniture",
									"ValueAR": "إشتري أثاث بتصميم عصري"
								},
								{
									"CodeName": "slidelink",
									"Type": "link",
									"LookUpKey": "",
									"IsMultiLang": "1",
									"NameEN": "Slide Link",
									"DescEN": "",
									"NameAR": "رابط الشريحة",
									"DescAR": "",
									"ValueEN": "#",
									"ValueAR": "#"
								},
								{
									"CodeName": "slideimage",
									"Type": "image",
									"LookUpKey": "",
									"IsMultiLang": "1",
									"NameEN": "Slide Image",
									"DescEN": "",
									"NameAR": "صورة الشريحة",
									"DescAR": "",
									"ValueEN": "data/largance/slide13a.jpg",
									"ValueAR": "data/largance/slide13a.jpg"
								}
							]
						},
						{
							"Name": "My Second Slide",
							"Thumbnail": "N/A",
							"IsDefault": "0",
							"Fields": [
								{
									"CodeName": "mainheading",
									"Type": "text",
									"LookUpKey": "",
									"IsMultiLang": "1",
									"NameEN": "Main Title",
									"DescEN": "",
									"NameAR": "العنوان الرئيسي",
									"DescAR": "",
									"ValueEN": "The Victoria Ghost Chair",
									"ValueAR": "كرسي فيكتوريا الشبح"
								},
								{
									"CodeName": "subheading",
									"Type": "textarea",
									"LookUpKey": "",
									"IsMultiLang": "1",
									"NameEN": "Sub Title",
									"DescEN": "",
									"NameAR": "العنوان الفرعي",
									"DescAR": "",
									"ValueEN": "Buy Trendy Design Furniture",
									"ValueAR": "إشتري أثاث بتصميم عصري"
								},
								{
									"CodeName": "slidelink",
									"Type": "link",
									"LookUpKey": "",
									"IsMultiLang": "1",
									"NameEN": "Slide Link",
									"DescEN": "",
									"NameAR": "رابط الشريحة",
									"DescAR": "",
									"ValueEN": "#",
									"ValueAR": "#"
								},
								{
									"CodeName": "slideimage",
									"Type": "image",
									"LookUpKey": "",
									"IsMultiLang": "1",
									"NameEN": "Slide Image",
									"DescEN": "",
									"NameAR": "صورة الشريحة",
									"DescAR": "",
									"ValueEN": "data/largance/slide13b.jpg",
									"ValueAR": "data/largance/slide13b.jpg"
								}
							]
						},
						{
							"Name": "My Third Slide",
							"Thumbnail": "N/A",
							"IsDefault": "0",
							"Fields": [
								{
									"CodeName": "mainheading",
									"Type": "text",
									"LookUpKey": "",
									"IsMultiLang": "1",
									"NameEN": "Main Title",
									"DescEN": "",
									"NameAR": "العنوان الرئيسي",
									"DescAR": "",
									"ValueEN": "Feel The Beats",
									"ValueAR": "إشعر بالطبول"
								},
								{
									"CodeName": "subheading",
									"Type": "textarea",
									"LookUpKey": "",
									"IsMultiLang": "1",
									"NameEN": "Sub Title",
									"DescEN": "",
									"NameAR": "العنوان الفرعي",
									"DescAR": "",
									"ValueEN": "CES 2016 Honours<br>For Headphones Innovation",
									"ValueAR": "جائزة 2016<br>لإبتكارات السماعات"
								},
								{
									"CodeName": "slidelink",
									"Type": "link",
									"LookUpKey": "",
									"IsMultiLang": "1",
									"NameEN": "Slide Link",
									"DescEN": "",
									"NameAR": "رابط الشريحة",
									"DescAR": "",
									"ValueEN": "#",
									"ValueAR": "#"
								},
								{
									"CodeName": "slideimage",
									"Type": "image",
									"LookUpKey": "",
									"IsMultiLang": "1",
									"NameEN": "Slide Image",
									"DescEN": "",
									"NameAR": "صورة الشريحة",
									"DescAR": "",
									"ValueEN": "data/largance/slide13c.jpg",
									"ValueAR": "data/largance/slide13c.jpg"
								}
							]
						}
					]
				},
				{
					"CodeName": "iconslider",
					"Name": "icons slider",
					"Type": "available",
					"State": "enabled",
					"IsCollection": 1,
					"CollectionNameEN": "Brand Logos",
					"CollectionNameAR": "الشعارات",
					"CollectionItemNameEN": "Brand",
					"CollectionItemNameAR": "علامة تجارية",
					"CollectionButtonNameEN": "Add New Brand",
					"CollectionButtonNameAR": "اضف علامة تجارية جديدة",
					"NameEN": "Brand Logos",
					"DescEN": "",
					"ImageEN": "N/A",
					"ThumbnailEN": "N/A",
					"NameAR": "شعارات الماركت",
					"DescAR": "",
					"ImageAR": "N/A",
					"ThumbnailAR": "N/A",
					"Fields":
					[
						{
							"CodeName": "sectiontitle",
							"Type": "text",
							"LookUpKey": "",
							"IsMultiLang": "1",
							"NameEN": "Section Title",
							"DescEN": "",
							"NameAR": "عنوان القسم",
							"DescAR": "",
							"ValueEN": "Featured Brands",
							"ValueAR": "افضل الماركات"
						},
						{
							"CodeName": "displaysectiontitle",
							"Type": "checkbox",
							"LookUpKey": "",
							"IsMultiLang": "0",
							"NameEN": "Display Section Title",
							"DescEN": "",
							"NameAR": "عرض عنوان القسم",
							"DescAR": "",
							"ValueEN": "1",
							"ValueAR": "1"
						}
					],
					"Collections":
					[
						{
							"Name": "My Slide",
							"Thumbnail": "N/A",
							"IsDefault": "1",
							"Fields": [
								{
									"CodeName": "imagelink",
									"Type": "link",
									"LookUpKey": "",
									"IsMultiLang": "1",
									"NameEN": "Brand Link",
									"DescEN": "",
									"NameAR": "رابط العلامة التجارية",
									"DescAR": "",
									"ValueEN": "#",
									"ValueAR": "#"
								},
								{
									"CodeName": "slideimage",
									"Type": "image",
									"LookUpKey": "",
									"IsMultiLang": "1",
									"NameEN": "Brand Image",
									"DescEN": "",
									"NameAR": "صورة العلامة التجارية",
									"DescAR": "",
									"ValueEN": "data/largance/part1.png",
									"ValueAR": "data/largance/part1.png"
								}
							]
						},
						{
							"Name": "My Slide 1",
							"Thumbnail": "N/A",
							"IsDefault": "0",
							"Fields": [
								{
									"CodeName": "imagelink",
									"Type": "link",
									"LookUpKey": "",
									"IsMultiLang": "1",
									"NameEN": "Brand Link",
									"DescEN": "",
									"NameAR": "رابط العلامة التجارية",
									"DescAR": "",
									"ValueEN": "#",
									"ValueAR": "#"
								},
								{
									"CodeName": "slideimage",
									"Type": "image",
									"LookUpKey": "",
									"IsMultiLang": "1",
									"NameEN": "Brand Image",
									"DescEN": "",
									"NameAR": "صورة العلامة التجارية",
									"DescAR": "",
									"ValueEN": "data/largance/part1.png",
									"ValueAR": "data/largance/part1.png"
								}
							]
						},
						{
							"Name": "My Slide 2",
							"Thumbnail": "N/A",
							"IsDefault": "0",
							"Fields": [
								{
									"CodeName": "imagelink",
									"Type": "link",
									"LookUpKey": "",
									"IsMultiLang": "1",
									"NameEN": "Brand Link",
									"DescEN": "",
									"NameAR": "رابط العلامة التجارية",
									"DescAR": "",
									"ValueEN": "#",
									"ValueAR": "#"
								},
								{
									"CodeName": "slideimage",
									"Type": "image",
									"LookUpKey": "",
									"IsMultiLang": "1",
									"NameEN": "Brand Image",
									"DescEN": "",
									"NameAR": "صورة العلامة التجارية",
									"DescAR": "",
									"ValueEN": "data/largance/part2.png",
									"ValueAR": "data/largance/part2.png"
								}
							]
						},
						{
							"Name": "My Slide 3",
							"Thumbnail": "N/A",
							"IsDefault": "0",
							"Fields": [
								{
									"CodeName": "imagelink",
									"Type": "link",
									"LookUpKey": "",
									"IsMultiLang": "1",
									"NameEN": "Brand Link",
									"DescEN": "",
									"NameAR": "رابط العلامة التجارية",
									"DescAR": "",
									"ValueEN": "#",
									"ValueAR": "#"
								},
								{
									"CodeName": "slideimage",
									"Type": "image",
									"LookUpKey": "",
									"IsMultiLang": "1",
									"NameEN": "Brand Image",
									"DescEN": "",
									"NameAR": "صورة العلامة التجارية",
									"DescAR": "",
									"ValueEN": "data/largance/part3.png",
									"ValueAR": "data/largance/part3.png"
								}
							]
						},
						{
							"Name": "My Slide 4",
							"Thumbnail": "N/A",
							"IsDefault": "0",
							"Fields": [
								{
									"CodeName": "imagelink",
									"Type": "link",
									"LookUpKey": "",
									"IsMultiLang": "1",
									"NameEN": "Brand Link",
									"DescEN": "",
									"NameAR": "رابط العلامة التجارية",
									"DescAR": "",
									"ValueEN": "#",
									"ValueAR": "#"
								},
								{
									"CodeName": "slideimage",
									"Type": "image",
									"LookUpKey": "",
									"IsMultiLang": "1",
									"NameEN": "Brand Image",
									"DescEN": "",
									"NameAR": "صورة العلامة التجارية",
									"DescAR": "",
									"ValueEN": "data/largance/part4.png",
									"ValueAR": "data/largance/part4.png"
								}
							]
						},
						{
							"Name": "My Slide 5",
							"Thumbnail": "N/A",
							"IsDefault": "0",
							"Fields": [
								{
									"CodeName": "imagelink",
									"Type": "link",
									"LookUpKey": "",
									"IsMultiLang": "1",
									"NameEN": "Brand Link",
									"DescEN": "",
									"NameAR": "رابط العلامة التجارية",
									"DescAR": "",
									"ValueEN": "#",
									"ValueAR": "#"
								},
								{
									"CodeName": "slideimage",
									"Type": "image",
									"LookUpKey": "",
									"IsMultiLang": "1",
									"NameEN": "Brand Image",
									"DescEN": "",
									"NameAR": "صورة العلامة التجارية",
									"DescAR": "",
									"ValueEN": "data/largance/part5.png",
									"ValueAR": "data/largance/part5.png"
								}
							]
						},
						{
							"Name": "My Slide 6",
							"Thumbnail": "N/A",
							"IsDefault": "0",
							"Fields": [
								{
									"CodeName": "imagelink",
									"Type": "link",
									"LookUpKey": "",
									"IsMultiLang": "1",
									"NameEN": "Brand Link",
									"DescEN": "",
									"NameAR": "رابط العلامة التجارية",
									"DescAR": "",
									"ValueEN": "#",
									"ValueAR": "#"
								},
								{
									"CodeName": "slideimage",
									"Type": "image",
									"LookUpKey": "",
									"IsMultiLang": "1",
									"NameEN": "Brand Image",
									"DescEN": "",
									"NameAR": "صورة العلامة التجارية",
									"DescAR": "",
									"ValueEN": "data/largance/part6.png",
									"ValueAR": "data/largance/part6.png"
								}
							]
						}
					]
				},

				{
					"CodeName": "productSliderSpecial",
					"Name": "Special Products slider",
					"Type": "available",
					"State": "enabled",
					"IsCollection": 0,
					"NameEN": "Special Products",
					"DescEN": "",
					"ImageEN": "N/A",
					"ThumbnailEN": "N/A",
					"NameAR": "المنتجات ذات العروض",
					"DescAR": "",
					"ImageAR": "N/A",
					"ThumbnailAR": "N/A",
					"Fields": [
						{
							"CodeName": "sectiontitle",
							"Type": "text",
							"LookUpKey": "",
							"IsMultiLang": "1",
							"NameEN": "Section Title",
							"DescEN": "",
							"NameAR": "عنوان القسم",
							"DescAR": "",
							"ValueEN": "Special Products",
							"ValueAR": "العروض الخاصة"
						},
						{
							"CodeName": "displaysectiontitle",
							"Type": "checkbox",
							"LookUpKey": "",
							"IsMultiLang": "0",
							"NameEN": "Display Section Title",
							"DescEN": "",
							"NameAR": "عرض عنوان القسم",
							"DescAR": "",
							"ValueEN": "1",
							"ValueAR": "1"
						}
					]
				},
				{
					"CodeName": "productSliderLatest",
					"Name": "Latest Products slider",
					"Type": "available",
					"State": "enabled",
					"IsCollection": 0,
					"NameEN": "Latest Products",
					"DescEN": "",
					"ImageEN": "N/A",
					"ThumbnailEN": "N/A",
					"NameAR": "المنتجات الأحدث",
					"DescAR": "",
					"ImageAR": "N/A",
					"ThumbnailAR": "N/A",
					"Fields": [
						{
							"CodeName": "sectiontitle",
							"Type": "text",
							"LookUpKey": "",
							"IsMultiLang": "1",
							"NameEN": "Section Title",
							"DescEN": "",
							"NameAR": "عنوان القسم",
							"DescAR": "",
							"ValueEN": "Latest Products",
							"ValueAR": "وصل حديثا"
						},
						{
							"CodeName": "displaysectiontitle",
							"Type": "checkbox",
							"LookUpKey": "",
							"IsMultiLang": "0",
							"NameEN": "Display Section Title",
							"DescEN": "",
							"NameAR": "عرض عنوان القسم",
							"DescAR": "",
							"ValueEN": "1",
							"ValueAR": "1"
						}
					]
				},

				{
					"CodeName": "productSliderBestSeller",
					"Name": "Latest Products slider",
					"Type": "available",
					"State": "enabled",
					"IsCollection": 0,
					"NameEN": "Bestseller Products",
					"DescEN": "",
					"ImageEN": "N/A",
					"ThumbnailEN": "N/A",
					"NameAR": "المنتجات الأكثر مبيعاً",
					"DescAR": "",
					"ImageAR": "N/A",
					"ThumbnailAR": "N/A",
					"Fields": [
						{
							"CodeName": "sectiontitle",
							"Type": "text",
							"LookUpKey": "",
							"IsMultiLang": "1",
							"NameEN": "Section Title",
							"DescEN": "",
							"NameAR": "عنوان القسم",
							"DescAR": "",
							"ValueEN": "Best Selling Products",
							"ValueAR": "الاكثر مبيعاً"
						},
						{
							"CodeName": "displaysectiontitle",
							"Type": "checkbox",
							"LookUpKey": "",
							"IsMultiLang": "0",
							"NameEN": "Display Section Title",
							"DescEN": "",
							"NameAR": "عرض عنوان القسم",
							"DescAR": "",
							"ValueEN": "1",
							"ValueAR": "1"
						}
					]
				},
				{
					"CodeName": "productSliderFeatured",
					"Name": "featured Products slider",
					"Type": "available",
					"State": "enabled",
					"IsCollection": 0,
					"NameEN": "Selected Products",
					"DescEN": "",
					"ImageEN": "N/A",
					"ThumbnailEN": "N/A",
					"NameAR": "منتجات مختارة",
					"DescAR": "",
					"ImageAR": "N/A",
					"ThumbnailAR": "N/A",
					"Fields": [
						{
							"CodeName": "sectiontitle",
							"Type": "text",
							"LookUpKey": "",
							"IsMultiLang": "1",
							"NameEN": "Section Title",
							"DescEN": "",
							"NameAR": "عنوان القسم",
							"DescAR": "",
							"ValueEN": "Featured Products",
							"ValueAR": "منتجات مختارة"
						},
						{
							"CodeName": "displaysectiontitle",
							"Type": "checkbox",
							"LookUpKey": "",
							"IsMultiLang": "0",
							"NameEN": "Display Section Title",
							"DescEN": "",
							"NameAR": "عرض عنوان القسم",
							"DescAR": "",
							"ValueEN": "1",
							"ValueAR": "1"
						},
						{
							"CodeName": "products",
							"Type": "tags-product",
							"LookUpKey": "",
							"IsMultiLang": "0",
							"NameEN": "Products",
							"DescEN": "",
							"NameAR": "المنتجات",
							"DescAR": "",
							"ValueEN": "0,0,0,0,0,0,0,0,0",
							"ValueAR": "0,0,0,0,0,0,0,0,0"
						}
					]
				},
				{
					"CodeName": "productSliderCategory",
					"Name": "Latest Products slider",
					"Type": "available",
					"State": "enabled",
					"IsCollection": 0,
					"NameEN": "Products From Category",
					"DescEN": "",
					"ImageEN": "N/A",
					"ThumbnailEN": "N/A",
					"NameAR": "منتجات من قسم",
					"DescAR": "",
					"ImageAR": "N/A",
					"ThumbnailAR": "N/A",
					"Fields": [
						{
							"CodeName": "sectiontitle",
							"Type": "text",
							"LookUpKey": "",
							"IsMultiLang": "1",
							"NameEN": "Section Title",
							"DescEN": "",
							"NameAR": "عنوان القسم",
							"DescAR": "",
							"ValueEN": "Phone Accessories",
							"ValueAR": "مستلزمات هواتف"
						},
						{
							"CodeName": "displaysectiontitle",
							"Type": "checkbox",
							"LookUpKey": "",
							"IsMultiLang": "0",
							"NameEN": "Display Section Title",
							"DescEN": "",
							"NameAR": "عرض عنوان القسم",
							"DescAR": "",
							"ValueEN": "1",
							"ValueAR": "1"
						},
						{
							"CodeName": "categories",
							"Type": "tags-category",
							"LookUpKey": "",
							"IsMultiLang": "0",
							"NameEN": "Categories",
							"DescEN": "",
							"NameAR": "الأقسام",
							"DescAR": "",
							"ValueEN": "0",
							"ValueAR": "0"
						}
					]
				},

				{
					"CodeName": "banner",
					"Name": "image banner",
					"Type": "available",
					"State": "enabled",
					"IsCollection": 0,
					"NameEN": "Banner",
					"DescEN": "",
					"ImageEN": "N/A",
					"ThumbnailEN": "N/A",
					"NameAR": "إعلان",
					"DescAR": "",
					"ImageAR": "N/A",
					"ThumbnailAR": "N/A",
					"Fields": [
						{
							"CodeName": "bannerlink",
							"Type": "link",
							"LookUpKey": "",
							"IsMultiLang": "1",
							"NameEN": "Banner Link",
							"DescEN": "",
							"NameAR": "رابط الإعلان",
							"DescAR": "",
							"ValueEN": "#",
							"ValueAR": "#"
						},
						{
							"CodeName": "bannerimage",
							"Type": "image",
							"LookUpKey": "",
							"IsMultiLang": "1",
							"NameEN": "Banner Image",
							"DescEN": "",
							"NameAR": "صورة الإعلان",
							"DescAR": "",
							"ValueEN": "data/largance/banner.jpg",
							"ValueAR": "data/largance/banner.jpg"
						}
					]
				},

				{
					"CodeName": "latestproductstemplate1",
					"Name": "Product Slider ( Latest )",
					"Type": "available",
					"State": "enabled",
					"IsCollection": 0,
					"NameEN": "Latest Products - Grid",
					"DescEN": "",
					"ImageEN": "N/A",
					"ThumbnailEN": "N/A",
					"NameAR": "المنتجات الأحدث - شبكة منتجات",
					"DescAR": "",
					"ImageAR": "N/A",
					"ThumbnailAR": "N/A",
					"Fields": [
						{
							"CodeName": "sectiontitle",
							"Type": "text",
							"LookUpKey": "",
							"IsMultiLang": "1",
							"NameEN": "Section Title",
							"DescEN": "",
							"NameAR": "عنوان القسم",
							"DescAR": "",
							"ValueEN": "Arrival Products",
							"ValueAR": "المنتجات الأحدث"
						},
						{
							"CodeName": "displaysectiontitle",
							"Type": "checkbox",
							"LookUpKey": "",
							"IsMultiLang": "0",
							"NameEN": "Display Section Title",
							"DescEN": "",
							"NameAR": "عرض عنوان القسم",
							"DescAR": "",
							"ValueEN": "1",
							"ValueAR": "1"
						},
						{
							"CodeName": "rows",
							"Type": "sselect-lookup",
							"LookUpKey": "base-pbox-rows",
							"IsMultiLang": "0",
							"NameEN": "Number of Rows",
							"DescEN": "",
							"NameAR": "عدد الصفوف",
							"DescAR": "",
							"ValueEN": "2",
							"ValueAR": "2"
						}
					]
				},

				{
					"CodeName": "bestsalesproductstemplate1",
					"Name": "Products Slider ( Best selling )",
					"Type": "available",
					"State": "enabled",
					"IsCollection": 0,
					"NameEN": "Bestseller Products - Grid",
					"DescEN": "",
					"ImageEN": "N/A",
					"ThumbnailEN": "N/A",
					"NameAR": "المنتجات الأكثر مبيعاً - شبكة منتجات",
					"DescAR": "",
					"ImageAR": "N/A",
					"ThumbnailAR": "N/A",
					"Fields": [
						{
							"CodeName": "sectiontitle",
							"Type": "text",
							"LookUpKey": "",
							"IsMultiLang": "1",
							"NameEN": "Section Title",
							"DescEN": "",
							"NameAR": "عنوان القسم",
							"DescAR": "",
							"ValueEN": "Arrival Products",
							"ValueAR": "المنتجات الأحدث"
						},
						{
							"CodeName": "displaysectiontitle",
							"Type": "checkbox",
							"LookUpKey": "",
							"IsMultiLang": "0",
							"NameEN": "Display Section Title",
							"DescEN": "",
							"NameAR": "عرض عنوان القسم",
							"DescAR": "",
							"ValueEN": "1",
							"ValueAR": "1"
						},
						{
							"CodeName": "rows",
							"Type": "sselect-lookup",
							"LookUpKey": "base-pbox-rows",
							"IsMultiLang": "0",
							"NameEN": "Number of Rows",
							"DescEN": "",
							"NameAR": "عدد الصفوف",
							"DescAR": "",
							"ValueEN": "2",
							"ValueAR": "2"
						}
					]
				},
				{
					"CodeName": "featuredproductstemplate1",
					"Name": "Products Slider ( Featured )",
					"Type": "available",
					"State": "enabled",
					"IsCollection": 0,
					"NameEN": "Selected Products - Grid",
					"DescEN": "",
					"ImageEN": "N/A",
					"ThumbnailEN": "N/A",
					"NameAR": "منتجات مختارة - شبكة منتجات",
					"DescAR": "",
					"ImageAR": "N/A",
					"ThumbnailAR": "N/A",
					"Fields": [
						{
							"CodeName": "sectiontitle",
							"Type": "text",
							"LookUpKey": "",
							"IsMultiLang": "1",
							"NameEN": "Section Title",
							"DescEN": "",
							"NameAR": "عنوان القسم",
							"DescAR": "",
							"ValueEN": "Arrival Products",
							"ValueAR": "المنتجات الأحدث"
						},
						{
							"CodeName": "displaysectiontitle",
							"Type": "checkbox",
							"LookUpKey": "",
							"IsMultiLang": "0",
							"NameEN": "Display Section Title",
							"DescEN": "",
							"NameAR": "عرض عنوان القسم",
							"DescAR": "",
							"ValueEN": "1",
							"ValueAR": "1"
						},
						{
							"CodeName": "products",
							"Type": "tags-product",
							"LookUpKey": "",
							"IsMultiLang": "0",
							"NameEN": "Products",
							"DescEN": "",
							"NameAR": "المنتجات",
							"DescAR": "",
							"ValueEN": "0,0,0,0,0,0,0,0,0,0,0,0,0,0,0,0,0,0,0,0",
							"ValueAR": "0,0,0,0,0,0,0,0,0,0,0,0,0,0,0,0,0,0,0,0"
						},
						{
							"CodeName": "rows",
							"Type": "sselect-lookup",
							"LookUpKey": "base-pbox-rows",
							"IsMultiLang": "0",
							"NameEN": "Number of Rows",
							"DescEN": "",
							"NameAR": "عدد الصفوف",
							"DescAR": "",
							"ValueEN": "2",
							"ValueAR": "2"
						}
					]
				},
				{
					"CodeName": "specialproductstemplate1",
					"Name": "Product Slider ( Special )",
					"Type": "available",
					"State": "enabled",
					"IsCollection": 0,
					"NameEN": "Special Products - Grid",
					"DescEN": "",
					"ImageEN": "N/A",
					"ThumbnailEN": "N/A",
					"NameAR": "المنتجات ذات العروض - شبكة منتجات",
					"DescAR": "",
					"ImageAR": "N/A",
					"ThumbnailAR": "N/A",
					"Fields": [
						{
							"CodeName": "sectiontitle",
							"Type": "text",
							"LookUpKey": "",
							"IsMultiLang": "1",
							"NameEN": "Section Title",
							"DescEN": "",
							"NameAR": "عنوان القسم",
							"DescAR": "",
							"ValueEN": "Arrival Products",
							"ValueAR": "المنتجات الأحدث"
						},
						{
							"CodeName": "displaysectiontitle",
							"Type": "checkbox",
							"LookUpKey": "",
							"IsMultiLang": "0",
							"NameEN": "Display Section Title",
							"DescEN": "",
							"NameAR": "عرض عنوان القسم",
							"DescAR": "",
							"ValueEN": "1",
							"ValueAR": "1"
						},
						{
							"CodeName": "rows",
							"Type": "sselect-lookup",
							"LookUpKey": "base-pbox-rows",
							"IsMultiLang": "0",
							"NameEN": "Number of Rows",
							"DescEN": "",
							"NameAR": "عدد الصفوف",
							"DescAR": "",
							"ValueEN": "2",
							"ValueAR": "2"
						}
					]
				},


				{
					"CodeName": "featuredCat",
					"Name": "Products from Featured Category",
					"Type": "available",
					"State": "enabled",
					"IsCollection": 0,
					"NameEN": "Selected Categories",
					"DescEN": "",
					"ImageEN": "N/A",
					"ThumbnailEN": "N/A",
					"NameAR": "الأقسام المختارة",
					"DescAR": "",
					"ImageAR": "N/A",
					"ThumbnailAR": "N/A",
					"Fields": [
						{
							"CodeName": "sectiontitle",
							"Type": "text",
							"LookUpKey": "",
							"IsMultiLang": "1",
							"NameEN": "Section Title",
							"DescEN": "",
							"NameAR": "عنوان القسم",
							"DescAR": "",
							"ValueEN": "Featured Categories",
							"ValueAR": "أقسام مميزة"
						},
						{
							"CodeName": "displaysectiontitle",
							"Type": "checkbox",
							"LookUpKey": "",
							"IsMultiLang": "0",
							"NameEN": "Display Section Title",
							"DescEN": "",
							"NameAR": "عرض عنوان القسم",
							"DescAR": "",
							"ValueEN": "1",
							"ValueAR": "1"
						},
						{
							"CodeName": "categories",
							"Type": "tags-category",
							"LookUpKey": "",
							"IsMultiLang": "0",
							"NameEN": "Categories",
							"DescEN": "",
							"NameAR": "الأقسام",
							"DescAR": "",
							"ValueEN": "0,0,0,0",
							"ValueAR": "0,0,0,0"
						}
					]
				},

				{
					"CodeName": "bannercollection",
					"Name": "Banner 1",
					"Type": "available",
					"State": "enabled",
					"IsCollection": 1,
					"CollectionNameEN": "Banners",
					"CollectionNameAR": "الصور الدعائية",
					"CollectionItemNameEN": "Banner",
					"CollectionItemNameAR": "صورة دعائية",
					"CollectionButtonNameEN": "Add New Banner",
					"CollectionButtonNameAR": "اضف صورة دعائية جديدة",
					"NameEN": "Banners",
					"DescEN": "",
					"ImageEN": "N/A",
					"ThumbnailEN": "N/A",
					"NameAR": "صور دعائية",
					"DescAR": "",
					"ImageAR": "N/A",
					"ThumbnailAR": "N/A",
					"Collections": [
						{
							"Name": "My Banner",
							"Thumbnail": "N/A",
							"IsDefault": "1",
							"Fields": [
								{
									"CodeName": "bannerimage",
									"Type": "image",
									"LookUpKey": "",
									"IsMultiLang": "1",
									"NameEN": "Banner Image",
									"DescEN": "",
									"NameAR": "الصورة الدعائية",
									"DescAR": "",
									"ValueEN": "data/largance/banner.jpg",
									"ValueAR": "data/largance/banner.jpg"
								},
								{
									"CodeName": "bannerlink",
									"Type": "link",
									"LookUpKey": "",
									"IsMultiLang": "1",
									"NameEN": "Banner Link",
									"DescEN": "",
									"NameAR": "رابط الصورة الدعائية",
									"DescAR": "",
									"ValueEN": "#",
									"ValueAR": "#"
								},
								{
									"CodeName": "bannerwidth",
									"Type": "sselect-lookup",
									"LookUpKey": "base-banner-width",
									"IsMultiLang": "1",
									"NameEN": "Banner Width",
									"DescEN": "",
									"NameAR": "عرض الصورة الدعائية",
									"DescAR": "",
									"ValueEN": "1/2",
									"ValueAR": "1/2"
								}
							]
						},
						{
							"Name": "My Banner 1",
							"Thumbnail": "N/A",
							"IsDefault": "0",
							"Fields": [
								{
									"CodeName": "bannerimage",
									"Type": "image",
									"LookUpKey": "",
									"IsMultiLang": "1",
									"NameEN": "Banner Image",
									"DescEN": "",
									"NameAR": "الصورة الدعائية",
									"DescAR": "",
									"ValueEN": "data/largance/banner.jpg",
									"ValueAR": "data/largance/banner.jpg"
								},
								{
									"CodeName": "bannerlink",
									"Type": "link",
									"LookUpKey": "",
									"IsMultiLang": "1",
									"NameEN": "Banner Link",
									"DescEN": "",
									"NameAR": "رابط الصورة الدعائية",
									"DescAR": "",
									"ValueEN": "#",
									"ValueAR": "#"
								},
								{
									"CodeName": "bannerwidth",
									"Type": "sselect-lookup",
									"LookUpKey": "base-banner-width",
									"IsMultiLang": "1",
									"NameEN": "Banner Width",
									"DescEN": "",
									"NameAR": "عرض الصورة الدعائية",
									"DescAR": "",
									"ValueEN": "1/2",
									"ValueAR": "1/2"
								}
							]
						},
						{
							"Name": "My Banner 2",
							"Thumbnail": "N/A",
							"IsDefault": "0",
							"Fields": [
								{
									"CodeName": "bannerimage",
									"Type": "image",
									"LookUpKey": "",
									"IsMultiLang": "1",
									"NameEN": "Banner Image",
									"DescEN": "",
									"NameAR": "الصورة الدعائية",
									"DescAR": "",
									"ValueEN": "data/largance/banner.jpg",
									"ValueAR": "data/largance/banner.jpg"
								},
								{
									"CodeName": "bannerlink",
									"Type": "link",
									"LookUpKey": "",
									"IsMultiLang": "1",
									"NameEN": "Banner Link",
									"DescEN": "",
									"NameAR": "رابط الصورة الدعائية",
									"DescAR": "",
									"ValueEN": "#",
									"ValueAR": "#"
								},
								{
									"CodeName": "bannerwidth",
									"Type": "sselect-lookup",
									"LookUpKey": "base-banner-width",
									"IsMultiLang": "1",
									"NameEN": "Banner Width",
									"DescEN": "",
									"NameAR": "عرض الصورة الدعائية",
									"DescAR": "",
									"ValueEN": "1/2",
									"ValueAR": "1/2"
								}
							]
						}
					]
				},

				{
					"CodeName": "megaBlockLatest",
					"Name": "Special Products slider",
					"Type": "available",
					"State": "enabled",
					"IsCollection": 0,
					"NameEN": "Latest Products - Promotion Block",
					"DescEN": "",
					"ImageEN": "N/A",
					"ThumbnailEN": "N/A",
					"NameAR": "المنتجات الأحدث - المربع الدعائي",
					"DescAR": "",
					"ImageAR": "N/A",
					"ThumbnailAR": "N/A",
					"Fields": [
						{
							"CodeName": "boxcolor",
							"Type": "sselect-lookup",
							"LookUpKey": "block-color",
							"IsMultiLang": "1",
							"NameEN": "Section Color",
							"DescEN": "",
							"NameAR": "لون القسم",
							"DescAR": "",
							"ValueEN": "blue-block",
							"ValueAR": "blue-block"
						},
						{
							"CodeName": "sectiontitle",
							"Type": "text",
							"LookUpKey": "",
							"IsMultiLang": "1",
							"NameEN": "Section Title",
							"DescEN": "",
							"NameAR": "عنوان القسم",
							"DescAR": "",
							"ValueEN": "Latest Products",
							"ValueAR": "وصل حديثاً"
						},
						{
							"CodeName": "displaysectiontitle",
							"Type": "checkbox",
							"LookUpKey": "",
							"IsMultiLang": "0",
							"NameEN": "Display Section Title",
							"DescEN": "",
							"NameAR": "عرض عنوان القسم",
							"DescAR": "",
							"ValueEN": "1",
							"ValueAR": "1"
						},
						{
							"CodeName": "bottomdisplayAds",
							"Type": "checkbox",
							"LookUpKey": "",
							"IsMultiLang": "0",
							"NameEN": "Display Banner",
							"DescEN": "",
							"NameAR": "عرض الإعلان",
							"DescAR": "",
							"ValueEN": "1",
							"ValueAR": "1"
						},
						{
							"CodeName": "bottomadsLink",
							"Type": "link",
							"LookUpKey": "",
							"IsMultiLang": "1",
							"NameEN": "Banner Link",
							"DescEN": "",
							"NameAR": "رابط الإعلان",
							"DescAR": "",
							"ValueEN": "#",
							"ValueAR": "#"
						},
						{
							"CodeName": "bottombuttontext",
							"Type": "text",
							"LookUpKey": "",
							"IsMultiLang": "1",
							"NameEN": "Link Text",
							"DescEN": "",
							"NameAR": "اسم الرابط",
							"DescAR": "",
							"ValueEN": "shop now",
							"ValueAR": "تسوق الان"
						},
						{
							"CodeName": "bottomadsImage",
							"Type": "image",
							"LookUpKey": "",
							"IsMultiLang": "1",
							"NameEN": "Banner Image",
							"DescEN": "",
							"NameAR": "صورة الإعلان",
							"DescAR": "",
							"ValueEN": "data/largance/banner-electronics.jpg",
							"ValueAR": "data/largance/banner-electronics.jpg"
						},
						{
							"CodeName": "bottomtitle",
							"Type": "text",
							"LookUpKey": "",
							"IsMultiLang": "1",
							"NameEN": "Banner Main Title",
							"DescEN": "",
							"NameAR": "عنوان الإعلان الرئيسي",
							"DescAR": "",
							"ValueEN": "UPTO 23% OFF",
							"ValueAR": "خصومات هائلة!"
						},
						{
							"CodeName": "bottomsubtitle",
							"Type": "text",
							"LookUpKey": "",
							"IsMultiLang": "1",
							"NameEN": "Banner Sub Title",
							"DescEN": "",
							"NameAR": "عنوان الإعلان الفرعي",
							"DescAR": "",
							"ValueEN": "Laptop-Dell XPS",
							"ValueAR": "كمبيوتر محمول طراز سوني"
						}
					]
				},
				{
					"CodeName": "megaBlockSpecial",
					"Name": "Special Products slider",
					"Type": "available",
					"State": "enabled",
					"IsCollection": 0,
					"NameEN": "Special Products - Promotion Block",
					"DescEN": "",
					"ImageEN": "N/A",
					"ThumbnailEN": "N/A",
					"NameAR": "المنتجات ذات العروض - المربع الدعائي",
					"DescAR": "",
					"ImageAR": "N/A",
					"ThumbnailAR": "N/A",
					"Fields": [
						{
							"CodeName": "boxcolor",
							"Type": "sselect-lookup",
							"LookUpKey": "block-color",
							"IsMultiLang": "1",
							"NameEN": "Section Color",
							"DescEN": "",
							"NameAR": "لون القسم",
							"DescAR": "",
							"ValueEN": "red-block",
							"ValueAR": "red-block"
						},
						{
							"CodeName": "sectiontitle",
							"Type": "text",
							"LookUpKey": "",
							"IsMultiLang": "1",
							"NameEN": "Section Title",
							"DescEN": "",
							"NameAR": "عنوان القسم",
							"DescAR": "",
							"ValueEN": "Special Offers",
							"ValueAR": "وصل حديثاً"
						},
						{
							"CodeName": "displaysectiontitle",
							"Type": "checkbox",
							"LookUpKey": "",
							"IsMultiLang": "0",
							"NameEN": "Display Section Title",
							"DescEN": "",
							"NameAR": "عرض عنوان القسم",
							"DescAR": "",
							"ValueEN": "1",
							"ValueAR": "1"
						},
						{
							"CodeName": "bottomdisplayAds",
							"Type": "checkbox",
							"LookUpKey": "",
							"IsMultiLang": "0",
							"NameEN": "Display Banner",
							"DescEN": "",
							"NameAR": "عرض الإعلان",
							"DescAR": "",
							"ValueEN": "1",
							"ValueAR": "1"
						},
						{
							"CodeName": "bottomadsLink",
							"Type": "link",
							"LookUpKey": "",
							"IsMultiLang": "1",
							"NameEN": "Banner Link",
							"DescEN": "",
							"NameAR": "رابط الإعلان",
							"DescAR": "",
							"ValueEN": "#",
							"ValueAR": "#"
						},
						{
							"CodeName": "bottombuttontext",
							"Type": "text",
							"LookUpKey": "",
							"IsMultiLang": "1",
							"NameEN": "Link Text",
							"DescEN": "",
							"NameAR": "اسم الرابط",
							"DescAR": "",
							"ValueEN": "shop now",
							"ValueAR": "تسوق الان"
						},
						{
							"CodeName": "bottomadsImage",
							"Type": "image",
							"LookUpKey": "",
							"IsMultiLang": "1",
							"NameEN": "Banner Image",
							"DescEN": "",
							"NameAR": "صورة الإعلان",
							"DescAR": "",
							"ValueEN": "data/largance/banner-electronics.jpg",
							"ValueAR": "data/largance/banner-electronics.jpg"
						},
						{
							"CodeName": "bottomtitle",
							"Type": "text",
							"LookUpKey": "",
							"IsMultiLang": "1",
							"NameEN": "Banner Main Title",
							"DescEN": "",
							"NameAR": "عنوان الإعلان الرئيسي",
							"DescAR": "",
							"ValueEN": "UPTO 23% OFF",
							"ValueAR": "خصومات هائلة!"
						},
						{
							"CodeName": "bottomsubtitle",
							"Type": "text",
							"LookUpKey": "",
							"IsMultiLang": "1",
							"NameEN": "Banner Sub Title",
							"DescEN": "",
							"NameAR": "عنوان الإعلان الفرعي",
							"DescAR": "",
							"ValueEN": "Laptop-Dell XPS",
							"ValueAR": "كمبيوتر محمول طراز سوني"
						}
					]
				},
				{
					"CodeName": "megaBlockBestSeller",
					"Name": "Special Products slider",
					"Type": "available",
					"State": "enabled",
					"IsCollection": 0,
					"NameEN": "Bestseller Products - Promotion Block",
					"DescEN": "",
					"ImageEN": "N/A",
					"ThumbnailEN": "N/A",
					"NameAR": "المنتجات الأكثر مبيعاً - المربع الدعائي",
					"DescAR": "",
					"ImageAR": "N/A",
					"ThumbnailAR": "N/A",
					"Fields": [
						{
							"CodeName": "boxcolor",
							"Type": "sselect-lookup",
							"LookUpKey": "block-color",
							"IsMultiLang": "1",
							"NameEN": "Section Color",
							"DescEN": "",
							"NameAR": "لون القسم",
							"DescAR": "",
							"ValueEN": "orange-block",
							"ValueAR": "orange-block"
						},
						{
							"CodeName": "sectiontitle",
							"Type": "text",
							"LookUpKey": "",
							"IsMultiLang": "1",
							"NameEN": "Section Title",
							"DescEN": "",
							"NameAR": "عنوان القسم",
							"DescAR": "",
							"ValueEN": "Best Selling Products",
							"ValueAR": "وصل حديثاً"
						},
						{
							"CodeName": "displaysectiontitle",
							"Type": "checkbox",
							"LookUpKey": "",
							"IsMultiLang": "0",
							"NameEN": "Display Section Title",
							"DescEN": "",
							"NameAR": "عرض عنوان القسم",
							"DescAR": "",
							"ValueEN": "1",
							"ValueAR": "1"
						},
						{
							"CodeName": "bottomdisplayAds",
							"Type": "checkbox",
							"LookUpKey": "",
							"IsMultiLang": "0",
							"NameEN": "Display Banner",
							"DescEN": "",
							"NameAR": "عرض الإعلان",
							"DescAR": "",
							"ValueEN": "1",
							"ValueAR": "1"
						},
						{
							"CodeName": "bottomadsLink",
							"Type": "link",
							"LookUpKey": "",
							"IsMultiLang": "1",
							"NameEN": "Banner Link",
							"DescEN": "",
							"NameAR": "رابط الإعلان",
							"DescAR": "",
							"ValueEN": "#",
							"ValueAR": "#"
						},
						{
							"CodeName": "bottombuttontext",
							"Type": "text",
							"LookUpKey": "",
							"IsMultiLang": "1",
							"NameEN": "Link Text",
							"DescEN": "",
							"NameAR": "اسم الرابط",
							"DescAR": "",
							"ValueEN": "shop now",
							"ValueAR": "تسوق الان"
						},
						{
							"CodeName": "bottomadsImage",
							"Type": "image",
							"LookUpKey": "",
							"IsMultiLang": "1",
							"NameEN": "Banner Image",
							"DescEN": "",
							"NameAR": "صورة الإعلان",
							"DescAR": "",
							"ValueEN": "data/largance/banner-electronics.jpg",
							"ValueAR": "data/largance/banner-electronics.jpg"
						},
						{
							"CodeName": "bottomtitle",
							"Type": "text",
							"LookUpKey": "",
							"IsMultiLang": "1",
							"NameEN": "Banner Main Title",
							"DescEN": "",
							"NameAR": "عنوان الإعلان الرئيسي",
							"DescAR": "",
							"ValueEN": "UPTO 23% OFF",
							"ValueAR": "خصومات هائلة!"
						},
						{
							"CodeName": "bottomsubtitle",
							"Type": "text",
							"LookUpKey": "",
							"IsMultiLang": "1",
							"NameEN": "Banner Sub Title",
							"DescEN": "",
							"NameAR": "عنوان الإعلان الفرعي",
							"DescAR": "",
							"ValueEN": "Laptop-Dell XPS",
							"ValueAR": "كمبيوتر محمول طراز سوني"
						}
					]
				},
				{
					"CodeName": "megaBlockCategory",
					"Name": "Category Products slider",
					"Type": "available",
					"State": "enabled",
					"IsCollection": 0,
					"NameEN": "Selected Category Products - Promotion Block",
					"DescEN": "",
					"ImageEN": "N/A",
					"ThumbnailEN": "N/A",
					"NameAR": "منتجات قسم مختار - المربع الدعائي",
					"DescAR": "",
					"ImageAR": "N/A",
					"ThumbnailAR": "N/A",
					"Fields": [
						{
							"CodeName": "boxcolor",
							"Type": "sselect-lookup",
							"LookUpKey": "block-color",
							"IsMultiLang": "1",
							"NameEN": "Section Color",
							"DescEN": "",
							"NameAR": "لون القسم",
							"DescAR": "",
							"ValueEN": "green-block",
							"ValueAR": "green-block"
						},
						{
							"CodeName": "sectiontitle",
							"Type": "text",
							"LookUpKey": "",
							"IsMultiLang": "1",
							"NameEN": "Section Title",
							"DescEN": "",
							"NameAR": "عنوان القسم",
							"DescAR": "",
							"ValueEN": "Phone Accessories",
							"ValueAR": "كماليات هواتف"
						},
						{
							"CodeName": "displaysectiontitle",
							"Type": "checkbox",
							"LookUpKey": "",
							"IsMultiLang": "0",
							"NameEN": "Display Section Title",
							"DescEN": "",
							"NameAR": "عرض عنوان القسم",
							"DescAR": "",
							"ValueEN": "1",
							"ValueAR": "1"
						},
						{
							"CodeName": "bottomdisplayAds",
							"Type": "checkbox",
							"LookUpKey": "",
							"IsMultiLang": "0",
							"NameEN": "Display Banner",
							"DescEN": "",
							"NameAR": "عرض الإعلان",
							"DescAR": "",
							"ValueEN": "1",
							"ValueAR": "1"
						},
						{
							"CodeName": "bottomadsLink",
							"Type": "link",
							"LookUpKey": "",
							"IsMultiLang": "1",
							"NameEN": "Banner Link",
							"DescEN": "",
							"NameAR": "رابط الإعلان",
							"DescAR": "",
							"ValueEN": "#",
							"ValueAR": "#"
						},
						{
							"CodeName": "bottombuttontext",
							"Type": "text",
							"LookUpKey": "",
							"IsMultiLang": "1",
							"NameEN": "Link Text",
							"DescEN": "",
							"NameAR": "اسم الرابط",
							"DescAR": "",
							"ValueEN": "shop now",
							"ValueAR": "تسوق الان"
						},
						{
							"CodeName": "bottomadsImage",
							"Type": "image",
							"LookUpKey": "",
							"IsMultiLang": "1",
							"NameEN": "Banner Image",
							"DescEN": "",
							"NameAR": "صورة الإعلان",
							"DescAR": "",
							"ValueEN": "data/largance/banner-electronics.jpg",
							"ValueAR": "data/largance/banner-electronics.jpg"
						},
						{
							"CodeName": "bottomtitle",
							"Type": "text",
							"LookUpKey": "",
							"IsMultiLang": "1",
							"NameEN": "Banner Main Title",
							"DescEN": "",
							"NameAR": "عنوان الإعلان الرئيسي",
							"DescAR": "",
							"ValueEN": "UPTO 23% OFF",
							"ValueAR": "خصومات هائلة!"
						},
						{
							"CodeName": "bottomsubtitle",
							"Type": "text",
							"LookUpKey": "",
							"IsMultiLang": "1",
							"NameEN": "Banner Sub Title",
							"DescEN": "",
							"NameAR": "عنوان الإعلان الفرعي",
							"DescAR": "",
							"ValueEN": "Laptop-Dell XPS",
							"ValueAR": "كمبيوتر محمول طراز سوني"
						},
						{
							"CodeName": "categories",
							"Type": "tags-category",
							"LookUpKey": "",
							"IsMultiLang": "0",
							"NameEN": "Categories",
							"DescEN": "",
							"NameAR": "الأقسام",
							"DescAR": "",
							"ValueEN": "0",
							"ValueAR": "0"
						}
					]
				}

			]
		},
		{
			"CodeName": "footer",
			"RowOrder": "-1",
			"ColOrder": "-1",
			"ColWidth": "-1",
			"NameEN": "Footer",
			"NameAR": "تذييل الموقع",
			"DescEN": "",
			"DescAR": "",
			"Sections": [
			{
				"CodeName": "featuresboxes",
				"Name": "features Boxes 1",
				"Type": "live",
				"State": "enabled",
				"IsCollection": 1,
				"NameEN": "Promotion Boxes",
				"DescEN": "",
				"ImageEN": "N/A",
				"ThumbnailEN": "N/A",
				"NameAR": "مربعات ترويجية",
				"CollectionNameEN": "Promotion Boxes",
				"CollectionNameAR": "المربعات الترويجية",
				"CollectionItemNameEN": "Promotion Box",
				"CollectionItemNameAR": "مربع ترويجي",
				"CollectionButtonNameEN": "Add New Promotion Box",
				"CollectionButtonNameAR": "اضف مربع ترويجي جديد",
				"DescAR": "",
				"ImageAR": "N/A",
				"ThumbnailAR": "N/A",
				"Collections": [
					{
						"Name": "My Promo Box",
						"Thumbnail": "N/A",
						"IsDefault": "1",
						"Fields": [
							{
								"CodeName": "mainheading",
								"Type": "text",
								"LookUpKey": "",
								"IsMultiLang": "1",
								"NameEN": "Main Title",
								"DescEN": "",
								"NameAR": "العنوان الرئيسي",
								"DescAR": "",
								"ValueEN": "Buyer Protection",
								"ValueAR": "حماية المشتري"
							},
							{
								"CodeName": "subheading",
								"Type": "text",
								"LookUpKey": "",
								"IsMultiLang": "1",
								"NameEN": "Promotion Text",
								"DescEN": "",
								"NameAR": "النص الترويجي",
								"DescAR": "",
								"ValueEN": "Secure payments. Guaranteed refunds.",
								"ValueAR": "دفع آمن. إستعادة أموال مضمونة."
							},
							{
								"CodeName": "linktext1",
								"Type": "text",
								"LookUpKey": "",
								"IsMultiLang": "1",
								"NameEN": "First Link Text",
								"DescEN": "",
								"NameAR": "نص الرابط الأول",
								"DescAR": "",
								"ValueEN": "Trusted local lenders",
								"ValueAR": "استعادة اموال مضمونة"
							},
							{
								"CodeName": "link1",
								"Type": "link",
								"LookUpKey": "",
								"IsMultiLang": "1",
								"NameEN": "First Link",
								"DescEN": "",
								"NameAR": "الرابط الأول",
								"DescAR": "",
								"ValueEN": "#",
								"ValueAR": "#"
							},
							{
								"CodeName": "linktext2",
								"Type": "text",
								"LookUpKey": "",
								"IsMultiLang": "1",
								"NameEN": "Second Link Text",
								"DescEN": "",
								"NameAR": "نص الرابط الثاني",
								"DescAR": "",
								"ValueEN": "Trusted local lenders",
								"ValueAR": "استعادة اموال مضمونة"
							},
							{
								"CodeName": "link2",
								"Type": "link",
								"LookUpKey": "",
								"IsMultiLang": "1",
								"NameEN": "Second Link",
								"DescEN": "",
								"NameAR": "الرابط الثاني",
								"DescAR": "",
								"ValueEN": "#",
								"ValueAR": "#"
							},
							{
								"CodeName": "linktext3",
								"Type": "text",
								"LookUpKey": "",
								"IsMultiLang": "1",
								"NameEN": "Third Link Text",
								"DescEN": "",
								"NameAR": "نص الرابط الثالث",
								"DescAR": "",
								"ValueEN": "Trusted local lenders",
								"ValueAR": "استعادة اموال مضمونة"
							},
							{
								"CodeName": "link3",
								"Type": "link",
								"LookUpKey": "",
								"IsMultiLang": "1",
								"NameEN": "Third Link",
								"DescEN": "",
								"NameAR": "الرابط الثالث",
								"DescAR": "",
								"ValueEN": "#",
								"ValueAR": "#"
							},
							{
								"CodeName": "boximage",
								"Type": "image",
								"LookUpKey": "",
								"IsMultiLang": "1",
								"NameEN": "Box Icon",
								"DescEN": "",
								"NameAR": "شعار المربع",
								"DescAR": "",
								"ValueEN": "data/largance/piggy-bank.png",
								"ValueAR": "data/largance/piggy-bank.png"
							},
							{
								"CodeName": "boxwidth",
								"Type": "sselect-lookup",
								"LookUpKey": "base-banner-width",
								"IsMultiLang": "1",
								"NameEN": "Box Width",
								"DescEN": "",
								"NameAR": "عرض المربع",
								"DescAR": "",
								"ValueEN": "1/3",
								"ValueAR": "1/3"
							}
						]
					},
					{
						"Name": "My Promo Box1",
						"Thumbnail": "N/A",
						"IsDefault": "0",
						"Fields": [
							{
								"CodeName": "mainheading",
								"Type": "text",
								"LookUpKey": "",
								"IsMultiLang": "1",
								"NameEN": "Main Title",
								"DescEN": "",
								"NameAR": "العنوان الرئيسي",
								"DescAR": "",
								"ValueEN": "Buyer Protection",
								"ValueAR": "حماية المشتري"
							},
							{
								"CodeName": "subheading",
								"Type": "text",
								"LookUpKey": "",
								"IsMultiLang": "1",
								"NameEN": "Promotion Text",
								"DescEN": "",
								"NameAR": "النص الترويجي",
								"DescAR": "",
								"ValueEN": "Secure payments. Guaranteed refunds.",
								"ValueAR": "دفع آمن. إستعادة أموال مضمونة."
							},
							{
								"CodeName": "linktext1",
								"Type": "text",
								"LookUpKey": "",
								"IsMultiLang": "1",
								"NameEN": "First Link Text",
								"DescEN": "",
								"NameAR": "نص الرابط الأول",
								"DescAR": "",
								"ValueEN": "Trusted local lenders",
								"ValueAR": "استعادة اموال مضمونة"
							},
							{
								"CodeName": "link1",
								"Type": "link",
								"LookUpKey": "",
								"IsMultiLang": "1",
								"NameEN": "First Link",
								"DescEN": "",
								"NameAR": "الرابط الأول",
								"DescAR": "",
								"ValueEN": "#",
								"ValueAR": "#"
							},
							{
								"CodeName": "linktext2",
								"Type": "text",
								"LookUpKey": "",
								"IsMultiLang": "1",
								"NameEN": "Second Link Text",
								"DescEN": "",
								"NameAR": "نص الرابط الثاني",
								"DescAR": "",
								"ValueEN": "Trusted local lenders",
								"ValueAR": "استعادة اموال مضمونة"
							},
							{
								"CodeName": "link2",
								"Type": "link",
								"LookUpKey": "",
								"IsMultiLang": "1",
								"NameEN": "Second Link",
								"DescEN": "",
								"NameAR": "الرابط الثاني",
								"DescAR": "",
								"ValueEN": "#",
								"ValueAR": "#"
							},
							{
								"CodeName": "linktext3",
								"Type": "text",
								"LookUpKey": "",
								"IsMultiLang": "1",
								"NameEN": "Third Link Text",
								"DescEN": "",
								"NameAR": "نص الرابط الثالث",
								"DescAR": "",
								"ValueEN": "Trusted local lenders",
								"ValueAR": "استعادة اموال مضمونة"
							},
							{
								"CodeName": "link3",
								"Type": "link",
								"LookUpKey": "",
								"IsMultiLang": "1",
								"NameEN": "Third Link",
								"DescEN": "",
								"NameAR": "الرابط الثالث",
								"DescAR": "",
								"ValueEN": "#",
								"ValueAR": "#"
							},
							{
								"CodeName": "boximage",
								"Type": "image",
								"LookUpKey": "",
								"IsMultiLang": "1",
								"NameEN": "Box Icon",
								"DescEN": "",
								"NameAR": "شعار المربع",
								"DescAR": "",
								"ValueEN": "data/largance/piggy-bank.png",
								"ValueAR": "data/largance/piggy-bank.png"
							},
							{
								"CodeName": "boxwidth",
								"Type": "sselect-lookup",
								"LookUpKey": "base-banner-width",
								"IsMultiLang": "1",
								"NameEN": "Box Width",
								"DescEN": "",
								"NameAR": "عرض المربع",
								"DescAR": "",
								"ValueEN": "1/3",
								"ValueAR": "1/3"
							}
						]
					},
					{
						"Name": "My Promo Box2",
						"Thumbnail": "N/A",
						"IsDefault": "0",
						"Fields": [
							{
								"CodeName": "mainheading",
								"Type": "text",
								"LookUpKey": "",
								"IsMultiLang": "1",
								"NameEN": "Main Title",
								"DescEN": "",
								"NameAR": "العنوان الرئيسي",
								"DescAR": "",
								"ValueEN": "Buyer Protection",
								"ValueAR": "حماية المشتري"
							},
							{
								"CodeName": "subheading",
								"Type": "text",
								"LookUpKey": "",
								"IsMultiLang": "1",
								"NameEN": "Promotion Text",
								"DescEN": "",
								"NameAR": "النص الترويجي",
								"DescAR": "",
								"ValueEN": "Secure payments. Guaranteed refunds.",
								"ValueAR": "دفع آمن. إستعادة أموال مضمونة."
							},
							{
								"CodeName": "linktext1",
								"Type": "text",
								"LookUpKey": "",
								"IsMultiLang": "1",
								"NameEN": "First Link Text",
								"DescEN": "",
								"NameAR": "نص الرابط الأول",
								"DescAR": "",
								"ValueEN": "Trusted local lenders",
								"ValueAR": "استعادة اموال مضمونة"
							},
							{
								"CodeName": "link1",
								"Type": "link",
								"LookUpKey": "",
								"IsMultiLang": "1",
								"NameEN": "First Link",
								"DescEN": "",
								"NameAR": "الرابط الأول",
								"DescAR": "",
								"ValueEN": "#",
								"ValueAR": "#"
							},
							{
								"CodeName": "linktext2",
								"Type": "text",
								"LookUpKey": "",
								"IsMultiLang": "1",
								"NameEN": "Second Link Text",
								"DescEN": "",
								"NameAR": "نص الرابط الثاني",
								"DescAR": "",
								"ValueEN": "Trusted local lenders",
								"ValueAR": "استعادة اموال مضمونة"
							},
							{
								"CodeName": "link2",
								"Type": "link",
								"LookUpKey": "",
								"IsMultiLang": "1",
								"NameEN": "Second Link",
								"DescEN": "",
								"NameAR": "الرابط الثاني",
								"DescAR": "",
								"ValueEN": "#",
								"ValueAR": "#"
							},
							{
								"CodeName": "linktext3",
								"Type": "text",
								"LookUpKey": "",
								"IsMultiLang": "1",
								"NameEN": "Third Link Text",
								"DescEN": "",
								"NameAR": "نص الرابط الثالث",
								"DescAR": "",
								"ValueEN": "Trusted local lenders",
								"ValueAR": "استعادة اموال مضمونة"
							},
							{
								"CodeName": "link3",
								"Type": "link",
								"LookUpKey": "",
								"IsMultiLang": "1",
								"NameEN": "Third Link",
								"DescEN": "",
								"NameAR": "الرابط الثالث",
								"DescAR": "",
								"ValueEN": "#",
								"ValueAR": "#"
							},
							{
								"CodeName": "boximage",
								"Type": "image",
								"LookUpKey": "",
								"IsMultiLang": "1",
								"NameEN": "Box Icon",
								"DescEN": "",
								"NameAR": "شعار المربع",
								"DescAR": "",
								"ValueEN": "data/largance/piggy-bank.png",
								"ValueAR": "data/largance/piggy-bank.png"
							},
							{
								"CodeName": "boxwidth",
								"Type": "sselect-lookup",
								"LookUpKey": "base-banner-width",
								"IsMultiLang": "1",
								"NameEN": "Box Width",
								"DescEN": "",
								"NameAR": "عرض المربع",
								"DescAR": "",
								"ValueEN": "1/3",
								"ValueAR": "1/3"
							}
						]
					},
					{
						"Name": "My Promo Box3",
						"Thumbnail": "N/A",
						"IsDefault": "0",
						"Fields": [
							{
								"CodeName": "mainheading",
								"Type": "text",
								"LookUpKey": "",
								"IsMultiLang": "1",
								"NameEN": "Main Title",
								"DescEN": "",
								"NameAR": "العنوان الرئيسي",
								"DescAR": "",
								"ValueEN": "Buyer Protection",
								"ValueAR": "حماية المشتري"
							},
							{
								"CodeName": "subheading",
								"Type": "text",
								"LookUpKey": "",
								"IsMultiLang": "1",
								"NameEN": "Promotion Text",
								"DescEN": "",
								"NameAR": "النص الترويجي",
								"DescAR": "",
								"ValueEN": "Secure payments. Guaranteed refunds.",
								"ValueAR": "دفع آمن. إستعادة أموال مضمونة."
							},
							{
								"CodeName": "linktext1",
								"Type": "text",
								"LookUpKey": "",
								"IsMultiLang": "1",
								"NameEN": "First Link Text",
								"DescEN": "",
								"NameAR": "نص الرابط الأول",
								"DescAR": "",
								"ValueEN": "Trusted local lenders",
								"ValueAR": "استعادة اموال مضمونة"
							},
							{
								"CodeName": "link1",
								"Type": "link",
								"LookUpKey": "",
								"IsMultiLang": "1",
								"NameEN": "First Link",
								"DescEN": "",
								"NameAR": "الرابط الأول",
								"DescAR": "",
								"ValueEN": "#",
								"ValueAR": "#"
							},
							{
								"CodeName": "linktext2",
								"Type": "text",
								"LookUpKey": "",
								"IsMultiLang": "1",
								"NameEN": "Second Link Text",
								"DescEN": "",
								"NameAR": "نص الرابط الثاني",
								"DescAR": "",
								"ValueEN": "Trusted local lenders",
								"ValueAR": "استعادة اموال مضمونة"
							},
							{
								"CodeName": "link2",
								"Type": "link",
								"LookUpKey": "",
								"IsMultiLang": "1",
								"NameEN": "Second Link",
								"DescEN": "",
								"NameAR": "الرابط الثاني",
								"DescAR": "",
								"ValueEN": "#",
								"ValueAR": "#"
							},
							{
								"CodeName": "linktext3",
								"Type": "text",
								"LookUpKey": "",
								"IsMultiLang": "1",
								"NameEN": "Third Link Text",
								"DescEN": "",
								"NameAR": "نص الرابط الثالث",
								"DescAR": "",
								"ValueEN": "Trusted local lenders",
								"ValueAR": "استعادة اموال مضمونة"
							},
							{
								"CodeName": "link3",
								"Type": "link",
								"LookUpKey": "",
								"IsMultiLang": "1",
								"NameEN": "Third Link",
								"DescEN": "",
								"NameAR": "الرابط الثالث",
								"DescAR": "",
								"ValueEN": "#",
								"ValueAR": "#"
							},
							{
								"CodeName": "boximage",
								"Type": "image",
								"LookUpKey": "",
								"IsMultiLang": "1",
								"NameEN": "Box Icon",
								"DescEN": "",
								"NameAR": "شعار المربع",
								"DescAR": "",
								"ValueEN": "data/largance/piggy-bank.png",
								"ValueAR": "data/largance/piggy-bank.png"
							},
							{
								"CodeName": "boxwidth",
								"Type": "sselect-lookup",
								"LookUpKey": "base-banner-width",
								"IsMultiLang": "1",
								"NameEN": "Box Width",
								"DescEN": "",
								"NameAR": "عرض المربع",
								"DescAR": "",
								"ValueEN": "1/3",
								"ValueAR": "1/3"
							}
						]
					}
				]
			},
			{
				"CodeName": "socialcolumnlinks",
				"Name": "Social Column Links",
				"Type": "live",
				"State": "enabled",
				"IsCollection": 1,
				"CollectionNameEN": "Links",
				"CollectionNameAR": "الروابط",
				"CollectionItemNameEN": "Link",
				"CollectionItemNameAR": "رابط",
				"CollectionButtonNameEN": "Add New Link",
				"CollectionButtonNameAR": "اضف رابط جديد",
				"NameEN": "Social Column Links",
				"DescEN": "",
				"ImageEN": "N/A",
				"ThumbnailEN": "N/A",
				"NameAR": "روابط عمود وسائل الإتصال",
				"DescAR": "",
				"ImageAR": "N/A",
				"ThumbnailAR": "N/A",
				"Fields": [
				{
					"CodeName": "columntitle",
					"Type": "text",
					"LookUpKey": "",
					"IsMultiLang": "1",
					"NameEN": "Column Title",
					"DescEN": "",
					"NameAR": "عنوان العمود",
					"DescAR": "",
					"ValueEN": "Let''s Socialize",
					"ValueAR": "لنكن على إتصال"
				},
				{
					"CodeName": "displaycolumntitle",
					"Type": "checkbox",
					"LookUpKey": "",
					"IsMultiLang": "0",
					"NameEN": "Display Column Title",
					"DescEN": "",
					"NameAR": "عرض عنوان العمود",
					"DescAR": "",
					"ValueEN": "1",
					"ValueAR": "1"
				},
				{
					"CodeName": "facebooklink",
					"Type": "link",
					"LookUpKey": "",
					"IsMultiLang": "0",
					"NameEN": "Facebook Page Link",
					"DescEN": "",
					"NameAR": "رابط صفحة الفيسبوك",
					"DescAR": "",
					"ValueEN": "#",
					"ValueAR": "#"
				},
				{
					"CodeName": "twitterlink",
					"Type": "link",
					"LookUpKey": "",
					"IsMultiLang": "0",
					"NameEN": "Twitter Account Link",
					"DescEN": "",
					"NameAR": "رابط حساب تويتر",
					"DescAR": "",
					"ValueEN": "#",
					"ValueAR": "#"
				},
				{
					"CodeName": "linkedinlink",
					"Type": "link",
					"LookUpKey": "",
					"IsMultiLang": "0",
					"NameEN": "LinkedIn Page Link",
					"DescEN": "",
					"NameAR": "رابط صفحة لينكد إن",
					"DescAR": "",
					"ValueEN": "#",
					"ValueAR": "#"
				},
				{
					"CodeName": "googlepluslink",
					"Type": "link",
					"LookUpKey": "",
					"IsMultiLang": "0",
					"NameEN": "Google+ Page Link",
					"DescEN": "",
					"NameAR": "رابط صفحة جوجل بلس",
					"DescAR": "",
					"ValueEN": "#",
					"ValueAR": "#"
				},
				{
					"CodeName": "pinterestlink",
					"Type": "link",
					"LookUpKey": "",
					"IsMultiLang": "0",
					"NameEN": "Pinterest Page Link",
					"DescEN": "",
					"NameAR": "رابط صفحة بينترست",
					"DescAR": "",
					"ValueEN": "",
					"ValueAR": ""
				},
				{
					"CodeName": "youtubelink",
					"Type": "link",
					"LookUpKey": "",
					"IsMultiLang": "0",
					"NameEN": "Youtube Channel Link",
					"DescEN": "",
					"NameAR": "رابط قناة اليوتيوب",
					"DescAR": "",
					"ValueEN": "#",
					"ValueAR": "#"
				},
				{
					"CodeName": "instagramlink",
					"Type": "link",
					"LookUpKey": "",
					"IsMultiLang": "0",
					"NameEN": "Instagram Page Link",
					"DescEN": "",
					"NameAR": "رابط صفحة إنستاغرام",
					"DescAR": "",
					"ValueEN": "#",
					"ValueAR": "#"
				},
				{
					"CodeName": "snapchatlink",
					"Type": "link",
					"LookUpKey": "",
					"IsMultiLang": "0",
					"NameEN": "SnapChat Account Link",
					"DescEN": "",
					"NameAR": "رابط حساب سناب شات",
					"DescAR": "",
					"ValueEN": "#",
					"ValueAR": "#"
				},
				{
					"CodeName": "whatsapplink",
					"Type": "text",
					"LookUpKey": "",
					"IsMultiLang": "0",
					"NameEN": "Whats App Number",
					"DescEN": "",
					"NameAR": "رقم الواتساب",
					"DescAR": "",
					"ValueEN": "#",
					"ValueAR": "#"
				}
				]
			},
			{
				"CodeName": "firstcolumnlinks",
				"Name": "First Column Links",
				"Type": "live",
				"State": "enabled",
				"IsCollection": 1,
				"CollectionNameEN": "Links",
				"CollectionNameAR": "الروابط",
				"CollectionItemNameEN": "Link",
				"CollectionItemNameAR": "رابط",
				"CollectionButtonNameEN": "Add New Link",
				"CollectionButtonNameAR": "اضف رابط جديد",
				"NameEN": "First Column Links",
				"DescEN": "",
				"ImageEN": "N/A",
				"ThumbnailEN": "N/A",
				"NameAR": "روابط العمود الأول",
				"DescAR": "",
				"ImageAR": "N/A",
				"ThumbnailAR": "N/A",
				"Fields": [
				{
					"CodeName": "columntitle",
					"Type": "text",
					"LookUpKey": "",
					"IsMultiLang": "1",
					"NameEN": "Column Title",
					"DescEN": "",
					"NameAR": "عنوان العمود",
					"DescAR": "",
					"ValueEN": "Our Shop",
					"ValueAR": "متجرنا"
				},
				{
					"CodeName": "displaycolumntitle",
					"Type": "checkbox",
					"LookUpKey": "",
					"IsMultiLang": "0",
					"NameEN": "Display Column Title",
					"DescEN": "",
					"NameAR": "عرض عنوان العمود",
					"DescAR": "",
					"ValueEN": "1",
					"ValueAR": "1"
				}
				],
				"Collections": [
				{
					"Name": "About Us",
					"Thumbnail": "N/A",
					"IsDefault": "1",
					"Fields": [
					{
						"CodeName": "linkname",
						"Type": "text",
						"LookUpKey": "",
						"IsMultiLang": "1",
						"NameEN": "Link Name",
						"DescEN": "",
						"NameAR": "إسم الرابط",
						"DescAR": "",
						"ValueEN": "About Us",
						"ValueAR": "عن المتجر"
					},
					{
						"CodeName": "link",
						"Type": "link",
						"LookUpKey": "",
						"IsMultiLang": "1",
						"NameEN": "Link",
						"DescEN": "",
						"NameAR": "الرابط",
						"DescAR": "",
						"ValueEN": "#",
						"ValueAR": "#"
					}
					]
				},
				{
					"Name": "About Us",
					"Thumbnail": "N/A",
					"IsDefault": "0",
					"Fields": [
					{
						"CodeName": "linkname",
						"Type": "text",
						"LookUpKey": "",
						"IsMultiLang": "1",
						"NameEN": "Link Name",
						"DescEN": "",
						"NameAR": "إسم الرابط",
						"DescAR": "",
						"ValueEN": "About Us",
						"ValueAR": "عن المتجر"
					},
					{
						"CodeName": "link",
						"Type": "link",
						"LookUpKey": "",
						"IsMultiLang": "1",
						"NameEN": "Link",
						"DescEN": "",
						"NameAR": "الرابط",
						"DescAR": "",
						"ValueEN": "#",
						"ValueAR": "#"
					}
					]
				},
				{
					"Name": "Customer Service",
					"Thumbnail": "N/A",
					"IsDefault": "0",
					"Fields": [
					{
						"CodeName": "linkname",
						"Type": "text",
						"LookUpKey": "",
						"IsMultiLang": "1",
						"NameEN": "Link Name",
						"DescEN": "",
						"NameAR": "إسم الرابط",
						"DescAR": "",
						"ValueEN": "Customer Service",
						"ValueAR": "خدمة العملاء"
					},
					{
						"CodeName": "link",
						"Type": "link",
						"LookUpKey": "",
						"IsMultiLang": "1",
						"NameEN": "Link",
						"DescEN": "",
						"NameAR": "الرابط",
						"DescAR": "",
						"ValueEN": "#",
						"ValueAR": "#"
					}
					]
				},
				{
					"Name": "New Collection",
					"Thumbnail": "N/A",
					"IsDefault": "0",
					"Fields": [
					{
						"CodeName": "linkname",
						"Type": "text",
						"LookUpKey": "",
						"IsMultiLang": "1",
						"NameEN": "Link Name",
						"DescEN": "",
						"NameAR": "إسم الرابط",
						"DescAR": "",
						"ValueEN": "New Collection",
						"ValueAR": "التشكيلة الحديثة"
					},
					{
						"CodeName": "link",
						"Type": "link",
						"LookUpKey": "",
						"IsMultiLang": "1",
						"NameEN": "Link",
						"DescEN": "",
						"NameAR": "الرابط",
						"DescAR": "",
						"ValueEN": "#",
						"ValueAR": "#"
					}
					]
				},
				{
					"Name": "Manufacturers",
					"Thumbnail": "N/A",
					"IsDefault": "0",
					"Fields": [
					{
						"CodeName": "linkname",
						"Type": "text",
						"LookUpKey": "",
						"IsMultiLang": "1",
						"NameEN": "Link Name",
						"DescEN": "",
						"NameAR": "إسم الرابط",
						"DescAR": "",
						"ValueEN": "Manufacturers",
						"ValueAR": "المصنعين"
					},
					{
						"CodeName": "link",
						"Type": "link",
						"LookUpKey": "",
						"IsMultiLang": "1",
						"NameEN": "Link",
						"DescEN": "",
						"NameAR": "الرابط",
						"DescAR": "",
						"ValueEN": "#",
						"ValueAR": "#"
					}
					]
				},
				{
					"Name": "Privacy Policy",
					"Thumbnail": "N/A",
					"IsDefault": "0",
					"Fields": [
					{
						"CodeName": "linkname",
						"Type": "text",
						"LookUpKey": "",
						"IsMultiLang": "1",
						"NameEN": "Link Name",
						"DescEN": "",
						"NameAR": "إسم الرابط",
						"DescAR": "",
						"ValueEN": "Privacy Policy",
						"ValueAR": "سياسة الخصوصية"
					},
					{
						"CodeName": "link",
						"Type": "link",
						"LookUpKey": "",
						"IsMultiLang": "1",
						"NameEN": "Link",
						"DescEN": "",
						"NameAR": "الرابط",
						"DescAR": "",
						"ValueEN": "#",
						"ValueAR": "#"
					}
					]
				},
				{
					"Name": "Terms & Conditions",
					"Thumbnail": "N/A",
					"IsDefault": "0",
					"Fields": [
					{
						"CodeName": "linkname",
						"Type": "text",
						"LookUpKey": "",
						"IsMultiLang": "1",
						"NameEN": "Link Name",
						"DescEN": "",
						"NameAR": "إسم الرابط",
						"DescAR": "",
						"ValueEN": "Terms & Conditions",
						"ValueAR": "الشروط و الأحكام"
					},
					{
						"CodeName": "link",
						"Type": "link",
						"LookUpKey": "",
						"IsMultiLang": "1",
						"NameEN": "Link",
						"DescEN": "",
						"NameAR": "الرابط",
						"DescAR": "",
						"ValueEN": "#",
						"ValueAR": "#"
					}
					]
				},
				{
					"Name": "Blog",
					"Thumbnail": "N/A",
					"IsDefault": "0",
					"Fields": [
					{
						"CodeName": "linkname",
						"Type": "text",
						"LookUpKey": "",
						"IsMultiLang": "1",
						"NameEN": "Link Name",
						"DescEN": "",
						"NameAR": "إسم الرابط",
						"DescAR": "",
						"ValueEN": "Blog",
						"ValueAR": "المدونة"
					},
					{
						"CodeName": "link",
						"Type": "link",
						"LookUpKey": "",
						"IsMultiLang": "1",
						"NameEN": "Link",
						"DescEN": "",
						"NameAR": "الرابط",
						"DescAR": "",
						"ValueEN": "#",
						"ValueAR": "#"
					}
					]
				}
				]
			},
			{
				"CodeName": "secondcolumnlinks",
				"Name": "Second Column Links",
				"Type": "live",
				"State": "enabled",
				"IsCollection": 1,
				"CollectionNameEN": "Links",
				"CollectionNameAR": "الروابط",
				"CollectionItemNameEN": "Link",
				"CollectionItemNameAR": "رابط",
				"CollectionButtonNameEN": "Add New Link",
				"CollectionButtonNameAR": "اضف رابط جديد",
				"NameEN": "Second Column Links",
				"DescEN": "",
				"ImageEN": "N/A",
				"ThumbnailEN": "N/A",
				"NameAR": "روابط العمود الثاني",
				"DescAR": "",
				"ImageAR": "N/A",
				"ThumbnailAR": "N/A",
				"Fields": [
				{
					"CodeName": "columntitle",
					"Type": "text",
					"LookUpKey": "",
					"IsMultiLang": "1",
					"NameEN": "Column Title",
					"DescEN": "",
					"NameAR": "عنوان العمود",
					"DescAR": "",
					"ValueEN": "Products",
					"ValueAR": "المنتجات"
				},
				{
					"CodeName": "displaycolumntitle",
					"Type": "checkbox",
					"LookUpKey": "",
					"IsMultiLang": "0",
					"NameEN": "Display Column Title",
					"DescEN": "",
					"NameAR": "عرض عنوان العمود",
					"DescAR": "",
					"ValueEN": "1",
					"ValueAR": "1"
				}
				],
				"Collections": [
				{
					"Name": "New In",
					"Thumbnail": "N/A",
					"IsDefault": "1",
					"Fields": [
					{
						"CodeName": "linkname",
						"Type": "text",
						"LookUpKey": "",
						"IsMultiLang": "1",
						"NameEN": "Link Name",
						"DescEN": "",
						"NameAR": "إسم الرابط",
						"DescAR": "",
						"ValueEN": "New In",
						"ValueAR": "المنتجات الحديثة"
					},
					{
						"CodeName": "link",
						"Type": "link",
						"LookUpKey": "",
						"IsMultiLang": "1",
						"NameEN": "Link",
						"DescEN": "",
						"NameAR": "الرابط",
						"DescAR": "",
						"ValueEN": "#",
						"ValueAR": "#"
					}
					]
				},
								{
					"Name": "New In",
					"Thumbnail": "N/A",
					"IsDefault": "0",
					"Fields": [
					{
						"CodeName": "linkname",
						"Type": "text",
						"LookUpKey": "",
						"IsMultiLang": "1",
						"NameEN": "Link Name",
						"DescEN": "",
						"NameAR": "إسم الرابط",
						"DescAR": "",
						"ValueEN": "New In",
						"ValueAR": "المنتجات الحديثة"
					},
					{
						"CodeName": "link",
						"Type": "link",
						"LookUpKey": "",
						"IsMultiLang": "1",
						"NameEN": "Link",
						"DescEN": "",
						"NameAR": "الرابط",
						"DescAR": "",
						"ValueEN": "#",
						"ValueAR": "#"
					}
					]
				},
				{
					"Name": "Women",
					"Thumbnail": "N/A",
					"IsDefault": "0",
					"Fields": [
					{
						"CodeName": "linkname",
						"Type": "text",
						"LookUpKey": "",
						"IsMultiLang": "1",
						"NameEN": "Link Name",
						"DescEN": "",
						"NameAR": "إسم الرابط",
						"DescAR": "",
						"ValueEN": "Women",
						"ValueAR": "النساء"
					},
					{
						"CodeName": "link",
						"Type": "link",
						"LookUpKey": "",
						"IsMultiLang": "1",
						"NameEN": "Link",
						"DescEN": "",
						"NameAR": "الرابط",
						"DescAR": "",
						"ValueEN": "#",
						"ValueAR": "#"
					}
					]
				},
				{
					"Name": "Men",
					"Thumbnail": "N/A",
					"IsDefault": "0",
					"Fields": [
					{
						"CodeName": "linkname",
						"Type": "text",
						"LookUpKey": "",
						"IsMultiLang": "1",
						"NameEN": "Link Name",
						"DescEN": "",
						"NameAR": "إسم الرابط",
						"DescAR": "",
						"ValueEN": "Men",
						"ValueAR": "الرجال"
					},
					{
						"CodeName": "link",
						"Type": "link",
						"LookUpKey": "",
						"IsMultiLang": "1",
						"NameEN": "Link",
						"DescEN": "",
						"NameAR": "الرابط",
						"DescAR": "",
						"ValueEN": "#",
						"ValueAR": "#"
					}
					]
				},
				{
					"Name": "Best Sellers",
					"Thumbnail": "N/A",
					"IsDefault": "0",
					"Fields": [
					{
						"CodeName": "linkname",
						"Type": "text",
						"LookUpKey": "",
						"IsMultiLang": "1",
						"NameEN": "Link Name",
						"DescEN": "",
						"NameAR": "إسم الرابط",
						"DescAR": "",
						"ValueEN": "Best Sellers",
						"ValueAR": "الأكثر مبيعاً"
					},
					{
						"CodeName": "link",
						"Type": "link",
						"LookUpKey": "",
						"IsMultiLang": "1",
						"NameEN": "Link",
						"DescEN": "",
						"NameAR": "الرابط",
						"DescAR": "",
						"ValueEN": "#",
						"ValueAR": "#"
					}
					]
				},
				{
					"Name": "Top Brands",
					"Thumbnail": "N/A",
					"IsDefault": "0",
					"Fields": [
					{
						"CodeName": "linkname",
						"Type": "text",
						"LookUpKey": "",
						"IsMultiLang": "1",
						"NameEN": "Link Name",
						"DescEN": "",
						"NameAR": "إسم الرابط",
						"DescAR": "",
						"ValueEN": "Top Brands",
						"ValueAR": "الماركات الشهيرة"
					},
					{
						"CodeName": "link",
						"Type": "link",
						"LookUpKey": "",
						"IsMultiLang": "1",
						"NameEN": "Link",
						"DescEN": "",
						"NameAR": "الرابط",
						"DescAR": "",
						"ValueEN": "#",
						"ValueAR": "#"
					}
					]
				},
				{
					"Name": "Sale & Special Offers",
					"Thumbnail": "N/A",
					"IsDefault": "0",
					"Fields": [
					{
						"CodeName": "linkname",
						"Type": "text",
						"LookUpKey": "",
						"IsMultiLang": "1",
						"NameEN": "Link Name",
						"DescEN": "",
						"NameAR": "إسم الرابط",
						"DescAR": "",
						"ValueEN": "Sale & Special Offers",
						"ValueAR": "الخصومات و العروض الخاصة"
					},
					{
						"CodeName": "link",
						"Type": "link",
						"LookUpKey": "",
						"IsMultiLang": "1",
						"NameEN": "Link",
						"DescEN": "",
						"NameAR": "الرابط",
						"DescAR": "",
						"ValueEN": "#",
						"ValueAR": "#"
					}
					]
				},
				{
					"Name": "Lookbook",
					"Thumbnail": "N/A",
					"IsDefault": "0",
					"Fields": [
					{
						"CodeName": "linkname",
						"Type": "text",
						"LookUpKey": "",
						"IsMultiLang": "1",
						"NameEN": "Link Name",
						"DescEN": "",
						"NameAR": "إسم الرابط",
						"DescAR": "",
						"ValueEN": "Lookbook",
						"ValueAR": "كتاب الصور"
					},
					{
						"CodeName": "link",
						"Type": "link",
						"LookUpKey": "",
						"IsMultiLang": "1",
						"NameEN": "Link",
						"DescEN": "",
						"NameAR": "الرابط",
						"DescAR": "",
						"ValueEN": "#",
						"ValueAR": "#"
					}
					]
				}
				]
			},
			{
				"CodeName": "storecontacts",
				"Name": "Footer storecontacts",
				"Type": "live",
				"State": "enabled",
				"IsCollection": 0,
				"NameEN": "Store Contacts",
				"DescEN": "",
				"ImageEN": "N/A",
				"ThumbnailEN": "N/A",
				"NameAR": "معلومات الإتصال بالمتجر",
				"DescAR": "",
				"ImageAR": "N/A",
				"ThumbnailAR": "N/A",
				"Fields": [
				{
					"CodeName": "columntitle",
					"Type": "text",
					"LookUpKey": "",
					"IsMultiLang": "1",
					"NameEN": "Column Title",
					"DescEN": "",
					"NameAR": "عنوان العمود",
					"DescAR": "",
					"ValueEN": "Store Contacts",
					"ValueAR": "اتصل بنا"
				},
				{
					"CodeName": "displaycolumntitle",
					"Type": "checkbox",
					"LookUpKey": "",
					"IsMultiLang": "0",
					"NameEN": "Display Column Title",
					"DescEN": "",
					"NameAR": "عرض عنوان العمود",
					"DescAR": "",
					"ValueEN": "1",
					"ValueAR": "1"
				}
				]
			},
			{
				"CodeName": "payments",
				"Name": "Footer trusted payment",
				"Type": "live",
				"State": "enabled",
				"IsCollection": 1,
				"CollectionNameEN": "Icons",
				"CollectionNameAR": "الشعارات",
				"CollectionItemNameEN": "Icon",
				"CollectionItemNameAR": "شعار",
				"CollectionButtonNameEN": "Add New Icon",
				"CollectionButtonNameAR": "اضف شعار جديد",
				"isDefault" : 1 ,
				"NameEN": "Payment Methods Icons",
				"DescEN": "",
				"ImageEN": "N/A",
				"ThumbnailEN": "N/A",
				"NameAR": "شعارات وسائل الدفع",
				"DescAR": "",
				"ImageAR": "N/A",
				"ThumbnailAR": "N/A",
				"Collections" :[
				{
				"Name": "my payment",
				"Thumbnail": "N/A",
				"IsDefault": "1",
				"Fields": [
					{
						"CodeName": "link",
						"Type": "link",
						"LookUpKey": "",
						"IsMultiLang": "1",
						"NameEN": "Payment Method Link",
						"DescEN": "",
						"NameAR": "رابط وسيلة الدفع",
						"DescAR": "",
						"ValueEN": "#",
						"ValueAR": "#"
					},
					{
						"CodeName": "paymentImage",
						"Type": "image",
						"LookUpKey": "",
						"IsMultiLang": "1",
						"NameEN": "Payment Method Image",
						"DescEN": "",
						"NameAR": "صورة وسيلة الدفع",
						"DescAR": "",
						"ValueEN": "data/largance/pay1.png",
						"ValueAR": "data/largance/pay1.png"
					}
					]
				},
				{
				"Name": "my payment 1",
				"Thumbnail": "N/A",
				"IsDefault": "0",
				"Fields": [
					{
						"CodeName": "link",
						"Type": "link",
						"LookUpKey": "",
						"IsMultiLang": "1",
						"NameEN": "Payment Method Link",
						"DescEN": "",
						"NameAR": "رابط وسيلة الدفع",
						"DescAR": "",
						"ValueEN": "#",
						"ValueAR": "#"
					},
					{
						"CodeName": "paymentImage",
						"Type": "image",
						"LookUpKey": "",
						"IsMultiLang": "1",
						"NameEN": "Payment Method Image",
						"DescEN": "",
						"NameAR": "صورة وسيلة الدفع",
						"DescAR": "",
						"ValueEN": "data/largance/pay1.png",
						"ValueAR": "data/largance/pay1.png"
					}
					]
				},
				{
				"Name": "my payment 2",
				"Thumbnail": "N/A",
				"IsDefault": "0",
				"Fields": [
					{
						"CodeName": "link",
						"Type": "link",
						"LookUpKey": "",
						"IsMultiLang": "1",
						"NameEN": "Payment Method Link",
						"DescEN": "",
						"NameAR": "رابط وسيلة الدفع",
						"DescAR": "",
						"ValueEN": "#",
						"ValueAR": "#"
					},
					{
						"CodeName": "paymentImage",
						"Type": "image",
						"LookUpKey": "",
						"IsMultiLang": "1",
						"NameEN": "Payment Method Image",
						"DescEN": "",
						"NameAR": "صورة وسيلة الدفع",
						"DescAR": "",
						"ValueEN": "data/largance/pay2.png",
						"ValueAR": "data/largance/pay2.png"
					}
					]
				},
				{
				"Name": "my payment 3",
				"Thumbnail": "N/A",
				"IsDefault": "0",
				"Fields": [
					{
						"CodeName": "link",
						"Type": "link",
						"LookUpKey": "",
						"IsMultiLang": "1",
						"NameEN": "Payment Method Link",
						"DescEN": "",
						"NameAR": "رابط وسيلة الدفع",
						"DescAR": "",
						"ValueEN": "#",
						"ValueAR": "#"
					},
					{
						"CodeName": "paymentImage",
						"Type": "image",
						"LookUpKey": "",
						"IsMultiLang": "1",
						"NameEN": "Payment Method Image",
						"DescEN": "",
						"NameAR": "صورة وسيلة الدفع",
						"DescAR": "",
						"ValueEN": "data/largance/pay3.png",
						"ValueAR": "data/largance/pay3.png"
					}
					]
				},
				{
				"Name": "my payment 4",
				"Thumbnail": "N/A",
				"IsDefault": "0",
				"Fields": [
					{
						"CodeName": "link",
						"Type": "link",
						"LookUpKey": "",
						"IsMultiLang": "1",
						"NameEN": "Payment Method Link",
						"DescEN": "",
						"NameAR": "رابط وسيلة الدفع",
						"DescAR": "",
						"ValueEN": "#",
						"ValueAR": "#"
					},
					{
						"CodeName": "paymentImage",
						"Type": "image",
						"LookUpKey": "",
						"IsMultiLang": "1",
						"NameEN": "Payment Method Image",
						"DescEN": "",
						"NameAR": "صورة وسيلة الدفع",
						"DescAR": "",
						"ValueEN": "data/largance/pay4.png",
						"ValueAR": "data/largance/pay4.png"
					}
					]
				}
				]
			},
			{
				"CodeName": "categorylinks",
				"Name": "footer category links",
				"Type": "live",
				"State": "enabled",
				"IsCollection": 1,
				"CollectionNameEN": "Links",
				"CollectionNameAR": "الروابط",
				"CollectionItemNameEN": "Link",
				"CollectionItemNameAR": "رابط",
				"CollectionButtonNameEN": "Add New Link",
				"CollectionButtonNameAR": "اضف رابط جديد",
				"NameEN": "Category Links",
				"DescEN": "",
				"ImageEN": "N/A",
				"ThumbnailEN": "N/A",
				"NameAR": "روابط الأقسام",
				"DescAR": "",
				"ImageAR": "N/A",
				"ThumbnailAR": "N/A",
				"Collections": [
					{
						"Name": "footer category",
						"Thumbnail": "N/A",
						"IsDefault": "1",
						"Fields": [
							{
								"CodeName": "categorytitle",
								"Type": "text",
								"LookUpKey": "",
								"IsMultiLang": "1",
								"NameEN": "Title Text",
								"DescEN": "",
								"NameAR": "نص العنوان",
								"DescAR": "",
								"ValueEN": "Special Categories",
								"ValueAR": "أقسام خاصة"
							},
							{
								"CodeName": "categorylink",
								"Type": "link",
								"LookUpKey": "",
								"IsMultiLang": "0",
								"NameEN": "Title Link",
								"DescEN": "",
								"NameAR": "رابط العنوان",
								"DescAR": "",
								"ValueEN": "#",
								"ValueAR": "#"
							},
							{
								"CodeName": "categories",
								"Type": "tags-category",
								"LookUpKey": "",
								"IsMultiLang": "0",
								"NameEN": "Categories",
								"DescEN": "",
								"NameAR": "الأقسام",
								"DescAR": "",
								"ValueEN": "0",
								"ValueAR": "0"
							}
						]
					},
					{
						"Name": "Special Categories 1",
						"Thumbnail": "N/A",
						"IsDefault": "0",
						"Fields": [
							{
								"CodeName": "categorytitle",
								"Type": "text",
								"LookUpKey": "",
								"IsMultiLang": "1",
								"NameEN": "Title Text",
								"DescEN": "",
								"NameAR": "نص العنوان",
								"DescAR": "",
								"ValueEN": "Special Categories",
								"ValueAR": "أقسام خاصة"
							},
							{
								"CodeName": "categorylink",
								"Type": "link",
								"LookUpKey": "",
								"IsMultiLang": "0",
								"NameEN": "Title Link",
								"DescEN": "",
								"NameAR": "رابط العنوان",
								"DescAR": "",
								"ValueEN": "#",
								"ValueAR": "#"
							},
							{
								"CodeName": "categories",
								"Type": "tags-category",
								"LookUpKey": "",
								"IsMultiLang": "0",
								"NameEN": "Categories",
								"DescEN": "",
								"NameAR": "الأقسام",
								"DescAR": "",
								"ValueEN": "0",
								"ValueAR": "0"
							}
						]
					},
					{
						"Name": "Special Categories 2",
						"Thumbnail": "N/A",
						"IsDefault": "0",
						"Fields": [
							{
								"CodeName": "categorytitle",
								"Type": "text",
								"LookUpKey": "",
								"IsMultiLang": "1",
								"NameEN": "Title Text",
								"DescEN": "",
								"NameAR": "نص العنوان",
								"DescAR": "",
								"ValueEN": "Latest Categories",
								"ValueAR": "أحدث الأقسام"
							},
							{
								"CodeName": "categorylink",
								"Type": "link",
								"LookUpKey": "",
								"IsMultiLang": "0",
								"NameEN": "Title Link",
								"DescEN": "",
								"NameAR": "رابط العنوان",
								"DescAR": "",
								"ValueEN": "#",
								"ValueAR": "#"
							},
							{
								"CodeName": "categories",
								"Type": "tags-category",
								"LookUpKey": "",
								"IsMultiLang": "0",
								"NameEN": "Categories",
								"DescEN": "",
								"NameAR": "الأقسام",
								"DescAR": "",
								"ValueEN": "0",
								"ValueAR": "0"
							}
						]
					}
				]
			},
			{
				"CodeName": "Copyrights",
				"Name": "Footer Copyrights",
				"Type": "live",
				"State": "enabled",
				"IsCollection": 0,
				"NameEN": "Copyrights",
				"DescEN": "",
				"ImageEN": "N/A",
				"ThumbnailEN": "N/A",
				"NameAR": "حقوق الطبع و النشر",
				"DescAR": "",
				"ImageAR": "N/A",
				"ThumbnailAR": "N/A",
				"Fields": [
				{
					"CodeName": "Copyrights",
					"Type": "textarea",
					"LookUpKey": "",
					"IsMultiLang": "1",
					"NameEN": "Copyright Information",
					"DescEN": "",
					"NameAR": "حقوق الطبع و النشر",
					"DescAR": "",
					"ValueEN": "Copyright © 2017 Our Shop. All Rights Reserved.",
					"ValueAR": "حقوق النشر © 2017 متجرنا. جميع الحقوق محفوظة."
				},
					{
						"CodeName": "copyrightsPowered",
						"Type": "textarea",
						"LookUpKey": "",
						"IsMultiLang": "1",
						"NameEN": "Powered By Text",
						"DescEN": "",
						"NameAR": "نص بدعم من",
						"DescAR": "",
						"ValueEN": "Powered by <a href=\"https://expandcart.com\">ExpandCart</a>",
						"ValueAR": "بدعم من <a href=\"https://expandcart.com\">إكسباند كارت</a>"
					}
				]
			}
			]
		}
		]
	},
	{
		"CodeName": "general",
		"Route": "",
		"NameEN": "General",
		"DescEN": "",
		"NameAR": "الصفحة العامة",
		"DescAR": "",
		"Special": 0,
		"Regions": [
		{
			"CodeName": "maincontent",
			"RowOrder": "0",
			"ColOrder": "0",
			"ColWidth": "12",
			"NameEN": "Main Content",
			"NameAR": "المحتوى الرئيسي",
			"DescEN": "",
			"DescAR": "",
			"Sections": [
			]
		},
			{
				"CodeName": "bottomcontent",
				"RowOrder": "0",
				"ColOrder": "0",
				"ColWidth": "12",
				"NameEN": "Bottom Content",
				"NameAR": "المحتوى السفلي",
				"DescEN": "",
				"DescAR": "",
				"Sections": [

					{
						"CodeName": "iconslider",
						"Name": "icons slider",
						"Type": "live",
						"State": "enabled",
						"IsCollection": 1,
						"CollectionNameEN": "Brand Logos",
						"CollectionNameAR": "الشعارات",
						"CollectionItemNameEN": "Brand",
						"CollectionItemNameAR": "علامة تجارية",
						"CollectionButtonNameEN": "Add New Brand",
						"CollectionButtonNameAR": "اضف علامة تجارية جديدة",
						"NameEN": "Brand Logos",
						"DescEN": "",
						"ImageEN": "N/A",
						"ThumbnailEN": "N/A",
						"NameAR": "شعارات الماركت",
						"DescAR": "",
						"ImageAR": "N/A",
						"ThumbnailAR": "N/A",
						"Fields":
						[
							{
								"CodeName": "sectiontitle",
								"Type": "text",
								"LookUpKey": "",
								"IsMultiLang": "1",
								"NameEN": "Section Title",
								"DescEN": "",
								"NameAR": "عنوان القسم",
								"DescAR": "",
								"ValueEN": "Featured Brands",
								"ValueAR": "افضل الماركات"
							},
							{
								"CodeName": "displaysectiontitle",
								"Type": "checkbox",
								"LookUpKey": "",
								"IsMultiLang": "0",
								"NameEN": "Display Section Title",
								"DescEN": "",
								"NameAR": "عرض عنوان القسم",
								"DescAR": "",
								"ValueEN": "1",
								"ValueAR": "1"
							}
						],
						"Collections":
						[
							{
								"Name": "My Slide",
								"Thumbnail": "N/A",
								"IsDefault": "1",
								"Fields": [
									{
										"CodeName": "imagelink",
										"Type": "link",
										"LookUpKey": "",
										"IsMultiLang": "1",
										"NameEN": "Brand Link",
										"DescEN": "",
										"NameAR": "رابط العلامة التجارية",
										"DescAR": "",
										"ValueEN": "#",
										"ValueAR": "#"
									},
									{
										"CodeName": "slideimage",
										"Type": "image",
										"LookUpKey": "",
										"IsMultiLang": "1",
										"NameEN": "Brand Image",
										"DescEN": "",
										"NameAR": "صورة العلامة التجارية",
										"DescAR": "",
										"ValueEN": "data/largance/part1.png",
										"ValueAR": "data/largance/part1.png"
									}
								]
							},
							{
								"Name": "My Slide 1",
								"Thumbnail": "N/A",
								"IsDefault": "0",
								"Fields": [
									{
										"CodeName": "imagelink",
										"Type": "link",
										"LookUpKey": "",
										"IsMultiLang": "1",
										"NameEN": "Brand Link",
										"DescEN": "",
										"NameAR": "رابط العلامة التجارية",
										"DescAR": "",
										"ValueEN": "#",
										"ValueAR": "#"
									},
									{
										"CodeName": "slideimage",
										"Type": "image",
										"LookUpKey": "",
										"IsMultiLang": "1",
										"NameEN": "Brand Image",
										"DescEN": "",
										"NameAR": "صورة العلامة التجارية",
										"DescAR": "",
										"ValueEN": "data/largance/part1.png",
										"ValueAR": "data/largance/part1.png"
									}
								]
							},
							{
								"Name": "My Slide 2",
								"Thumbnail": "N/A",
								"IsDefault": "0",
								"Fields": [
									{
										"CodeName": "imagelink",
										"Type": "link",
										"LookUpKey": "",
										"IsMultiLang": "1",
										"NameEN": "Brand Link",
										"DescEN": "",
										"NameAR": "رابط العلامة التجارية",
										"DescAR": "",
										"ValueEN": "#",
										"ValueAR": "#"
									},
									{
										"CodeName": "slideimage",
										"Type": "image",
										"LookUpKey": "",
										"IsMultiLang": "1",
										"NameEN": "Brand Image",
										"DescEN": "",
										"NameAR": "صورة العلامة التجارية",
										"DescAR": "",
										"ValueEN": "data/largance/part2.png",
										"ValueAR": "data/largance/part2.png"
									}
								]
							},
							{
								"Name": "My Slide 3",
								"Thumbnail": "N/A",
								"IsDefault": "0",
								"Fields": [
									{
										"CodeName": "imagelink",
										"Type": "link",
										"LookUpKey": "",
										"IsMultiLang": "1",
										"NameEN": "Brand Link",
										"DescEN": "",
										"NameAR": "رابط العلامة التجارية",
										"DescAR": "",
										"ValueEN": "#",
										"ValueAR": "#"
									},
									{
										"CodeName": "slideimage",
										"Type": "image",
										"LookUpKey": "",
										"IsMultiLang": "1",
										"NameEN": "Brand Image",
										"DescEN": "",
										"NameAR": "صورة العلامة التجارية",
										"DescAR": "",
										"ValueEN": "data/largance/part3.png",
										"ValueAR": "data/largance/part3.png"
									}
								]
							},
							{
								"Name": "My Slide 4",
								"Thumbnail": "N/A",
								"IsDefault": "0",
								"Fields": [
									{
										"CodeName": "imagelink",
										"Type": "link",
										"LookUpKey": "",
										"IsMultiLang": "1",
										"NameEN": "Brand Link",
										"DescEN": "",
										"NameAR": "رابط العلامة التجارية",
										"DescAR": "",
										"ValueEN": "#",
										"ValueAR": "#"
									},
									{
										"CodeName": "slideimage",
										"Type": "image",
										"LookUpKey": "",
										"IsMultiLang": "1",
										"NameEN": "Brand Image",
										"DescEN": "",
										"NameAR": "صورة العلامة التجارية",
										"DescAR": "",
										"ValueEN": "data/largance/part4.png",
										"ValueAR": "data/largance/part4.png"
									}
								]
							},
							{
								"Name": "My Slide 5",
								"Thumbnail": "N/A",
								"IsDefault": "0",
								"Fields": [
									{
										"CodeName": "imagelink",
										"Type": "link",
										"LookUpKey": "",
										"IsMultiLang": "1",
										"NameEN": "Brand Link",
										"DescEN": "",
										"NameAR": "رابط العلامة التجارية",
										"DescAR": "",
										"ValueEN": "#",
										"ValueAR": "#"
									},
									{
										"CodeName": "slideimage",
										"Type": "image",
										"LookUpKey": "",
										"IsMultiLang": "1",
										"NameEN": "Brand Image",
										"DescEN": "",
										"NameAR": "صورة العلامة التجارية",
										"DescAR": "",
										"ValueEN": "data/largance/part5.png",
										"ValueAR": "data/largance/part5.png"
									}
								]
							},
							{
								"Name": "My Slide 6",
								"Thumbnail": "N/A",
								"IsDefault": "0",
								"Fields": [
									{
										"CodeName": "imagelink",
										"Type": "link",
										"LookUpKey": "",
										"IsMultiLang": "1",
										"NameEN": "Brand Link",
										"DescEN": "",
										"NameAR": "رابط العلامة التجارية",
										"DescAR": "",
										"ValueEN": "#",
										"ValueAR": "#"
									},
									{
										"CodeName": "slideimage",
										"Type": "image",
										"LookUpKey": "",
										"IsMultiLang": "1",
										"NameEN": "Brand Image",
										"DescEN": "",
										"NameAR": "صورة العلامة التجارية",
										"DescAR": "",
										"ValueEN": "data/largance/part6.png",
										"ValueAR": "data/largance/part6.png"
									}
								]
							}
						]
					},

					{
						"CodeName": "banner",
						"Name": "image banner",
						"Type": "live",
						"State": "enabled",
						"IsCollection": 0,
						"NameEN": "Banner",
						"DescEN": "",
						"ImageEN": "N/A",
						"ThumbnailEN": "N/A",
						"NameAR": "إعلان",
						"DescAR": "",
						"ImageAR": "N/A",
						"ThumbnailAR": "N/A",
						"Fields": [
							{
								"CodeName": "bannerlink",
								"Type": "link",
								"LookUpKey": "",
								"IsMultiLang": "1",
								"NameEN": "Banner Link",
								"DescEN": "",
								"NameAR": "رابط الإعلان",
								"DescAR": "",
								"ValueEN": "#",
								"ValueAR": "#"
							},
							{
								"CodeName": "bannerimage",
								"Type": "image",
								"LookUpKey": "",
								"IsMultiLang": "1",
								"NameEN": "Banner Image",
								"DescEN": "",
								"NameAR": "صورة الإعلان",
								"DescAR": "",
								"ValueEN": "data/largance/banner.jpg",
								"ValueAR": "data/largance/banner.jpg"
							}
						]
					},

					{
						"CodeName": "featuredproductstemplate1",
						"Name": "Products Slider ( Featured )",
						"Type": "live",
						"State": "enabled",
						"IsCollection": 0,
						"NameEN": "Selected Products - Grid",
						"DescEN": "",
						"ImageEN": "N/A",
						"ThumbnailEN": "N/A",
						"NameAR": "منتجات مختارة - شبكة منتجات",
						"DescAR": "",
						"ImageAR": "N/A",
						"ThumbnailAR": "N/A",
						"Fields": [
							{
								"CodeName": "sectiontitle",
								"Type": "text",
								"LookUpKey": "",
								"IsMultiLang": "1",
								"NameEN": "Section Title",
								"DescEN": "",
								"NameAR": "عنوان القسم",
								"DescAR": "",
								"ValueEN": "Arrival Products",
								"ValueAR": "المنتجات الأحدث"
							},
							{
								"CodeName": "displaysectiontitle",
								"Type": "checkbox",
								"LookUpKey": "",
								"IsMultiLang": "0",
								"NameEN": "Display Section Title",
								"DescEN": "",
								"NameAR": "عرض عنوان القسم",
								"DescAR": "",
								"ValueEN": "1",
								"ValueAR": "1"
							},
							{
								"CodeName": "products",
								"Type": "tags-product",
								"LookUpKey": "",
								"IsMultiLang": "0",
								"NameEN": "Products",
								"DescEN": "",
								"NameAR": "المنتجات",
								"DescAR": "",
								"ValueEN": "0,0,0,0,0,0,0,0,0,0,0,0,0,0,0,0,0,0,0,0",
								"ValueAR": "0,0,0,0,0,0,0,0,0,0,0,0,0,0,0,0,0,0,0,0"
							},
							{
								"CodeName": "rows",
								"Type": "sselect-lookup",
								"LookUpKey": "base-pbox-rows",
								"IsMultiLang": "0",
								"NameEN": "Number of Rows",
								"DescEN": "",
								"NameAR": "عدد الصفوف",
								"DescAR": "",
								"ValueEN": "2",
								"ValueAR": "2"
							}
						]
					},




					{
						"CodeName": "iconslider",
						"Name": "icons slider",
						"Type": "available",
						"State": "enabled",
						"IsCollection": 1,
						"CollectionNameEN": "Brand Logos",
						"CollectionNameAR": "الشعارات",
						"CollectionItemNameEN": "Brand",
						"CollectionItemNameAR": "علامة تجارية",
						"CollectionButtonNameEN": "Add New Brand",
						"CollectionButtonNameAR": "اضف علامة تجارية جديدة",
						"NameEN": "Brand Logos",
						"DescEN": "",
						"ImageEN": "N/A",
						"ThumbnailEN": "N/A",
						"NameAR": "شعارات الماركت",
						"DescAR": "",
						"ImageAR": "N/A",
						"ThumbnailAR": "N/A",
						"Fields":
						[
							{
								"CodeName": "sectiontitle",
								"Type": "text",
								"LookUpKey": "",
								"IsMultiLang": "1",
								"NameEN": "Section Title",
								"DescEN": "",
								"NameAR": "عنوان القسم",
								"DescAR": "",
								"ValueEN": "Featured Brands",
								"ValueAR": "افضل الماركات"
							},
							{
								"CodeName": "displaysectiontitle",
								"Type": "checkbox",
								"LookUpKey": "",
								"IsMultiLang": "0",
								"NameEN": "Display Section Title",
								"DescEN": "",
								"NameAR": "عرض عنوان القسم",
								"DescAR": "",
								"ValueEN": "1",
								"ValueAR": "1"
							}
						],
						"Collections":
						[
							{
								"Name": "My Slide",
								"Thumbnail": "N/A",
								"IsDefault": "1",
								"Fields": [
									{
										"CodeName": "imagelink",
										"Type": "link",
										"LookUpKey": "",
										"IsMultiLang": "1",
										"NameEN": "Brand Link",
										"DescEN": "",
										"NameAR": "رابط العلامة التجارية",
										"DescAR": "",
										"ValueEN": "#",
										"ValueAR": "#"
									},
									{
										"CodeName": "slideimage",
										"Type": "image",
										"LookUpKey": "",
										"IsMultiLang": "1",
										"NameEN": "Brand Image",
										"DescEN": "",
										"NameAR": "صورة العلامة التجارية",
										"DescAR": "",
										"ValueEN": "data/largance/part1.png",
										"ValueAR": "data/largance/part1.png"
									}
								]
							},
							{
								"Name": "My Slide 1",
								"Thumbnail": "N/A",
								"IsDefault": "0",
								"Fields": [
									{
										"CodeName": "imagelink",
										"Type": "link",
										"LookUpKey": "",
										"IsMultiLang": "1",
										"NameEN": "Brand Link",
										"DescEN": "",
										"NameAR": "رابط العلامة التجارية",
										"DescAR": "",
										"ValueEN": "#",
										"ValueAR": "#"
									},
									{
										"CodeName": "slideimage",
										"Type": "image",
										"LookUpKey": "",
										"IsMultiLang": "1",
										"NameEN": "Brand Image",
										"DescEN": "",
										"NameAR": "صورة العلامة التجارية",
										"DescAR": "",
										"ValueEN": "data/largance/part1.png",
										"ValueAR": "data/largance/part1.png"
									}
								]
							},
							{
								"Name": "My Slide 2",
								"Thumbnail": "N/A",
								"IsDefault": "0",
								"Fields": [
									{
										"CodeName": "imagelink",
										"Type": "link",
										"LookUpKey": "",
										"IsMultiLang": "1",
										"NameEN": "Brand Link",
										"DescEN": "",
										"NameAR": "رابط العلامة التجارية",
										"DescAR": "",
										"ValueEN": "#",
										"ValueAR": "#"
									},
									{
										"CodeName": "slideimage",
										"Type": "image",
										"LookUpKey": "",
										"IsMultiLang": "1",
										"NameEN": "Brand Image",
										"DescEN": "",
										"NameAR": "صورة العلامة التجارية",
										"DescAR": "",
										"ValueEN": "data/largance/part2.png",
										"ValueAR": "data/largance/part2.png"
									}
								]
							},
							{
								"Name": "My Slide 3",
								"Thumbnail": "N/A",
								"IsDefault": "0",
								"Fields": [
									{
										"CodeName": "imagelink",
										"Type": "link",
										"LookUpKey": "",
										"IsMultiLang": "1",
										"NameEN": "Brand Link",
										"DescEN": "",
										"NameAR": "رابط العلامة التجارية",
										"DescAR": "",
										"ValueEN": "#",
										"ValueAR": "#"
									},
									{
										"CodeName": "slideimage",
										"Type": "image",
										"LookUpKey": "",
										"IsMultiLang": "1",
										"NameEN": "Brand Image",
										"DescEN": "",
										"NameAR": "صورة العلامة التجارية",
										"DescAR": "",
										"ValueEN": "data/largance/part3.png",
										"ValueAR": "data/largance/part3.png"
									}
								]
							},
							{
								"Name": "My Slide 4",
								"Thumbnail": "N/A",
								"IsDefault": "0",
								"Fields": [
									{
										"CodeName": "imagelink",
										"Type": "link",
										"LookUpKey": "",
										"IsMultiLang": "1",
										"NameEN": "Brand Link",
										"DescEN": "",
										"NameAR": "رابط العلامة التجارية",
										"DescAR": "",
										"ValueEN": "#",
										"ValueAR": "#"
									},
									{
										"CodeName": "slideimage",
										"Type": "image",
										"LookUpKey": "",
										"IsMultiLang": "1",
										"NameEN": "Brand Image",
										"DescEN": "",
										"NameAR": "صورة العلامة التجارية",
										"DescAR": "",
										"ValueEN": "data/largance/part4.png",
										"ValueAR": "data/largance/part4.png"
									}
								]
							},
							{
								"Name": "My Slide 5",
								"Thumbnail": "N/A",
								"IsDefault": "0",
								"Fields": [
									{
										"CodeName": "imagelink",
										"Type": "link",
										"LookUpKey": "",
										"IsMultiLang": "1",
										"NameEN": "Brand Link",
										"DescEN": "",
										"NameAR": "رابط العلامة التجارية",
										"DescAR": "",
										"ValueEN": "#",
										"ValueAR": "#"
									},
									{
										"CodeName": "slideimage",
										"Type": "image",
										"LookUpKey": "",
										"IsMultiLang": "1",
										"NameEN": "Brand Image",
										"DescEN": "",
										"NameAR": "صورة العلامة التجارية",
										"DescAR": "",
										"ValueEN": "data/largance/part5.png",
										"ValueAR": "data/largance/part5.png"
									}
								]
							},
							{
								"Name": "My Slide 6",
								"Thumbnail": "N/A",
								"IsDefault": "0",
								"Fields": [
									{
										"CodeName": "imagelink",
										"Type": "link",
										"LookUpKey": "",
										"IsMultiLang": "1",
										"NameEN": "Brand Link",
										"DescEN": "",
										"NameAR": "رابط العلامة التجارية",
										"DescAR": "",
										"ValueEN": "#",
										"ValueAR": "#"
									},
									{
										"CodeName": "slideimage",
										"Type": "image",
										"LookUpKey": "",
										"IsMultiLang": "1",
										"NameEN": "Brand Image",
										"DescEN": "",
										"NameAR": "صورة العلامة التجارية",
										"DescAR": "",
										"ValueEN": "data/largance/part6.png",
										"ValueAR": "data/largance/part6.png"
									}
								]
							}
						]
					},

					{
						"CodeName": "productSliderSpecial",
						"Name": "Special Products slider",
						"Type": "available",
						"State": "enabled",
						"IsCollection": 0,
						"NameEN": "Special Products",
						"DescEN": "",
						"ImageEN": "N/A",
						"ThumbnailEN": "N/A",
						"NameAR": "المنتجات ذات العروض",
						"DescAR": "",
						"ImageAR": "N/A",
						"ThumbnailAR": "N/A",
						"Fields": [
							{
								"CodeName": "sectiontitle",
								"Type": "text",
								"LookUpKey": "",
								"IsMultiLang": "1",
								"NameEN": "Section Title",
								"DescEN": "",
								"NameAR": "عنوان القسم",
								"DescAR": "",
								"ValueEN": "Special Products",
								"ValueAR": "العروض الخاصة"
							},
							{
								"CodeName": "displaysectiontitle",
								"Type": "checkbox",
								"LookUpKey": "",
								"IsMultiLang": "0",
								"NameEN": "Display Section Title",
								"DescEN": "",
								"NameAR": "عرض عنوان القسم",
								"DescAR": "",
								"ValueEN": "1",
								"ValueAR": "1"
							}
						]
					},
					{
						"CodeName": "productSliderLatest",
						"Name": "Latest Products slider",
						"Type": "available",
						"State": "enabled",
						"IsCollection": 0,
						"NameEN": "Latest Products",
						"DescEN": "",
						"ImageEN": "N/A",
						"ThumbnailEN": "N/A",
						"NameAR": "المنتجات الأحدث",
						"DescAR": "",
						"ImageAR": "N/A",
						"ThumbnailAR": "N/A",
						"Fields": [
							{
								"CodeName": "sectiontitle",
								"Type": "text",
								"LookUpKey": "",
								"IsMultiLang": "1",
								"NameEN": "Section Title",
								"DescEN": "",
								"NameAR": "عنوان القسم",
								"DescAR": "",
								"ValueEN": "Latest Products",
								"ValueAR": "وصل حديثا"
							},
							{
								"CodeName": "displaysectiontitle",
								"Type": "checkbox",
								"LookUpKey": "",
								"IsMultiLang": "0",
								"NameEN": "Display Section Title",
								"DescEN": "",
								"NameAR": "عرض عنوان القسم",
								"DescAR": "",
								"ValueEN": "1",
								"ValueAR": "1"
							}
						]
					},

					{
						"CodeName": "productSliderBestSeller",
						"Name": "Latest Products slider",
						"Type": "available",
						"State": "enabled",
						"IsCollection": 0,
						"NameEN": "Bestseller Products",
						"DescEN": "",
						"ImageEN": "N/A",
						"ThumbnailEN": "N/A",
						"NameAR": "المنتجات الأكثر مبيعاً",
						"DescAR": "",
						"ImageAR": "N/A",
						"ThumbnailAR": "N/A",
						"Fields": [
							{
								"CodeName": "sectiontitle",
								"Type": "text",
								"LookUpKey": "",
								"IsMultiLang": "1",
								"NameEN": "Section Title",
								"DescEN": "",
								"NameAR": "عنوان القسم",
								"DescAR": "",
								"ValueEN": "Best Selling Products",
								"ValueAR": "الاكثر مبيعاً"
							},
							{
								"CodeName": "displaysectiontitle",
								"Type": "checkbox",
								"LookUpKey": "",
								"IsMultiLang": "0",
								"NameEN": "Display Section Title",
								"DescEN": "",
								"NameAR": "عرض عنوان القسم",
								"DescAR": "",
								"ValueEN": "1",
								"ValueAR": "1"
							}
						]
					},
					{
						"CodeName": "productSliderFeatured",
						"Name": "featured Products slider",
						"Type": "available",
						"State": "enabled",
						"IsCollection": 0,
						"NameEN": "Selected Products",
						"DescEN": "",
						"ImageEN": "N/A",
						"ThumbnailEN": "N/A",
						"NameAR": "منتجات مختارة",
						"DescAR": "",
						"ImageAR": "N/A",
						"ThumbnailAR": "N/A",
						"Fields": [
							{
								"CodeName": "sectiontitle",
								"Type": "text",
								"LookUpKey": "",
								"IsMultiLang": "1",
								"NameEN": "Section Title",
								"DescEN": "",
								"NameAR": "عنوان القسم",
								"DescAR": "",
								"ValueEN": "Featured Products",
								"ValueAR": "منتجات مختارة"
							},
							{
								"CodeName": "displaysectiontitle",
								"Type": "checkbox",
								"LookUpKey": "",
								"IsMultiLang": "0",
								"NameEN": "Display Section Title",
								"DescEN": "",
								"NameAR": "عرض عنوان القسم",
								"DescAR": "",
								"ValueEN": "1",
								"ValueAR": "1"
							},
							{
								"CodeName": "products",
								"Type": "tags-product",
								"LookUpKey": "",
								"IsMultiLang": "0",
								"NameEN": "Products",
								"DescEN": "",
								"NameAR": "المنتجات",
								"DescAR": "",
								"ValueEN": "0,0,0,0,0,0,0,0,0",
								"ValueAR": "0,0,0,0,0,0,0,0,0"
							}
						]
					},
					{
						"CodeName": "productSliderCategory",
						"Name": "Latest Products slider",
						"Type": "available",
						"State": "enabled",
						"IsCollection": 0,
						"NameEN": "Products From Category",
						"DescEN": "",
						"ImageEN": "N/A",
						"ThumbnailEN": "N/A",
						"NameAR": "منتجات من قسم",
						"DescAR": "",
						"ImageAR": "N/A",
						"ThumbnailAR": "N/A",
						"Fields": [
							{
								"CodeName": "sectiontitle",
								"Type": "text",
								"LookUpKey": "",
								"IsMultiLang": "1",
								"NameEN": "Section Title",
								"DescEN": "",
								"NameAR": "عنوان القسم",
								"DescAR": "",
								"ValueEN": "Phone Accessories",
								"ValueAR": "مستلزمات هواتف"
							},
							{
								"CodeName": "displaysectiontitle",
								"Type": "checkbox",
								"LookUpKey": "",
								"IsMultiLang": "0",
								"NameEN": "Display Section Title",
								"DescEN": "",
								"NameAR": "عرض عنوان القسم",
								"DescAR": "",
								"ValueEN": "1",
								"ValueAR": "1"
							},
							{
								"CodeName": "categories",
								"Type": "tags-category",
								"LookUpKey": "",
								"IsMultiLang": "0",
								"NameEN": "Categories",
								"DescEN": "",
								"NameAR": "الأقسام",
								"DescAR": "",
								"ValueEN": "0",
								"ValueAR": "0"
							}
						]
					},

					{
						"CodeName": "banner",
						"Name": "image banner",
						"Type": "available",
						"State": "enabled",
						"IsCollection": 0,
						"NameEN": "Banner",
						"DescEN": "",
						"ImageEN": "N/A",
						"ThumbnailEN": "N/A",
						"NameAR": "إعلان",
						"DescAR": "",
						"ImageAR": "N/A",
						"ThumbnailAR": "N/A",
						"Fields": [
							{
								"CodeName": "bannerlink",
								"Type": "link",
								"LookUpKey": "",
								"IsMultiLang": "1",
								"NameEN": "Banner Link",
								"DescEN": "",
								"NameAR": "رابط الإعلان",
								"DescAR": "",
								"ValueEN": "#",
								"ValueAR": "#"
							},
							{
								"CodeName": "bannerimage",
								"Type": "image",
								"LookUpKey": "",
								"IsMultiLang": "1",
								"NameEN": "Banner Image",
								"DescEN": "",
								"NameAR": "صورة الإعلان",
								"DescAR": "",
								"ValueEN": "data/largance/banner.jpg",
								"ValueAR": "data/largance/banner.jpg"
							}
						]
					},

					{
						"CodeName": "latestproductstemplate1",
						"Name": "Product Slider ( Latest )",
						"Type": "available",
						"State": "enabled",
						"IsCollection": 0,
						"NameEN": "Latest Products - Grid",
						"DescEN": "",
						"ImageEN": "N/A",
						"ThumbnailEN": "N/A",
						"NameAR": "المنتجات الأحدث - شبكة منتجات",
						"DescAR": "",
						"ImageAR": "N/A",
						"ThumbnailAR": "N/A",
						"Fields": [
							{
								"CodeName": "sectiontitle",
								"Type": "text",
								"LookUpKey": "",
								"IsMultiLang": "1",
								"NameEN": "Section Title",
								"DescEN": "",
								"NameAR": "عنوان القسم",
								"DescAR": "",
								"ValueEN": "Arrival Products",
								"ValueAR": "المنتجات الأحدث"
							},
							{
								"CodeName": "displaysectiontitle",
								"Type": "checkbox",
								"LookUpKey": "",
								"IsMultiLang": "0",
								"NameEN": "Display Section Title",
								"DescEN": "",
								"NameAR": "عرض عنوان القسم",
								"DescAR": "",
								"ValueEN": "1",
								"ValueAR": "1"
							},
							{
								"CodeName": "rows",
								"Type": "sselect-lookup",
								"LookUpKey": "base-pbox-rows",
								"IsMultiLang": "0",
								"NameEN": "Number of Rows",
								"DescEN": "",
								"NameAR": "عدد الصفوف",
								"DescAR": "",
								"ValueEN": "2",
								"ValueAR": "2"
							}
						]
					},

					{
						"CodeName": "bestsalesproductstemplate1",
						"Name": "Products Slider ( Best selling )",
						"Type": "available",
						"State": "enabled",
						"IsCollection": 0,
						"NameEN": "Bestseller Products - Grid",
						"DescEN": "",
						"ImageEN": "N/A",
						"ThumbnailEN": "N/A",
						"NameAR": "المنتجات الأكثر مبيعاً - شبكة منتجات",
						"DescAR": "",
						"ImageAR": "N/A",
						"ThumbnailAR": "N/A",
						"Fields": [
							{
								"CodeName": "sectiontitle",
								"Type": "text",
								"LookUpKey": "",
								"IsMultiLang": "1",
								"NameEN": "Section Title",
								"DescEN": "",
								"NameAR": "عنوان القسم",
								"DescAR": "",
								"ValueEN": "Arrival Products",
								"ValueAR": "المنتجات الأحدث"
							},
							{
								"CodeName": "displaysectiontitle",
								"Type": "checkbox",
								"LookUpKey": "",
								"IsMultiLang": "0",
								"NameEN": "Display Section Title",
								"DescEN": "",
								"NameAR": "عرض عنوان القسم",
								"DescAR": "",
								"ValueEN": "1",
								"ValueAR": "1"
							},
							{
								"CodeName": "rows",
								"Type": "sselect-lookup",
								"LookUpKey": "base-pbox-rows",
								"IsMultiLang": "0",
								"NameEN": "Number of Rows",
								"DescEN": "",
								"NameAR": "عدد الصفوف",
								"DescAR": "",
								"ValueEN": "2",
								"ValueAR": "2"
							}
						]
					},
					{
						"CodeName": "featuredproductstemplate1",
						"Name": "Products Slider ( Featured )",
						"Type": "available",
						"State": "enabled",
						"IsCollection": 0,
						"NameEN": "Selected Products - Grid",
						"DescEN": "",
						"ImageEN": "N/A",
						"ThumbnailEN": "N/A",
						"NameAR": "منتجات مختارة - شبكة منتجات",
						"DescAR": "",
						"ImageAR": "N/A",
						"ThumbnailAR": "N/A",
						"Fields": [
							{
								"CodeName": "sectiontitle",
								"Type": "text",
								"LookUpKey": "",
								"IsMultiLang": "1",
								"NameEN": "Section Title",
								"DescEN": "",
								"NameAR": "عنوان القسم",
								"DescAR": "",
								"ValueEN": "Arrival Products",
								"ValueAR": "المنتجات الأحدث"
							},
							{
								"CodeName": "displaysectiontitle",
								"Type": "checkbox",
								"LookUpKey": "",
								"IsMultiLang": "0",
								"NameEN": "Display Section Title",
								"DescEN": "",
								"NameAR": "عرض عنوان القسم",
								"DescAR": "",
								"ValueEN": "1",
								"ValueAR": "1"
							},
							{
								"CodeName": "products",
								"Type": "tags-product",
								"LookUpKey": "",
								"IsMultiLang": "0",
								"NameEN": "Products",
								"DescEN": "",
								"NameAR": "المنتجات",
								"DescAR": "",
								"ValueEN": "0,0,0,0,0,0,0,0,0,0,0,0,0,0,0,0,0,0,0,0",
								"ValueAR": "0,0,0,0,0,0,0,0,0,0,0,0,0,0,0,0,0,0,0,0"
							},
							{
								"CodeName": "rows",
								"Type": "sselect-lookup",
								"LookUpKey": "base-pbox-rows",
								"IsMultiLang": "0",
								"NameEN": "Number of Rows",
								"DescEN": "",
								"NameAR": "عدد الصفوف",
								"DescAR": "",
								"ValueEN": "2",
								"ValueAR": "2"
							}
						]
					},
					{
						"CodeName": "specialproductstemplate1",
						"Name": "Product Slider ( Special )",
						"Type": "available",
						"State": "enabled",
						"IsCollection": 0,
						"NameEN": "Special Products - Grid",
						"DescEN": "",
						"ImageEN": "N/A",
						"ThumbnailEN": "N/A",
						"NameAR": "المنتجات ذات العروض - شبكة منتجات",
						"DescAR": "",
						"ImageAR": "N/A",
						"ThumbnailAR": "N/A",
						"Fields": [
							{
								"CodeName": "sectiontitle",
								"Type": "text",
								"LookUpKey": "",
								"IsMultiLang": "1",
								"NameEN": "Section Title",
								"DescEN": "",
								"NameAR": "عنوان القسم",
								"DescAR": "",
								"ValueEN": "Arrival Products",
								"ValueAR": "المنتجات الأحدث"
							},
							{
								"CodeName": "displaysectiontitle",
								"Type": "checkbox",
								"LookUpKey": "",
								"IsMultiLang": "0",
								"NameEN": "Display Section Title",
								"DescEN": "",
								"NameAR": "عرض عنوان القسم",
								"DescAR": "",
								"ValueEN": "1",
								"ValueAR": "1"
							},
							{
								"CodeName": "rows",
								"Type": "sselect-lookup",
								"LookUpKey": "base-pbox-rows",
								"IsMultiLang": "0",
								"NameEN": "Number of Rows",
								"DescEN": "",
								"NameAR": "عدد الصفوف",
								"DescAR": "",
								"ValueEN": "2",
								"ValueAR": "2"
							}
						]
					},


					{
						"CodeName": "featuredCat",
						"Name": "Products from Featured Category",
						"Type": "available",
						"State": "enabled",
						"IsCollection": 0,
						"NameEN": "Selected Categories",
						"DescEN": "",
						"ImageEN": "N/A",
						"ThumbnailEN": "N/A",
						"NameAR": "الأقسام المختارة",
						"DescAR": "",
						"ImageAR": "N/A",
						"ThumbnailAR": "N/A",
						"Fields": [
							{
								"CodeName": "sectiontitle",
								"Type": "text",
								"LookUpKey": "",
								"IsMultiLang": "1",
								"NameEN": "Section Title",
								"DescEN": "",
								"NameAR": "عنوان القسم",
								"DescAR": "",
								"ValueEN": "Featured Categories",
								"ValueAR": "أقسام مميزة"
							},
							{
								"CodeName": "displaysectiontitle",
								"Type": "checkbox",
								"LookUpKey": "",
								"IsMultiLang": "0",
								"NameEN": "Display Section Title",
								"DescEN": "",
								"NameAR": "عرض عنوان القسم",
								"DescAR": "",
								"ValueEN": "1",
								"ValueAR": "1"
							},
							{
								"CodeName": "categories",
								"Type": "tags-category",
								"LookUpKey": "",
								"IsMultiLang": "0",
								"NameEN": "Categories",
								"DescEN": "",
								"NameAR": "الأقسام",
								"DescAR": "",
								"ValueEN": "0,0,0,0",
								"ValueAR": "0,0,0,0"
							}
						]
					},

					{
						"CodeName": "bannercollection",
						"Name": "Banner 1",
						"Type": "available",
						"State": "enabled",
						"IsCollection": 1,
						"CollectionNameEN": "Banners",
						"CollectionNameAR": "الصور الدعائية",
						"CollectionItemNameEN": "Banner",
						"CollectionItemNameAR": "صورة دعائية",
						"CollectionButtonNameEN": "Add New Banner",
						"CollectionButtonNameAR": "اضف صورة دعائية جديدة",
						"NameEN": "Banners",
						"DescEN": "",
						"ImageEN": "N/A",
						"ThumbnailEN": "N/A",
						"NameAR": "صور دعائية",
						"DescAR": "",
						"ImageAR": "N/A",
						"ThumbnailAR": "N/A",
						"Collections": [
							{
								"Name": "My Banner",
								"Thumbnail": "N/A",
								"IsDefault": "1",
								"Fields": [
									{
										"CodeName": "bannerimage",
										"Type": "image",
										"LookUpKey": "",
										"IsMultiLang": "1",
										"NameEN": "Banner Image",
										"DescEN": "",
										"NameAR": "الصورة الدعائية",
										"DescAR": "",
										"ValueEN": "data/largance/banner.jpg",
										"ValueAR": "data/largance/banner.jpg"
									},
									{
										"CodeName": "bannerlink",
										"Type": "link",
										"LookUpKey": "",
										"IsMultiLang": "1",
										"NameEN": "Banner Link",
										"DescEN": "",
										"NameAR": "رابط الصورة الدعائية",
										"DescAR": "",
										"ValueEN": "#",
										"ValueAR": "#"
									},
									{
										"CodeName": "bannerwidth",
										"Type": "sselect-lookup",
										"LookUpKey": "base-banner-width",
										"IsMultiLang": "1",
										"NameEN": "Banner Width",
										"DescEN": "",
										"NameAR": "عرض الصورة الدعائية",
										"DescAR": "",
										"ValueEN": "1/2",
										"ValueAR": "1/2"
									}
								]
							},
							{
								"Name": "My Banner 1",
								"Thumbnail": "N/A",
								"IsDefault": "0",
								"Fields": [
									{
										"CodeName": "bannerimage",
										"Type": "image",
										"LookUpKey": "",
										"IsMultiLang": "1",
										"NameEN": "Banner Image",
										"DescEN": "",
										"NameAR": "الصورة الدعائية",
										"DescAR": "",
										"ValueEN": "data/largance/banner.jpg",
										"ValueAR": "data/largance/banner.jpg"
									},
									{
										"CodeName": "bannerlink",
										"Type": "link",
										"LookUpKey": "",
										"IsMultiLang": "1",
										"NameEN": "Banner Link",
										"DescEN": "",
										"NameAR": "رابط الصورة الدعائية",
										"DescAR": "",
										"ValueEN": "#",
										"ValueAR": "#"
									},
									{
										"CodeName": "bannerwidth",
										"Type": "sselect-lookup",
										"LookUpKey": "base-banner-width",
										"IsMultiLang": "1",
										"NameEN": "Banner Width",
										"DescEN": "",
										"NameAR": "عرض الصورة الدعائية",
										"DescAR": "",
										"ValueEN": "1/2",
										"ValueAR": "1/2"
									}
								]
							},
							{
								"Name": "My Banner 2",
								"Thumbnail": "N/A",
								"IsDefault": "0",
								"Fields": [
									{
										"CodeName": "bannerimage",
										"Type": "image",
										"LookUpKey": "",
										"IsMultiLang": "1",
										"NameEN": "Banner Image",
										"DescEN": "",
										"NameAR": "الصورة الدعائية",
										"DescAR": "",
										"ValueEN": "data/largance/banner.jpg",
										"ValueAR": "data/largance/banner.jpg"
									},
									{
										"CodeName": "bannerlink",
										"Type": "link",
										"LookUpKey": "",
										"IsMultiLang": "1",
										"NameEN": "Banner Link",
										"DescEN": "",
										"NameAR": "رابط الصورة الدعائية",
										"DescAR": "",
										"ValueEN": "#",
										"ValueAR": "#"
									},
									{
										"CodeName": "bannerwidth",
										"Type": "sselect-lookup",
										"LookUpKey": "base-banner-width",
										"IsMultiLang": "1",
										"NameEN": "Banner Width",
										"DescEN": "",
										"NameAR": "عرض الصورة الدعائية",
										"DescAR": "",
										"ValueEN": "1/2",
										"ValueAR": "1/2"
									}
								]
							}
						]
					},

					{
						"CodeName": "megaBlockLatest",
						"Name": "Special Products slider",
						"Type": "available",
						"State": "enabled",
						"IsCollection": 0,
						"NameEN": "Latest Products - Promotion Block",
						"DescEN": "",
						"ImageEN": "N/A",
						"ThumbnailEN": "N/A",
						"NameAR": "المنتجات الأحدث - المربع الدعائي",
						"DescAR": "",
						"ImageAR": "N/A",
						"ThumbnailAR": "N/A",
						"Fields": [
							{
								"CodeName": "boxcolor",
								"Type": "sselect-lookup",
								"LookUpKey": "block-color",
								"IsMultiLang": "1",
								"NameEN": "Section Color",
								"DescEN": "",
								"NameAR": "لون القسم",
								"DescAR": "",
								"ValueEN": "blue-block",
								"ValueAR": "blue-block"
							},
							{
								"CodeName": "sectiontitle",
								"Type": "text",
								"LookUpKey": "",
								"IsMultiLang": "1",
								"NameEN": "Section Title",
								"DescEN": "",
								"NameAR": "عنوان القسم",
								"DescAR": "",
								"ValueEN": "Latest Products",
								"ValueAR": "وصل حديثاً"
							},
							{
								"CodeName": "displaysectiontitle",
								"Type": "checkbox",
								"LookUpKey": "",
								"IsMultiLang": "0",
								"NameEN": "Display Section Title",
								"DescEN": "",
								"NameAR": "عرض عنوان القسم",
								"DescAR": "",
								"ValueEN": "1",
								"ValueAR": "1"
							},
							{
								"CodeName": "bottomdisplayAds",
								"Type": "checkbox",
								"LookUpKey": "",
								"IsMultiLang": "0",
								"NameEN": "Display Banner",
								"DescEN": "",
								"NameAR": "عرض الإعلان",
								"DescAR": "",
								"ValueEN": "1",
								"ValueAR": "1"
							},
							{
								"CodeName": "bottomadsLink",
								"Type": "link",
								"LookUpKey": "",
								"IsMultiLang": "1",
								"NameEN": "Banner Link",
								"DescEN": "",
								"NameAR": "رابط الإعلان",
								"DescAR": "",
								"ValueEN": "#",
								"ValueAR": "#"
							},
							{
								"CodeName": "bottombuttontext",
								"Type": "text",
								"LookUpKey": "",
								"IsMultiLang": "1",
								"NameEN": "Link Text",
								"DescEN": "",
								"NameAR": "اسم الرابط",
								"DescAR": "",
								"ValueEN": "shop now",
								"ValueAR": "تسوق الان"
							},
							{
								"CodeName": "bottomadsImage",
								"Type": "image",
								"LookUpKey": "",
								"IsMultiLang": "1",
								"NameEN": "Banner Image",
								"DescEN": "",
								"NameAR": "صورة الإعلان",
								"DescAR": "",
								"ValueEN": "data/largance/banner-electronics.jpg",
								"ValueAR": "data/largance/banner-electronics.jpg"
							},
							{
								"CodeName": "bottomtitle",
								"Type": "text",
								"LookUpKey": "",
								"IsMultiLang": "1",
								"NameEN": "Banner Main Title",
								"DescEN": "",
								"NameAR": "عنوان الإعلان الرئيسي",
								"DescAR": "",
								"ValueEN": "UPTO 23% OFF",
								"ValueAR": "خصومات هائلة!"
							},
							{
								"CodeName": "bottomsubtitle",
								"Type": "text",
								"LookUpKey": "",
								"IsMultiLang": "1",
								"NameEN": "Banner Sub Title",
								"DescEN": "",
								"NameAR": "عنوان الإعلان الفرعي",
								"DescAR": "",
								"ValueEN": "Laptop-Dell XPS",
								"ValueAR": "كمبيوتر محمول طراز سوني"
							}
						]
					},
					{
						"CodeName": "megaBlockSpecial",
						"Name": "Special Products slider",
						"Type": "available",
						"State": "enabled",
						"IsCollection": 0,
						"NameEN": "Special Products - Promotion Block",
						"DescEN": "",
						"ImageEN": "N/A",
						"ThumbnailEN": "N/A",
						"NameAR": "المنتجات ذات العروض - المربع الدعائي",
						"DescAR": "",
						"ImageAR": "N/A",
						"ThumbnailAR": "N/A",
						"Fields": [
							{
								"CodeName": "boxcolor",
								"Type": "sselect-lookup",
								"LookUpKey": "block-color",
								"IsMultiLang": "1",
								"NameEN": "Section Color",
								"DescEN": "",
								"NameAR": "لون القسم",
								"DescAR": "",
								"ValueEN": "red-block",
								"ValueAR": "red-block"
							},
							{
								"CodeName": "sectiontitle",
								"Type": "text",
								"LookUpKey": "",
								"IsMultiLang": "1",
								"NameEN": "Section Title",
								"DescEN": "",
								"NameAR": "عنوان القسم",
								"DescAR": "",
								"ValueEN": "Special Offers",
								"ValueAR": "وصل حديثاً"
							},
							{
								"CodeName": "displaysectiontitle",
								"Type": "checkbox",
								"LookUpKey": "",
								"IsMultiLang": "0",
								"NameEN": "Display Section Title",
								"DescEN": "",
								"NameAR": "عرض عنوان القسم",
								"DescAR": "",
								"ValueEN": "1",
								"ValueAR": "1"
							},
							{
								"CodeName": "bottomdisplayAds",
								"Type": "checkbox",
								"LookUpKey": "",
								"IsMultiLang": "0",
								"NameEN": "Display Banner",
								"DescEN": "",
								"NameAR": "عرض الإعلان",
								"DescAR": "",
								"ValueEN": "1",
								"ValueAR": "1"
							},
							{
								"CodeName": "bottomadsLink",
								"Type": "link",
								"LookUpKey": "",
								"IsMultiLang": "1",
								"NameEN": "Banner Link",
								"DescEN": "",
								"NameAR": "رابط الإعلان",
								"DescAR": "",
								"ValueEN": "#",
								"ValueAR": "#"
							},
							{
								"CodeName": "bottombuttontext",
								"Type": "text",
								"LookUpKey": "",
								"IsMultiLang": "1",
								"NameEN": "Link Text",
								"DescEN": "",
								"NameAR": "اسم الرابط",
								"DescAR": "",
								"ValueEN": "shop now",
								"ValueAR": "تسوق الان"
							},
							{
								"CodeName": "bottomadsImage",
								"Type": "image",
								"LookUpKey": "",
								"IsMultiLang": "1",
								"NameEN": "Banner Image",
								"DescEN": "",
								"NameAR": "صورة الإعلان",
								"DescAR": "",
								"ValueEN": "data/largance/banner-electronics.jpg",
								"ValueAR": "data/largance/banner-electronics.jpg"
							},
							{
								"CodeName": "bottomtitle",
								"Type": "text",
								"LookUpKey": "",
								"IsMultiLang": "1",
								"NameEN": "Banner Main Title",
								"DescEN": "",
								"NameAR": "عنوان الإعلان الرئيسي",
								"DescAR": "",
								"ValueEN": "UPTO 23% OFF",
								"ValueAR": "خصومات هائلة!"
							},
							{
								"CodeName": "bottomsubtitle",
								"Type": "text",
								"LookUpKey": "",
								"IsMultiLang": "1",
								"NameEN": "Banner Sub Title",
								"DescEN": "",
								"NameAR": "عنوان الإعلان الفرعي",
								"DescAR": "",
								"ValueEN": "Laptop-Dell XPS",
								"ValueAR": "كمبيوتر محمول طراز سوني"
							}
						]
					},
					{
						"CodeName": "megaBlockBestSeller",
						"Name": "Special Products slider",
						"Type": "available",
						"State": "enabled",
						"IsCollection": 0,
						"NameEN": "Bestseller Products - Promotion Block",
						"DescEN": "",
						"ImageEN": "N/A",
						"ThumbnailEN": "N/A",
						"NameAR": "المنتجات الأكثر مبيعاً - المربع الدعائي",
						"DescAR": "",
						"ImageAR": "N/A",
						"ThumbnailAR": "N/A",
						"Fields": [
							{
								"CodeName": "boxcolor",
								"Type": "sselect-lookup",
								"LookUpKey": "block-color",
								"IsMultiLang": "1",
								"NameEN": "Section Color",
								"DescEN": "",
								"NameAR": "لون القسم",
								"DescAR": "",
								"ValueEN": "orange-block",
								"ValueAR": "orange-block"
							},
							{
								"CodeName": "sectiontitle",
								"Type": "text",
								"LookUpKey": "",
								"IsMultiLang": "1",
								"NameEN": "Section Title",
								"DescEN": "",
								"NameAR": "عنوان القسم",
								"DescAR": "",
								"ValueEN": "Best Selling Products",
								"ValueAR": "وصل حديثاً"
							},
							{
								"CodeName": "displaysectiontitle",
								"Type": "checkbox",
								"LookUpKey": "",
								"IsMultiLang": "0",
								"NameEN": "Display Section Title",
								"DescEN": "",
								"NameAR": "عرض عنوان القسم",
								"DescAR": "",
								"ValueEN": "1",
								"ValueAR": "1"
							},
							{
								"CodeName": "bottomdisplayAds",
								"Type": "checkbox",
								"LookUpKey": "",
								"IsMultiLang": "0",
								"NameEN": "Display Banner",
								"DescEN": "",
								"NameAR": "عرض الإعلان",
								"DescAR": "",
								"ValueEN": "1",
								"ValueAR": "1"
							},
							{
								"CodeName": "bottomadsLink",
								"Type": "link",
								"LookUpKey": "",
								"IsMultiLang": "1",
								"NameEN": "Banner Link",
								"DescEN": "",
								"NameAR": "رابط الإعلان",
								"DescAR": "",
								"ValueEN": "#",
								"ValueAR": "#"
							},
							{
								"CodeName": "bottombuttontext",
								"Type": "text",
								"LookUpKey": "",
								"IsMultiLang": "1",
								"NameEN": "Link Text",
								"DescEN": "",
								"NameAR": "اسم الرابط",
								"DescAR": "",
								"ValueEN": "shop now",
								"ValueAR": "تسوق الان"
							},
							{
								"CodeName": "bottomadsImage",
								"Type": "image",
								"LookUpKey": "",
								"IsMultiLang": "1",
								"NameEN": "Banner Image",
								"DescEN": "",
								"NameAR": "صورة الإعلان",
								"DescAR": "",
								"ValueEN": "data/largance/banner-electronics.jpg",
								"ValueAR": "data/largance/banner-electronics.jpg"
							},
							{
								"CodeName": "bottomtitle",
								"Type": "text",
								"LookUpKey": "",
								"IsMultiLang": "1",
								"NameEN": "Banner Main Title",
								"DescEN": "",
								"NameAR": "عنوان الإعلان الرئيسي",
								"DescAR": "",
								"ValueEN": "UPTO 23% OFF",
								"ValueAR": "خصومات هائلة!"
							},
							{
								"CodeName": "bottomsubtitle",
								"Type": "text",
								"LookUpKey": "",
								"IsMultiLang": "1",
								"NameEN": "Banner Sub Title",
								"DescEN": "",
								"NameAR": "عنوان الإعلان الفرعي",
								"DescAR": "",
								"ValueEN": "Laptop-Dell XPS",
								"ValueAR": "كمبيوتر محمول طراز سوني"
							}
						]
					},
					{
						"CodeName": "megaBlockCategory",
						"Name": "Category Products slider",
						"Type": "available",
						"State": "enabled",
						"IsCollection": 0,
						"NameEN": "Selected Category Products - Promotion Block",
						"DescEN": "",
						"ImageEN": "N/A",
						"ThumbnailEN": "N/A",
						"NameAR": "منتجات قسم مختار - المربع الدعائي",
						"DescAR": "",
						"ImageAR": "N/A",
						"ThumbnailAR": "N/A",
						"Fields": [
							{
								"CodeName": "boxcolor",
								"Type": "sselect-lookup",
								"LookUpKey": "block-color",
								"IsMultiLang": "1",
								"NameEN": "Section Color",
								"DescEN": "",
								"NameAR": "لون القسم",
								"DescAR": "",
								"ValueEN": "green-block",
								"ValueAR": "green-block"
							},
							{
								"CodeName": "sectiontitle",
								"Type": "text",
								"LookUpKey": "",
								"IsMultiLang": "1",
								"NameEN": "Section Title",
								"DescEN": "",
								"NameAR": "عنوان القسم",
								"DescAR": "",
								"ValueEN": "Phone Accessories",
								"ValueAR": "كماليات هواتف"
							},
							{
								"CodeName": "displaysectiontitle",
								"Type": "checkbox",
								"LookUpKey": "",
								"IsMultiLang": "0",
								"NameEN": "Display Section Title",
								"DescEN": "",
								"NameAR": "عرض عنوان القسم",
								"DescAR": "",
								"ValueEN": "1",
								"ValueAR": "1"
							},
							{
								"CodeName": "bottomdisplayAds",
								"Type": "checkbox",
								"LookUpKey": "",
								"IsMultiLang": "0",
								"NameEN": "Display Banner",
								"DescEN": "",
								"NameAR": "عرض الإعلان",
								"DescAR": "",
								"ValueEN": "1",
								"ValueAR": "1"
							},
							{
								"CodeName": "bottomadsLink",
								"Type": "link",
								"LookUpKey": "",
								"IsMultiLang": "1",
								"NameEN": "Banner Link",
								"DescEN": "",
								"NameAR": "رابط الإعلان",
								"DescAR": "",
								"ValueEN": "#",
								"ValueAR": "#"
							},
							{
								"CodeName": "bottombuttontext",
								"Type": "text",
								"LookUpKey": "",
								"IsMultiLang": "1",
								"NameEN": "Link Text",
								"DescEN": "",
								"NameAR": "اسم الرابط",
								"DescAR": "",
								"ValueEN": "shop now",
								"ValueAR": "تسوق الان"
							},
							{
								"CodeName": "bottomadsImage",
								"Type": "image",
								"LookUpKey": "",
								"IsMultiLang": "1",
								"NameEN": "Banner Image",
								"DescEN": "",
								"NameAR": "صورة الإعلان",
								"DescAR": "",
								"ValueEN": "data/largance/banner-electronics.jpg",
								"ValueAR": "data/largance/banner-electronics.jpg"
							},
							{
								"CodeName": "bottomtitle",
								"Type": "text",
								"LookUpKey": "",
								"IsMultiLang": "1",
								"NameEN": "Banner Main Title",
								"DescEN": "",
								"NameAR": "عنوان الإعلان الرئيسي",
								"DescAR": "",
								"ValueEN": "UPTO 23% OFF",
								"ValueAR": "خصومات هائلة!"
							},
							{
								"CodeName": "bottomsubtitle",
								"Type": "text",
								"LookUpKey": "",
								"IsMultiLang": "1",
								"NameEN": "Banner Sub Title",
								"DescEN": "",
								"NameAR": "عنوان الإعلان الفرعي",
								"DescAR": "",
								"ValueEN": "Laptop-Dell XPS",
								"ValueAR": "كمبيوتر محمول طراز سوني"
							},
							{
								"CodeName": "categories",
								"Type": "tags-category",
								"LookUpKey": "",
								"IsMultiLang": "0",
								"NameEN": "Categories",
								"DescEN": "",
								"NameAR": "الأقسام",
								"DescAR": "",
								"ValueEN": "0",
								"ValueAR": "0"
							}
						]
					}

				]
			},
			{
				"CodeName": "sidecontent",
				"RowOrder": "0",
				"ColOrder": "0",
				"ColWidth": "3",
				"NameEN": "Side Content",
				"NameAR": "المحتوى الجانبي",
				"DescEN": "",
				"DescAR": "",
				"Sections": [

					{
						"CodeName": "sidecategories",
						"Name": "Side Categories",
						"Type": "live",
						"State": "enabled",
						"IsCollection": 0,
						"NameEN": "Side Categories",
						"DescEN": "",
						"ImageEN": "N/A",
						"ThumbnailEN": "N/A",
						"NameAR": "تصنيفات جانبية",
						"DescAR": "",
						"ImageAR": "N/A",
						"ThumbnailAR": "N/A",
						"Fields": [
							{
								"CodeName": "mainheading",
								"Type": "text",
								"LookUpKey": "",
								"IsMultiLang": "1",
								"NameEN": " Title",
								"DescEN": "",
								"NameAR": "العنوان ",
								"DescAR": "",
								"ValueEN": "More Categories",
								"ValueAR": "أقسام اخري"
							},
							{
								"CodeName": "categories",
								"Type": "tags-category",
								"LookUpKey": "",
								"IsMultiLang": "0",
								"NameEN": "Categories",
								"DescEN": "",
								"NameAR": "الأقسام",
								"DescAR": "",
								"ValueEN": "0,0,0,0",
								"ValueAR": "0,0,0,0"
							}
						]
					}

				]
			}
		]
	}
	]
}